{"type":"FeatureCollection","features":[{"type":"Feature","properties":{"name":"Europe land"},"geometry":{"type":"MultiPolygon","coordinates":[[[[-1.0,50.78651195163644],[-1.0,50.80066269943189],[-0.9725642569999309,50.829779364000046],[-0.9503067699999406,50.82379791900007],[-0.9598689439999362,50.802069403000075],[-0.9388321609999366,50.788397528000075],[-0.9388321609999366,50.780951239000046],[-1.0,50.78651195163644]]],[[[0.7750757170000497,51.37531159100007],[0.7338973320000832,51.412176825000074],[0.7539168630000859,51.44570547100005],[0.8907983730000524,51.42104726800005],[0.9324650400000678,51.397691148000035],[0.9421492850000845,51.38300202000005],[0.9363712900000678,51.37103913000004],[0.9114689460000704,51.36440664300005],[0.7750757170000497,51.37531159100007]]],[[[4.089040561000047,51.64402903900009],[3.9780379570000832,51.62327708500004],[3.923106316000087,51.632473049000055],[3.901540561000047,51.64199453300006],[3.885590040000068,51.66836172100005],[3.8092554050000444,51.69953034100007],[3.795909050000091,51.70014069200005],[3.76539147200009,51.67841217700004],[3.700043165000068,51.68060944200005],[3.686696811000047,51.692694403000075],[3.689463738000086,51.725043036000045],[3.725840691000087,51.73973216400009],[3.81421959700009,51.74823639500005],[3.961761915000068,51.73810455900008],[4.036631707000083,51.68585846600007],[4.09734134200005,51.67023346600007],[4.09937584700009,51.65412018400008],[4.089040561000047,51.64402903900009]]],[[[-0.5469457669999542,49.35895416900007],[-0.47948157499990884,49.34275950700004],[-0.41112219999990884,49.34275950700004],[-0.3634333979999269,49.32501862200007],[-0.3130997389999379,49.31732819200005],[-0.2194718089999128,49.28009674700007],[-0.1940811839999128,49.29523346600007],[-0.033843553999929554,49.32005442900004],[0.012868686000047092,49.33462148600006],[0.06308027400007177,49.35447825700004],[0.0959578790000819,49.38373444200005],[0.1623641290000819,49.41518789300005],[0.4113061860000471,49.452053127000056],[0.4572860040000819,49.46743398600006],[0.49317467500009116,49.49359772300005],[0.4221297540000819,49.46442291900007],[0.33961022200008983,49.456732489000046],[0.25684655000009116,49.464056708000044],[0.10442142000005106,49.49359772300005],[0.07862389400008851,49.51552969000005],[0.07658938900004841,49.53497955900008],[0.13086998800008587,49.603501695000034],[0.17090905000009116,49.69163646000004],[0.23585045700008322,49.72931549700007],[0.38746178500008455,49.775051174000055],[0.5966903000000912,49.85724518400008],[0.6748153000000912,49.87579987200007],[0.7609155610000471,49.875067450000074],[1.1726180350000845,49.961004950000074],[1.2212020190000885,49.97898997600004],[1.2609969410000872,50.007513739000046],[1.3912866550000444,50.07518138200004],[1.4558211600000845,50.12360260600008],[1.4868270190000885,50.18504466400009],[1.5210067070000832,50.21466705900008],[1.5553491550000444,50.21771881700005],[1.6543074880000859,50.18659088700008],[1.6725366550000444,50.19253164300005],[1.6725366550000444,50.19936758000006],[1.6552840500000912,50.200506903000075],[1.6445418630000859,50.21238841400009],[1.6650496750000912,50.21238841400009],[1.6650496750000912,50.21979401200008],[1.6254988940000885,50.224310614000046],[1.6100366550000444,50.23224518400008],[1.5939233730000524,50.256293036000045],[1.5415145190000885,50.27789948100008],[1.5515242850000845,50.34906647300005],[1.5720320970000898,50.37567780200004],[1.6103621750000912,50.37067291900007],[1.6103621750000912,50.37689850500004],[1.5551863940000885,50.40477122600004],[1.5734969410000872,50.445379950000074],[1.579274936000047,50.53314850500004],[1.6103621750000912,50.548163153000075],[1.5778914720000898,50.58860911700003],[1.5626733730000524,50.69896067900004],[1.6056421230000524,50.79002513200004],[1.5805770190000885,50.868801174000055],[1.6048283210000704,50.88104889500005],[1.6533309250000912,50.889105536000045],[1.7298283210000704,50.94391510600008],[1.9734806650000678,51.007147528000075],[2.134043816000087,51.019964911000045],[2.3160913420000497,51.059027411000045],[2.3844507170000497,51.05532461100006],[2.466075066000087,51.068793036000045],[2.579925977000073,51.104803778000075],[2.715668165000068,51.16950104400007],[3.124847852000073,51.32965729400007],[3.525726759000065,51.41559479400007],[3.541351759000065,51.41673411700003],[3.604665561000047,51.391058661000045],[3.702159050000091,51.37360260600008],[3.7555444670000497,51.35008372600004],[3.833994988000086,51.34324778900009],[3.9558211600000845,51.37177155200004],[3.98414147200009,51.41046784100007],[4.02906334700009,51.40420156500005],[4.070160352000073,51.37055084800005],[4.121918165000068,51.359361070000034],[4.156504754000082,51.35757070500006],[4.180023634000065,51.37742747600004],[4.199554884000065,51.37604401200008],[4.241058790000068,51.35659414300005],[4.256114129000082,51.32843659100007],[4.302989129000082,51.296087958000044],[4.308116082000083,51.283636786000045],[4.296722852000073,51.267564195000034],[4.30836022200009,51.27122630400004],[4.3308211600000845,51.296087958000044],[4.289317254000082,51.30914948100008],[4.283050977000073,51.35008372600004],[4.257090691000087,51.37250397300005],[4.2448836600000845,51.414496161000045],[4.234711134000065,51.41901276200008],[4.201019727000073,51.40534088700008],[4.11109459700009,51.40696849200003],[4.070160352000073,51.41901276200008],[4.015147332000083,51.448919989000046],[3.957041863000086,51.45579661700003],[3.94312584700009,51.450384833000044],[3.90211022200009,51.40493398600006],[3.827159050000091,51.391058661000045],[3.789073113000086,51.412176825000074],[3.728770379000082,51.43081289300005],[3.689707879000082,51.454291083000044],[3.6100366550000444,51.44505442900004],[3.535411004000082,51.45921458500004],[3.4948022800000444,51.50092194200005],[3.461924675000091,51.51898834800005],[3.44703209700009,51.54596588700008],[3.560394727000073,51.594631252000056],[3.8510848320000832,51.61078522300005],[3.8821720710000704,51.59609609600005],[3.9057723320000832,51.569240627000056],[3.8715926440000885,51.555568752000056],[3.8715926440000885,51.54938385600008],[3.9672957690000885,51.54311758000006],[4.015879754000082,51.53082916900007],[4.0571395190000885,51.50836823100008],[4.1048283210000704,51.44570547100005],[4.180837436000047,51.44586823100008],[4.200450066000087,51.439520575000074],[4.283213738000086,51.447699286000045],[4.296722852000073,51.47052643400008],[4.288584832000083,51.49213288000004],[4.267751498000052,51.50828685100004],[4.153330925000091,51.53506094000005],[4.091319207000083,51.53506094000005],[3.988129102000073,51.590277411000045],[4.0677189460000704,51.610663153000075],[4.157237175000091,51.60789622600004],[4.207286004000082,51.590277411000045],[4.202647332000083,51.60911692900004],[4.1899520190000885,51.61668528900009],[4.135996941000087,51.620428778000075],[4.11296634200005,51.63939036700003],[4.1126408210000704,51.670803127000056],[4.142914259000065,51.68414948100008],[4.176931186000047,51.68585846600007],[4.1411238940000885,51.70392487200007],[4.071543816000087,51.71718984600005],[4.0571395190000885,51.73029205900008],[4.050791863000086,51.76349518400008],[4.0339461600000845,51.78424713700008],[3.981455925000091,51.81000397300005],[3.8715926440000885,51.788275458000044],[3.862315300000091,51.816066799000055],[3.96265709700009,51.847357489000046],[4.0476180350000845,51.833685614000046],[4.077647332000083,51.84357330900008],[4.032074415000068,51.882025458000044],[4.0319930350000845,51.89606354400007],[4.0434676440000885,51.90867747600004],[4.010020379000082,51.980129299000055],[4.015635613000086,51.98769765800006],[4.022471550000091,51.99437083500004],[4.0690210300000444,51.987941799000055],[4.107676629000082,51.991888739000046],[4.141856316000087,52.00560130400004],[4.284678582000083,52.112941799000055],[4.4069116550000444,52.22345612200007],[4.508148634000065,52.336371161000045],[4.568614129000082,52.44525788000004],[4.577321811000047,52.48094310100004],[4.596934441000087,52.50657786700003],[4.6393335300000444,52.70066966400003],[4.669444207000083,52.796576239000046],[4.7116805350000845,52.86310455900008],[4.726410352000073,52.93829987200007],[4.7454533210000704,52.96759674700007],[4.806976759000065,52.961818752000056],[4.8169051440000885,52.96759674700007],[4.824392123000052,52.960150458000044],[4.809418165000068,52.92959219000005],[4.8327742850000845,52.911322333000044],[4.8737899100000845,52.903957424000055],[4.913096550000091,52.905585028000075],[4.97828209700009,52.93569570500006],[5.078135613000086,52.954006252000056],[5.312754754000082,53.08283112200007],[5.379242384000065,53.097357489000046],[5.3997501960000704,53.12205638200004],[5.4270939460000704,53.190334377000056],[5.447438998000052,53.22089264500005],[5.504242384000065,53.257025458000044],[5.541026238000086,53.26658763200004],[5.59156334700009,53.302801825000074],[5.659678582000083,53.31195709800005],[5.694590691000087,53.330064195000034],[5.980804884000065,53.40607330900008],[6.2739363940000885,53.41266510600008],[6.311534050000091,53.39899323100008],[6.345550977000073,53.41266510600008],[6.494395379000082,53.438706773000035],[6.73023522200009,53.460638739000046],[6.829112175000091,53.45058828300006],[6.86687259200005,53.43427155200004],[6.900563998000052,53.35179271000004],[6.9485783210000704,53.32607656500005],[7.0200301440000885,53.30613841400003],[7.0377710300000444,53.30963776200008],[7.05827884200005,53.301947333000044],[7.085459832000083,53.30963776200008],[7.073496941000087,53.29564036700003],[7.0807397800000444,53.266791083000044],[7.194590691000087,53.245021877000056],[7.233571811000047,53.27362702000005],[7.2369897800000444,53.28554922100005],[7.229502800000091,53.296576239000046],[7.254730665000068,53.319525458000044],[7.2915145190000885,53.323919989000046],[7.3665470710000704,53.302801825000074],[7.3425399100000845,53.32404205900008],[7.302907748000052,53.33274974200003],[7.075205925000091,53.337591864000046],[7.038259311000047,53.34857819200005],[7.023610873000052,53.37641022300005],[7.023285352000073,53.450506903000075],[7.059743686000047,53.52171458500004],[7.1196395190000885,53.51630280200004],[7.141774936000047,53.537176825000074],[7.131114129000082,53.55695221600007],[7.088877800000091,53.57371653900003],[7.086761915000068,53.58685944200005],[7.226084832000083,53.66648997600004],[7.305023634000065,53.684800523000035],[7.458832227000073,53.69513580900008],[7.503916863000086,53.67865631700005],[7.951426629000082,53.721909898000035],[8.031423373000052,53.70807526200008],[8.024912957000083,53.67255280200004],[8.052907748000052,53.63629791900007],[8.094086134000065,53.604722398000035],[8.127614780000044,53.59076569200005],[8.119151238000086,53.571926174000055],[8.156748894000089,53.563666083000044],[8.167979363000086,53.55320872600004],[8.155446811000047,53.52602773600006],[8.115733269000089,53.51072825700004],[8.058767123000052,53.502020575000074],[8.076996290000068,53.46869538000004],[8.099782748000052,53.44741445500006],[8.123871290000068,53.454006252000056],[8.152354363000086,53.44977448100008],[8.205332879000082,53.41071198100008],[8.25945071700005,53.41229889500005],[8.292816602000073,53.44049713700008],[8.315114780000044,53.47492096600007],[8.320485873000052,53.50922272300005],[8.291514519000089,53.529364325000074],[8.231211785000085,53.52521393400008],[8.248871290000068,53.590277411000045],[8.270681186000047,53.61286041900007],[8.329356316000087,53.61810944200005],[8.348480665000068,53.61286041900007],[8.387705925000091,53.57713450700004],[8.55209394600007,53.54360586100006],[8.55209394600007,53.53620026200008],[8.506195509000065,53.50796133000006],[8.49000084700009,53.486395575000074],[8.485036655000044,53.40119049700007],[8.504405144000089,53.35805898600006],[8.497569207000083,53.47475820500006],[8.512868686000047,53.49648672100005],[8.556651238000086,53.51821523600006],[8.56576582100007,53.54669830900008],[8.508311394000089,53.62514883000006],[8.487071160000085,53.66693756700005],[8.48609459700009,53.700425523000035],[8.573252800000091,53.85765208500004],[8.60710696700005,53.88153717700004],[8.651866082000083,53.89248281500005],[8.684580925000091,53.88849518400008],[8.744639519000089,53.85415273600006],[8.782481316000087,53.84247467700004],[8.86068769600007,53.83100006700005],[9.016286655000044,53.84052155200004],[9.035004102000073,53.853583075000074],[9.114512566000087,53.86513906500005],[9.193614129000082,53.86469147300005],[9.21070397200009,53.871975002000056],[9.274668816000087,53.86513906500005],[9.305349155000044,53.84454987200007],[9.402679884000065,53.74241771000004],[9.484711134000065,53.69009023600006],[9.498383009000065,53.659857489000046],[9.567067905000044,53.599595445000034],[9.69662519600007,53.556626695000034],[9.832041863000086,53.54360586100006],[9.819590691000087,53.556626695000034],[9.782074415000068,53.56972890800006],[9.692393425000091,53.57591380400004],[9.58366946700005,53.61245351800005],[9.550791863000086,53.63458893400008],[9.532237175000091,53.71116771000004],[9.435801629000082,53.74868398600006],[9.412445509000065,53.77875397300005],[9.395192905000044,53.83100006700005],[9.35873457100007,53.839544989000046],[9.257823113000086,53.88556549700007],[9.09343509200005,53.89248281500005],[9.029958530000044,53.907131252000056],[9.007823113000086,53.89248281500005],[8.984629754000082,53.89704010600008],[8.916026238000086,53.93740469000005],[8.83334394600007,54.036444403000075],[8.890635613000086,54.04779694200005],[8.975352410000085,54.02407461100006],[8.997243686000047,54.03021881700005],[9.01303144600007,54.060980536000045],[9.018321160000085,54.09788646000004],[8.974457227000073,54.12807851800005],[8.977305535000085,54.145697333000044],[8.95289147200009,54.150091864000046],[8.917979363000086,54.14630768400008],[8.86068769600007,54.12518952000005],[8.812836134000065,54.18048737200007],[8.846690300000091,54.23354726800005],[8.83961022200009,54.255560614000046],[8.922048373000052,54.27423737200007],[8.963145379000082,54.317613023000035],[8.881114129000082,54.290269273000035],[8.887950066000087,54.303941148000035],[8.774668816000087,54.290269273000035],[8.738942905000044,54.29389069200005],[8.678477410000085,54.269191799000055],[8.623383009000065,54.29010651200008],[8.602712436000047,54.31207916900007],[8.599864129000082,54.33808014500005],[8.614024285000085,54.34837474200003],[8.695567254000082,54.358587958000044],[8.695567254000082,54.36542389500005],[8.650645379000082,54.37799713700008],[8.634776238000086,54.36542389500005],[8.626231316000087,54.37641022300005],[8.629161004000082,54.38768138200004],[8.648448113000086,54.40639883000006],[8.669769727000073,54.400824286000045],[8.750824415000068,54.41380442900004],[8.88607832100007,54.41779205900008],[9.004730665000068,54.46588776200008],[9.011566602000073,54.50633372600004],[8.904470248000052,54.58063385600008],[8.878754102000073,54.60651276200008],[8.82585696700005,54.59813060100004],[8.819021030000044,54.60561758000006],[8.85328209700009,54.61928945500006],[8.805430535000085,54.687567450000074],[8.688731316000087,54.73529694200005],[8.694346550000091,54.76023997600004],[8.648448113000086,54.81785716400003],[8.642751498000052,54.844183661000045],[8.674815300000091,54.94794342700004],[8.640961134000065,55.02338288000004],[8.644786004000082,55.05573151200008],[8.681895379000082,55.13320547100005],[8.563649936000047,55.14337799700007],[8.557383660000085,55.09638092700004],[8.49935957100007,55.06557851800005],[8.470225457000083,55.07859935100004],[8.458832227000073,55.10346100500004],[8.470225457000083,55.17755768400008],[8.488942905000044,55.19717031500005],[8.530528191000087,55.20075104400007],[8.572601759000065,55.19367096600007],[8.593760613000086,55.180975653000075],[8.55209394600007,55.16054922100005],[8.555186394000089,55.14935944200005],[8.66928144600007,55.13690827000005],[8.689463738000086,55.14158763200004],[8.65593509200005,55.237494208000044],[8.648448113000086,55.28025950700004],[8.661387566000087,55.314439195000034],[8.632090691000087,55.41876862200007],[8.617686394000089,55.437933661000045],[8.592539910000085,55.449286200000074],[8.441905144000089,55.46393463700008],[8.384244505675072,55.5],[9.524561475646903,55.5],[9.498057488000086,55.489447333000044],[9.534434441000087,55.48383209800005],[9.602386915000068,55.495794989000046],[9.660166863000086,55.47797272300005],[9.664235873000052,55.46670156500005],[9.648936394000089,55.441066799000055],[9.586761915000068,55.427435614000046],[9.607920769000089,55.39325592700004],[9.600840691000087,55.36591217700004],[9.645274285000085,55.34271881700005],[9.648285352000073,55.332912502000056],[9.634613477000073,55.317572333000044],[9.681895379000082,55.274644273000035],[9.706065300000091,55.26508209800005],[9.706553582000083,55.23700592700004],[9.684418165000068,55.19757721600007],[9.67156009200005,55.19245026200008],[9.569834832000083,55.19253164300005],[9.545909050000091,55.17413971600007],[9.486338738000086,55.156236070000034],[9.486338738000086,55.14740631700005],[9.511892123000052,55.14008209800005],[9.511892123000052,55.13320547100005],[9.456553582000083,55.12571849200003],[9.521332227000073,55.11587148600006],[9.559580925000091,55.08539459800005],[9.516612175000091,55.05654531500005],[9.434336785000085,55.037543036000045],[9.442881707000083,55.02338288000004],[9.455251498000052,55.02317942900004],[9.545909050000091,55.036363023000035],[9.579925977000073,55.05068594000005],[9.662608269000089,55.00971100500004],[9.730967644000089,54.995428778000075],[9.763194207000083,54.900458075000074],[9.751963738000086,54.893011786000045],[9.711436394000089,54.89858633000006],[9.703461134000065,54.88617584800005],[9.737803582000083,54.87352122600004],[9.750254754000082,54.84625885600008],[9.745941602000073,54.836004950000074],[9.731211785000085,54.83152903900003],[9.69662519600007,54.85887278900003],[9.655039910000085,54.857082424000055],[9.623301629000082,54.865301825000074],[9.634613477000073,54.879339911000045],[9.610362175000091,54.903225002000056],[9.64421634200005,54.913275458000044],[9.638845248000052,54.92475006700005],[9.61500084700009,54.93268463700008],[9.586761915000068,54.927720445000034],[9.545909050000091,54.879339911000045],[9.522146030000044,54.87929922100005],[9.45639082100007,54.843817450000074],[9.442881707000083,54.83152903900003],[9.436289910000085,54.81045156500005],[9.510996941000087,54.827826239000046],[9.579925977000073,54.86627838700008],[9.583181186000047,54.83026764500005],[9.734629754000082,54.80731842700004],[9.801768425000091,54.78339264500005],[9.823741082000083,54.756740627000056],[9.895355665000068,54.76947663000004],[9.891449415000068,54.790269273000035],[9.915049675000091,54.79120514500005],[9.97046959700009,54.76264069200005],[9.98414147200009,54.728501695000034],[10.018239780000044,54.701239325000074],[10.005381707000083,54.69550202000005],[9.97046959700009,54.701239325000074],[9.932383660000085,54.685248114000046],[9.92945397200009,54.673895575000074],[9.996348504000082,54.67877838700008],[10.01140384200005,54.66705963700008],[10.033539259000065,54.67291901200008],[10.039073113000086,54.66681549700007],[10.031911655000044,54.652777411000045],[10.037608269000089,54.61908600500004],[10.026866082000083,54.55996328300006],[10.010427280000044,54.53432851800005],[9.965586785000085,54.50617096600007],[9.925303582000083,54.49310944200005],[9.840098504000082,54.482123114000046],[9.840098504000082,54.47528717700004],[9.883311394000089,54.462103583000044],[10.12468509200005,54.495754299000055],[10.143402540000068,54.491848049000055],[10.203868035000085,54.461004950000074],[10.183929884000065,54.44936758000006],[10.19703209700009,54.41010163000004],[10.191254102000073,54.39671458500004],[10.141774936000047,54.372259833000044],[10.148285352000073,54.36517975500004],[10.141774936000047,54.358587958000044],[10.155528191000087,54.343410549000055],[10.141774936000047,54.32440827000005],[10.180349155000044,54.341131903000075],[10.22437584700009,54.41380442900004],[10.272146030000044,54.42007070500006],[10.318369988000086,54.44330475500004],[10.360850457000083,54.441107489000046],[10.443369988000086,54.40639883000006],[10.601084832000083,54.36542389500005],[10.690196160000085,54.31622955900008],[10.731293165000068,54.310207424000055],[10.77711022200009,54.31513092700004],[10.900889519000089,54.37103913000004],[11.0,54.38446106033245],[11.0,54.378561428232054],[10.975840691000087,54.37840403900003],[11.0,54.37516054169244],[11.0,54.15843058665258],[10.950450066000087,54.13947174700007],[10.892832879000082,54.10252513200004],[10.836110873000052,54.08999258000006],[10.822276238000086,54.097357489000046],[10.805430535000085,54.09487539300005],[10.752614780000044,54.050116278000075],[10.765879754000082,54.02435944200005],[10.799652540000068,54.00055573100008],[10.875498894000089,53.995428778000075],[10.887380405000044,53.96393463700008],[10.922618035000085,53.961371161000045],[10.964691602000073,53.98541901200008],[11.0,53.9915723359241],[11.0,48.5],[-1.0,48.5],[-1.0,49.394320562562],[-0.9404190749999088,49.392279364000046],[-0.8221329419999392,49.36269765800006],[-0.6507869129999335,49.35586172100005],[-0.5833634109999366,49.34589264500005],[-0.5469457669999542,49.35895416900007]]],[[[-0.5346573559999115,54.461004950000074],[-0.5204158189999362,54.42007070500006],[-0.46275794199993925,54.38898346600007],[-0.4477432929999168,54.37319570500006],[-0.4184464179999168,54.32404205900008],[-0.4145401679999168,54.297308661000045],[-0.39073645699994586,54.28351471600007],[-0.39757239499994057,54.269191799000055],[-0.3704727859999366,54.247707424000055],[-0.2770889959999181,54.21775950700004],[-0.2603653639999379,54.176988023000035],[-0.2338761059999115,54.16046784100007],[-0.11143958199994586,54.13157786700003],[-0.07551021999995555,54.11212799700007],[-0.16392981699993925,54.08340078300006],[-0.1946915359999366,54.06232330900008],[-0.2194718089999128,54.022772528000075],[-0.1974177729999269,53.99481842700004],[-0.1511124339999128,53.899318752000056],[0.13347415500004445,53.642645575000074],[0.1492619150000678,53.60960521000004],[0.13689212300005238,53.57713450700004],[0.1096297540000819,53.56289297100005],[0.1359969410000872,53.610663153000075],[0.034515821000070446,53.64606354400007],[-0.04503333199994586,53.62555573100008],[-0.09227454299991678,53.63104889500005],[-0.1300349599999322,53.64606354400007],[-0.2253311839999128,53.719916083000044],[-0.2603653639999379,53.73541901200008],[-0.3051651679999168,53.73969147300005],[-0.4311417309999115,53.71430084800005],[-0.5444229809999115,53.70945872600004],[-0.5791723299999489,53.72797272300005],[-0.6370336579999503,53.73200104400007],[-0.7264705069999309,53.70062897300005],[-0.6924535799999489,53.68699778900003],[-0.6774796209999181,53.702826239000046],[-0.6195369129999335,53.71185944200005],[-0.5299373039999296,53.67767975500004],[-0.48631751199991413,53.69448476800005],[-0.3072403639999379,53.71426015800006],[-0.27936764199995423,53.707098700000074],[-0.1886287099999322,53.620428778000075],[-0.1440323559999115,53.606634833000044],[-0.09593665299991017,53.57713450700004],[-0.0466202459999181,53.570379950000074],[9.199300006912381e-05,53.53534577000005],[0.0959578790000819,53.488348700000074],[0.15186608200008322,53.475816148000035],[0.1678166020000731,53.464504299000055],[0.17579186300008587,53.43768952000005],[0.21949303500008455,53.41950104400007],[0.21192467500009116,53.41266510600008],[0.2293400400000678,53.40477122600004],[0.2561141290000819,53.375067450000074],[0.34213300900006516,53.22630442900004],[0.35621178500008455,53.18854401200008],[0.3566186860000471,53.145738023000035],[0.32984459700008983,53.08649323100008],[0.2824813160000872,53.07485586100006],[0.19304446700004974,53.02008698100008],[0.16081790500004445,53.008978583000044],[0.08212324300006912,52.938666083000044],[0.022146030000044448,52.91258372600004],[0.008555535000084546,52.89862702000005],[0.010264519000088512,52.88646067900004],[0.10564212300005238,52.88934967700004],[0.17090905000009116,52.86212799700007],[0.24675540500004445,52.79572174700007],[0.2644962900000678,52.80369700700004],[0.32553144600007045,52.803168036000045],[0.38453209700008983,52.76837799700007],[0.37924238400006516,52.79083893400008],[0.4386499360000471,52.840725002000056],[0.45671634200004974,52.89199453300006],[0.48568769600007045,52.93349844000005],[0.5202742850000845,52.95526764500005],[0.5695906910000872,52.96930573100008],[0.6718856130000859,52.97443268400008],[0.6643986340000652,52.98187897300005],[0.6847436860000471,52.986395575000074],[0.7504988940000885,52.97443268400008],[0.8357039720000898,52.97443268400008],[0.9684350920000497,52.94749583500004],[1.013926629000082,52.960150458000044],[0.9660750660000872,52.96759674700007],[0.9660750660000872,52.97443268400008],[1.2746688160000872,52.92918528900003],[1.3960067070000832,52.89142487200007],[1.6442163420000497,52.775824286000045],[1.6970320970000898,52.73102448100008],[1.747243686000047,52.62518952000005],[1.7407332690000885,52.60390859600005],[1.7475692070000832,52.53278229400007],[1.7711694670000497,52.48590729400007],[1.7544051440000885,52.46735260600008],[1.7292586600000845,52.41559479400007],[1.7278751960000704,52.39630768400008],[1.6836043630000859,52.32453034100007],[1.6305444670000497,52.27045319200005],[1.6308699880000859,52.19977448100008],[1.582286004000082,52.08148834800005],[1.5036727220000898,52.060980536000045],[1.4868270190000885,52.04901764500005],[1.4720158210000704,52.05621979400007],[1.4638778000000912,52.035142320000034],[1.4248153000000912,52.00185781500005],[1.332286004000082,51.94009023600006],[1.2644149100000845,51.99437083500004],[1.2348738940000885,52.00031159100007],[1.1852319670000497,52.025091864000046],[1.1578882170000497,52.028509833000044],[1.1578882170000497,52.02167389500005],[1.2143660820000832,51.991441148000035],[1.2707625660000872,51.98151276200008],[1.2744246750000912,51.96088288000004],[1.2057397800000444,51.95343659100007],[1.1652938160000872,51.96702708500004],[1.0691024100000845,51.95343659100007],[1.0954695970000898,51.945746161000045],[1.2620548840000652,51.939154364000046],[1.2819930350000845,51.946600653000075],[1.278493686000047,51.92792389500005],[1.1995548840000652,51.87767161700003],[1.2644149100000845,51.86399974200003],[1.2866317070000832,51.88165924700007],[1.288259311000047,51.860581773000035],[1.2763778000000912,51.84479401200008],[1.167816602000073,51.790228583000044],[1.0654403000000912,51.77529531500005],[1.0372827480000524,51.78217194200005],[0.9798283210000704,51.84357330900008],[0.9770613940000885,51.82461172100005],[0.9620874360000471,51.813788153000075],[0.8869735040000819,51.782131252000056],[0.8737085300000444,51.747300523000035],[0.8357039720000898,51.733710028000075],[0.7671004570000832,51.739447333000044],[0.6985783210000704,51.720038153000075],[0.7492781910000872,51.70848216400009],[0.7607528000000912,51.692694403000075],[0.7890731130000859,51.710150458000044],[0.8530379570000832,51.71889883000006],[0.9300236340000652,51.74359772300005],[0.9455672540000819,51.733710028000075],[0.9381616550000444,51.706366278000075],[0.9518335300000444,51.67841217700004],[0.9379988940000885,51.664496161000045],[0.9347436860000471,51.63589101800005],[0.9114689460000704,51.62384674700007],[0.9384871750000912,51.624986070000034],[0.9518335300000444,51.61701080900008],[0.9244897800000444,51.588324286000045],[0.8733016290000819,51.559475002000056],[0.7712508470000898,51.52826569200005],[0.6505639980000524,51.53579336100006],[0.5688582690000885,51.50836823100008],[0.5527449880000859,51.51797109600005],[0.45606530000009116,51.505560614000046],[0.42847741000008455,51.46710846600007],[0.38453209700008983,51.453111070000034],[0.4484155610000471,51.45994700700004],[0.4695744150000678,51.48041413000004],[0.5348413420000497,51.49168528900009],[0.6948348320000832,51.47703685100004],[0.7094832690000885,51.47052643400008],[0.7231551440000885,51.44672272300005],[0.6923934250000912,51.439520575000074],[0.6409611340000652,51.44415924700007],[0.6093856130000859,51.425116278000075],[0.5545353520000731,51.412176825000074],[0.5859481130000859,51.391058661000045],[0.7129012380000859,51.38422272300005],[0.7003686860000471,51.409816799000055],[0.7053328790000819,51.41950104400007],[0.7264103520000731,51.41901276200008],[0.7392684250000912,51.387925523000035],[0.7644149100000845,51.36440664300005],[0.9772241550000444,51.34918854400007],[1.1009220710000704,51.37323639500005],[1.4238387380000859,51.39207591400009],[1.4482528000000912,51.382879950000074],[1.4391382170000497,51.35008372600004],[1.4251408210000704,51.33295319200005],[1.3776147800000444,51.326239325000074],[1.4130965500000912,51.22174713700008],[1.4047957690000885,51.18353913000004],[1.3844507170000497,51.151678778000075],[1.3571883470000898,51.13100820500006],[1.2629500660000872,51.10325755400004],[1.2181095710000704,51.10097890800006],[1.1920679050000444,51.08258698100008],[1.1067000660000872,51.07636139500005],[1.0669051440000885,51.06439850500004],[1.027598504000082,51.04165273600006],[0.9664819670000497,50.98273346600007],[0.9798283210000704,50.91815827000005],[0.9451603520000731,50.909369208000044],[0.8022567070000832,50.93919505400004],[0.7624617850000845,50.930894273000035],[0.6643986340000652,50.870306708000044],[0.6241968110000471,50.858710028000075],[0.36524498800008587,50.81899648600006],[0.3422957690000885,50.79515208500004],[0.3081160820000832,50.780951239000046],[0.2710067070000832,50.747381903000075],[0.12208092500009116,50.76080963700008],[0.09555097700007309,50.775051174000055],[0.034515821000070446,50.780951239000046],[-0.17316646999995555,50.829006252000056],[-0.20612545499994894,50.83104075700004],[-0.2331436839999128,50.821926174000055],[-0.2696833979999269,50.831284898000035],[-0.39757239499994057,50.802069403000075],[-0.5689591139999379,50.802069403000075],[-0.7327367829999503,50.767279364000046],[-0.7582087879999335,50.77708567900004],[-0.7731013659999348,50.76601797100005],[-0.7662654289999296,50.74713776200008],[-0.7709854809999115,50.73688385600008],[-0.7899470689999362,50.73004791900007],[-0.9114884109999366,50.77781810100004],[-0.9058731759999432,50.78803131700005],[-0.8636368479999419,50.802069403000075],[-0.8931371739999463,50.82534414300005],[-0.9289444649999155,50.82282135600008],[-0.9190160799999489,50.83616771000004],[-1.0,50.847102527493],[-1.0,54.60067565963855],[-0.7879125639999529,54.56077708500004],[-0.5629776679999168,54.47736237200007],[-0.5346573559999115,54.461004950000074]]],[[[4.81812584700009,53.02676015800006],[4.7956649100000845,53.00031159100007],[4.761973504000082,52.99433014500005],[4.726817254000082,53.00307851800005],[4.7076929050000444,53.02846914300005],[4.713877800000091,53.05463288000004],[4.7584741550000444,53.10846588700008],[4.805674675000091,53.13300202000005],[4.854340040000068,53.18773021000004],[4.885752800000091,53.186712958000044],[4.892100457000083,53.17572663000004],[4.885752800000091,53.16620514500005],[4.910166863000086,53.13458893400008],[4.90992272200009,53.118841864000046],[4.892588738000086,53.104803778000075],[4.913096550000091,53.104803778000075],[4.865244988000086,53.05019765800006],[4.81812584700009,53.02676015800006]]],[[[5.1048283210000704,53.302801825000074],[5.0364689460000704,53.29181549700007],[4.910166863000086,53.21246979400007],[4.878916863000086,53.22089264500005],[4.986501498000052,53.28998444200005],[5.05445397200009,53.313788153000075],[5.1048283210000704,53.30963776200008],[5.1048283210000704,53.302801825000074]]],[[[5.479746941000087,53.41620514500005],[5.2083439460000704,53.35268789300005],[5.179860873000052,53.35309479400007],[5.16765384200005,53.36823151200008],[5.178884311000047,53.38544342700004],[5.250173373000052,53.40643952000005],[5.407237175000091,53.42255280200004],[5.437022332000083,53.43646881700005],[5.5852970710000704,53.45359935100004],[5.562022332000083,53.43431224200003],[5.475433790000068,53.426947333000044],[5.479746941000087,53.41620514500005]]],[[[5.653575066000087,53.43374258000006],[5.6360783210000704,53.44867584800005],[5.6419376960000704,53.46336497600004],[5.6588647800000444,53.471869208000044],[5.91382897200009,53.473863023000035],[5.954600457000083,53.46108633000006],[5.855642123000052,53.44741445500006],[5.752777540000068,53.44741445500006],[5.678965691000087,53.430121161000045],[5.653575066000087,53.43374258000006]]],[[[6.1333113940000885,53.45359935100004],[6.127126498000052,53.46308014500005],[6.1333113940000885,53.46792226800005],[6.12281334700009,53.481634833000044],[6.147959832000083,53.49485911700003],[6.211761915000068,53.50885651200008],[6.310801629000082,53.51414622600004],[6.338715040000068,53.50885651200008],[6.338715040000068,53.502020575000074],[6.153168165000068,53.468817450000074],[6.1333113940000885,53.45359935100004]]],[[[6.570485873000052,53.53811269700009],[6.5835880870000665,53.548081773000035],[6.606049024000072,53.547756252000056],[6.58570397200009,53.53335195500006],[6.570485873000052,53.53811269700009]]],[[[6.496429884000065,53.53620026200008],[6.46070397200009,53.54336172100005],[6.44117272200009,53.556626695000034],[6.510101759000065,53.54360586100006],[6.496429884000065,53.53620026200008]]],[[[6.742198113000086,53.57835521000004],[6.7565210300000444,53.56289297100005],[6.726084832000083,53.57713450700004],[6.69507897200009,53.570298570000034],[6.6770939460000704,53.57562897300005],[6.6595158210000704,53.59910716400003],[6.784678582000083,53.62006256700005],[6.798106316000087,53.60443756700005],[6.72242272200009,53.59076569200005],[6.72242272200009,53.58462148600006],[6.742198113000086,53.57835521000004]]],[[[6.8659774100000845,53.63377513200004],[6.867116733000046,53.64756907800006],[6.877045118000069,53.65151601800005],[6.921804233000046,53.64195384300007],[6.893728061000047,53.62319570500006],[6.8659774100000845,53.63377513200004]]],[[[7.047048373000052,53.69415924700007],[7.085459832000083,53.68699778900003],[6.8737899100000845,53.672756252000056],[6.9108179050000444,53.683661200000074],[7.047048373000052,53.69415924700007]]],[[[7.3462020190000885,53.72797272300005],[7.295746290000068,53.711004950000074],[7.17359459700009,53.70140208500004],[7.133148634000065,53.70807526200008],[7.178965691000087,53.72406647300005],[7.2329207690000885,53.72943756700005],[7.3462020190000885,53.72797272300005]]],[[[7.4212345710000704,53.721136786000045],[7.381195509000065,53.728501695000034],[7.3665470710000704,53.72797272300005],[7.403493686000047,53.73672109600005],[7.435557488000086,53.72797272300005],[7.4212345710000704,53.721136786000045]]],[[[7.627207879000082,53.75092194200005],[7.513926629000082,53.74551015800006],[7.511241082000083,53.72797272300005],[7.481944207000083,53.72711823100008],[7.469574415000068,53.745347398000035],[7.474619988000086,53.75682200700004],[7.4869897800000444,53.761419989000046],[7.606618686000047,53.762600002000056],[7.627207879000082,53.75092194200005]]],[[[8.195974155000044,53.72797272300005],[8.150889519000089,53.71430084800005],[8.120127800000091,53.71430084800005],[8.132660352000073,53.734035549000055],[8.152354363000086,53.739162502000056],[8.195974155000044,53.72797272300005]]],[[[7.812836134000065,53.77635325700004],[7.7194930350000845,53.75991445500006],[7.69499759200005,53.769517320000034],[7.6770939460000704,53.757798570000034],[7.6608992850000845,53.76211172100005],[7.6862899100000845,53.78099192900004],[7.812836134000065,53.78314850500004],[7.812836134000065,53.77635325700004]]],[[[7.928965691000087,53.79254791900007],[7.9555770190000885,53.782904364000046],[7.875254754000082,53.788397528000075],[7.8737899100000845,53.77635325700004],[7.854502800000091,53.78457265800006],[7.87671959700009,53.79486725500004],[7.928965691000087,53.79254791900007]]],[[[8.686127149000072,54.042222398000035],[8.65951582100007,54.05959707200009],[8.662282748000052,54.07298411700003],[8.674164259000065,54.08038971600007],[8.681976759000065,54.08043040600006],[8.68295332100007,54.066107489000046],[8.692230665000068,54.059841213000084],[8.686127149000072,54.042222398000035]]],[[[7.879893425000091,54.19391510600008],[7.894541863000086,54.194647528000075],[7.904144727000073,54.18040599200003],[7.8991805350000845,54.178168036000045],[7.879893425000091,54.19391510600008]]],[[[7.933441602000073,54.189886786000045],[7.91765384200005,54.18699778900003],[7.912364129000082,54.192287502000056],[7.929860873000052,54.195298570000034],[7.933441602000073,54.189886786000045]]],[[[8.956879102000073,54.509426174000055],[8.887950066000087,54.468451239000046],[8.844493035000085,54.466498114000046],[8.82390384200005,54.47085195500006],[8.812836134000065,54.482123114000046],[8.82553144600007,54.49119700700004],[8.812836134000065,54.501939195000034],[8.879649285000085,54.52912018400008],[8.963145379000082,54.52366771000004],[8.956879102000073,54.509426174000055]]],[[[8.606130405000044,54.499212958000044],[8.595876498000052,54.513657945000034],[8.602061394000089,54.52977122600004],[8.69890384200005,54.558579820000034],[8.692881707000083,54.52326080900008],[8.669769727000073,54.50189850500004],[8.641286655000044,54.49237702000005],[8.606130405000044,54.499212958000044]]],[[[8.291514519000089,54.66705963700008],[8.320485873000052,54.69871653900003],[8.360362175000091,54.714829820000034],[8.332367384000065,54.693793036000045],[8.382334832000083,54.63914622600004],[8.401377800000091,54.63296133000006],[8.353688998000052,54.61896393400008],[8.291514519000089,54.66705963700008]]],[[[8.574066602000073,54.69440338700008],[8.55209394600007,54.68500397300005],[8.511241082000083,54.693793036000045],[8.485199415000068,54.68805573100008],[8.394541863000086,54.714829820000034],[8.436778191000087,54.748480536000045],[8.553233269000089,54.75446198100008],[8.57593834700009,54.74640534100007],[8.593760613000086,54.728501695000034],[8.574066602000073,54.69440338700008]]],[[[11.0,54.78556514050013],[10.999196811000047,54.786769924000055],[11.0,54.78885319565373],[11.0,54.78556514050013]]],[[[10.518565300000091,54.851996161000045],[10.440114780000044,54.841498114000046],[10.406260613000086,54.82469310100004],[10.383474155000044,54.83075592700004],[10.211436394000089,54.93935781500005],[10.18921959700009,54.97748444200005],[10.28874759200005,54.940741278000075],[10.349619988000086,54.89671458500004],[10.391368035000085,54.89545319200005],[10.39584394600007,54.90346914300005],[10.388845248000052,54.92031484600005],[10.426036004000082,54.87250397300005],[10.460948113000086,54.87449778900003],[10.463633660000085,54.882473049000055],[10.450205925000091,54.89980703300006],[10.499196811000047,54.87457916900007],[10.498708530000044,54.85887278900003],[10.518565300000091,54.851996161000045]]],[[[8.504405144000089,54.88617584800005],[8.446055535000085,54.86627838700008],[8.377126498000052,54.86627838700008],[8.353526238000086,54.879339911000045],[8.302012566000087,54.862616278000075],[8.294932488000086,54.83152903900003],[8.295746290000068,54.759100653000075],[8.284434441000087,54.74237702000005],[8.27702884200005,54.78278229400007],[8.288584832000083,54.89130280200004],[8.373708530000044,55.03497955900008],[8.41578209700009,55.065334377000056],[8.463389519000089,55.05068594000005],[8.394541863000086,55.043850002000056],[8.422211134000065,55.042181708000044],[8.430430535000085,55.03001536700003],[8.42156009200005,55.01626211100006],[8.380869988000086,55.00307851800005],[8.361989780000044,54.98680247600004],[8.351573113000086,54.96674225500004],[8.360362175000091,54.94818756700005],[8.354502800000091,54.91274648600006],[8.38835696700005,54.894232489000046],[8.436534050000091,54.88727448100008],[8.654470248000052,54.89362213700008],[8.629405144000089,54.882147528000075],[8.504405144000089,54.88617584800005]]],[[[10.889903191000087,54.997381903000075],[10.837738477000073,54.93724192900004],[10.731293165000068,54.74005768400008],[10.693858269000089,54.73529694200005],[10.681895379000082,54.74481842700004],[10.656423373000052,54.80365631700005],[10.601084832000083,54.838324286000045],[10.640879754000082,54.84320709800005],[10.684418165000068,54.88784414300005],[10.69890384200005,54.88117096600007],[10.724457227000073,54.88617584800005],[10.717784050000091,54.90729401200008],[10.700368686000047,54.901556708000044],[10.68295332100007,54.90729401200008],[10.69703209700009,54.931341864000046],[10.79818769600007,54.99656810100004],[10.854991082000083,55.043850002000056],[10.861989780000044,55.07208893400008],[10.895518425000091,55.121527411000045],[10.934255405000044,55.15965403900003],[10.95671634200005,55.15371328300006],[10.889903191000087,54.997381903000075]]],[[[10.007090691000087,54.87482330900008],[9.968028191000087,54.85952383000006],[9.874278191000087,54.88617584800005],[9.874278191000087,54.893011786000045],[9.900889519000089,54.90070221600007],[9.99154707100007,54.87250397300005],[9.99154707100007,54.879339911000045],[9.943695509000065,54.903631903000075],[9.887950066000087,54.91351959800005],[9.853770379000082,54.89980703300006],[9.814707879000082,54.90106842700004],[9.78093509200005,54.91681549700007],[9.761241082000083,54.943060614000046],[9.764414910000085,54.97553131700005],[9.758148634000065,54.981756903000075],[9.827403191000087,54.94546133000006],[9.847504102000073,54.94818756700005],[9.832774285000085,54.96515534100007],[9.842133009000065,54.97028229400007],[9.78679446700005,55.00014883000006],[9.799082879000082,55.01654694200005],[9.720550977000073,55.01227448100008],[9.674164259000065,55.02106354400007],[9.668793165000068,55.03021881700005],[9.69662519600007,55.05068594000005],[9.645518425000091,55.04486725500004],[9.628428582000083,55.05068594000005],[9.628428582000083,55.05805084800005],[9.716644727000073,55.08222077000005],[9.793467644000089,55.08075592700004],[9.853037957000083,55.04010651200008],[9.960948113000086,55.01504140800006],[10.025889519000089,54.95978424700007],[10.065114780000044,54.89081452000005],[10.064463738000086,54.88100820500006],[10.007090691000087,54.87482330900008]]],[[[10.538259311000047,55.029730536000045],[10.477549675000091,55.043850002000056],[10.388845248000052,55.05068594000005],[10.362559441000087,55.06273021000004],[10.312754754000082,55.063666083000044],[10.234222852000073,55.092230536000045],[10.205251498000052,55.09369538000004],[10.197601759000065,55.08608633000006],[10.19703209700009,55.06427643400008],[10.141774936000047,55.092230536000045],[10.083506707000083,55.08698151200008],[10.065928582000083,55.092230536000045],[10.142588738000086,55.12579987200007],[10.15601647200009,55.14008209800005],[10.11296634200005,55.18378327000005],[10.094004754000082,55.18842194200005],[10.039317254000082,55.180975653000075],[10.00359134200005,55.197333075000074],[9.99154707100007,55.18842194200005],[9.994476759000065,55.17279694200005],[10.029144727000073,55.14240143400008],[10.025645379000082,55.12571849200003],[9.985524936000047,55.12775299700007],[9.988780144000089,55.15184153900003],[9.97201582100007,55.18471914300005],[9.979502800000091,55.21283600500004],[9.911387566000087,55.228501695000034],[9.883962436000047,55.25348541900007],[9.895355665000068,55.28025950700004],[9.881683790000068,55.314439195000034],[9.884776238000086,55.348863023000035],[9.82984459700009,55.35228099200003],[9.80241946700005,55.36237213700008],[9.778086785000085,55.38027578300006],[9.830088738000086,55.38890208500004],[9.840098504000082,55.400091864000046],[9.785492384000065,55.413763739000046],[9.819590691000087,55.413763739000046],[9.791026238000086,55.43183014500005],[9.737315300000091,55.43817780200004],[9.703461134000065,55.468410549000055],[9.786306186000047,55.437201239000046],[9.81218509200005,55.441066799000055],[9.713389519000089,55.49103424700007],[9.676280144000089,55.49567291900007],[10.489273947231581,55.5],[10.457041863000086,55.489447333000044],[10.41960696700005,55.45880768400008],[10.436045769000089,55.44212474200003],[10.471527540000068,55.443060614000046],[10.491221550000091,55.465277411000045],[10.604746941000087,55.489447333000044],[10.606771495644734,55.5],[10.742429361479699,55.5],[10.742360873000052,55.487494208000044],[10.703949415000068,55.471136786000045],[10.657481316000087,55.45970286700003],[10.571299675000091,55.46124909100007],[10.55404707100007,55.442572333000044],[10.563324415000068,55.43622467700004],[10.594248894000089,55.441066799000055],[10.588552280000044,55.44940827000005],[10.595957879000082,55.45966217700004],[10.68295332100007,55.44790273600006],[10.79664147200009,55.35854726800005],[10.834320509000065,55.290269273000035],[10.796885613000086,55.30768463700008],[10.780284050000091,55.30491771000004],[10.772959832000083,55.287095445000034],[10.805349155000044,55.250433661000045],[10.815196160000085,55.214056708000044],[10.80600019600007,55.177394924000055],[10.787852410000085,55.14948151200008],[10.786631707000083,55.12946198100008],[10.733653191000087,55.07184479400007],[10.717784050000091,55.06427643400008],[10.604746941000087,55.062567450000074],[10.538259311000047,55.029730536000045]]],[[[8.408213738000086,55.468410549000055],[8.411957227000073,55.438706773000035],[8.463389519000089,55.427435614000046],[8.450205925000091,55.39337799700007],[8.476410352000073,55.34544505400004],[8.451670769000089,55.33974844000005],[8.425303582000083,55.355536200000074],[8.370941602000073,55.427435614000046],[8.364268425000091,55.44904205900008],[8.37435957100007,55.46328359600005],[8.408213738000086,55.468410549000055]]],[[[8.326182488000086,55.47211334800005],[8.313324415000068,55.46930573100008],[8.248451901313269,55.5],[8.300578132815962,55.5],[8.326182488000086,55.47211334800005]]]]}}]}