{"type":"FeatureCollection","features":[{"type":"Feature","properties":{"name":"Canarias","country":"ES"},"geometry":{"type":"MultiPolygon","coordinates":[[[[-17.933949,27.852037],[-17.914052,27.849555],[-17.896474,27.840318],[-17.884023,27.827582],[-17.879262,27.814521],[-17.885121,27.797919],[-17.926422,27.742825],[-17.927602,27.736518],[-17.92691,27.730373],[-17.92691,27.724351],[-17.930165,27.718655],[-17.935129,27.715644],[-17.940663,27.71369],[-17.945139,27.710761],[-17.946929,27.704657],[-17.950307,27.69953],[-17.957753,27.693996],[-17.96524,27.686998],[-17.968617,27.67768],[-17.971303,27.654364],[-17.979482,27.642524],[-17.99413,27.642239],[-18.015777,27.653469],[-18.03067,27.667873],[-18.039784,27.681342],[-18.053131,27.69123],[-18.126943,27.700263],[-18.146637,27.708564],[-18.16039,27.722357],[-18.167226,27.757554],[-18.140492,27.768785],[-18.097768,27.765367],[-18.056793,27.756496],[-18.041982,27.765204],[-18.003245,27.798814],[-17.995351,27.808051],[-17.99413,27.818752],[-17.989858,27.823717],[-17.968617,27.832221],[-17.933949,27.852037]]],[[[-15.391591,28.030219],[-15.383453,28.024319],[-15.367584,28.015815],[-15.363637,28.009711],[-15.366282,27.993476],[-15.374135,27.975491],[-15.376698,27.957506],[-15.363637,27.941474],[-15.363637,27.934638],[-15.374623,27.929877],[-15.381907,27.92121],[-15.391591,27.899848],[-15.382721,27.885484],[-15.375966,27.86758],[-15.377838,27.852281],[-15.394683,27.845893],[-15.406972,27.838324],[-15.439198,27.80268],[-15.453033,27.791246],[-15.523427,27.771674],[-15.534901,27.766425],[-15.539662,27.765611],[-15.566029,27.739407],[-15.577952,27.734361],[-15.588246,27.738918],[-15.597727,27.746283],[-15.607249,27.750312],[-15.650502,27.753119],[-15.669545,27.757148],[-15.685699,27.763332],[-15.739654,27.804348],[-15.747874,27.814521],[-15.751861,27.821357],[-15.772817,27.831977],[-15.781972,27.838446],[-15.786,27.844224],[-15.815053,27.901272],[-15.821197,27.92178],[-15.81607,27.941474],[-15.820058,27.952867],[-15.821767,27.968329],[-15.820627,27.984076],[-15.81607,27.996039],[-15.806996,28.005032],[-15.76769,28.023993],[-15.749827,28.035956],[-15.725209,28.056871],[-15.708363,28.081936],[-15.713694,28.105902],[-15.702138,28.115058],[-15.69811,28.133043],[-15.700063,28.152899],[-15.706207,28.167385],[-15.695058,28.168199],[-15.684397,28.167629],[-15.674428,28.165269],[-15.665273,28.160549],[-15.650787,28.163886],[-15.597035,28.147528],[-15.521311,28.147528],[-15.45873,28.134223],[-15.435048,28.140937],[-15.43871,28.174872],[-15.409291,28.179755],[-15.405263,28.177924],[-15.399892,28.165025],[-15.400136,28.157213],[-15.408559,28.153754],[-15.415639,28.141506],[-15.414947,28.114488],[-15.408559,28.074897],[-15.406239,28.068061],[-15.40392,28.056301],[-15.399648,28.04267],[-15.391591,28.030219]]],[[[-17.309673,28.207117],[-17.259173,28.217717],[-17.212721,28.205449],[-17.1704,28.181098],[-17.116119,28.146226],[-17.104279,28.123035],[-17.09842,28.100764],[-17.113937,28.080967],[-17.133525,28.069779],[-17.163187,28.045014],[-17.184975,28.031619],[-17.207111,28.026693],[-17.232706,28.019106],[-17.257888,28.02457],[-17.310073,28.053474],[-17.343221,28.09766],[-17.343377,28.133356],[-17.338817,28.171047],[-17.309673,28.207117]]],[[[-16.427695,28.14967],[-16.441029,28.132758],[-16.456776,28.115465],[-16.521547,28.057573],[-16.536327,28.036474],[-16.545766,28.023993],[-16.57971,28.030332],[-16.634422,28.011657],[-16.65744,28.003654],[-16.67634,27.997096],[-16.692683,27.999847],[-16.703552,28.013683],[-16.705752,28.023],[-16.704091,28.03498],[-16.713246,28.038275],[-16.721059,28.044501],[-16.72411,28.05268],[-16.725942,28.071479],[-16.727895,28.078599],[-16.741607,28.093817],[-16.780629,28.127875],[-16.788686,28.143785],[-16.7954,28.165269],[-16.810536,28.181871],[-16.826812,28.195746],[-16.837148,28.20897],[-16.843984,28.253079],[-16.847239,28.262519],[-16.861195,28.281887],[-16.873402,28.305243],[-16.906606,28.33515],[-16.916058,28.35497],[-16.891935,28.368656],[-16.83744,28.391083],[-16.817766,28.383563],[-16.794179,28.369127],[-16.782541,28.366034],[-16.770131,28.366278],[-16.741567,28.373481],[-16.719619,28.383262],[-16.68719,28.39278],[-16.66418,28.400727],[-16.644399,28.39643],[-16.604406,28.399667],[-16.584634,28.4011],[-16.564479,28.415335],[-16.53893,28.417873],[-16.528188,28.422105],[-16.507135,28.424134],[-16.486904,28.438274],[-16.439931,28.475246],[-16.4204,28.490627],[-16.414296,28.499213],[-16.411977,28.513739],[-16.408274,28.519843],[-16.389394,28.528754],[-16.381215,28.534247],[-16.363352,28.543036],[-16.341054,28.546576],[-16.322743,28.553453],[-16.316396,28.572089],[-16.30016,28.566636],[-16.202707,28.564032],[-16.141347,28.583441],[-16.117747,28.572089],[-16.12707,28.543819],[-16.157398,28.524483],[-16.231391,28.488416],[-16.248015,28.461123],[-16.268672,28.443316],[-16.296136,28.417762],[-16.323896,28.397469],[-16.341634,28.391335],[-16.355514,28.38115],[-16.365772,28.362455],[-16.366107,28.341425],[-16.360577,28.324581],[-16.358106,28.314631],[-16.361332,28.304423],[-16.371,28.297119],[-16.380016,28.288342],[-16.386773,28.26499],[-16.419233,28.211383],[-16.427966,28.167686],[-16.427695,28.14967]]],[[[-13.972646,28.735907],[-13.935414,28.749498],[-13.898671,28.753892],[-13.864573,28.744208],[-13.83552,28.715481],[-13.824371,28.681789],[-13.821156,28.636664],[-13.828684,28.551581],[-13.835194,28.530748],[-13.852935,28.492743],[-13.856557,28.47899],[-13.857737,28.445502],[-13.856557,28.434882],[-13.853627,28.428412],[-13.84435,28.414293],[-13.842926,28.406928],[-13.847768,28.397406],[-13.865712,28.38288],[-13.869618,28.376899],[-13.870107,28.367743],[-13.871816,28.357978],[-13.875152,28.349066],[-13.892079,28.328192],[-13.900217,28.311103],[-13.911285,28.277248],[-13.933705,28.244208],[-13.966786,28.227973],[-14.072581,28.212836],[-14.11856,28.200507],[-14.152008,28.179999],[-14.19164,28.170844],[-14.212229,28.160549],[-14.244537,28.129218],[-14.271392,28.096137],[-14.30134,28.067857],[-14.34317,28.050686],[-14.369008,28.050767],[-14.408315,28.066962],[-14.428619,28.071194],[-14.494862,28.067816],[-14.507069,28.071194],[-14.503407,28.074774],[-14.499257,28.086575],[-14.496449,28.098538],[-14.496897,28.102525],[-14.489735,28.104315],[-14.455556,28.099107],[-14.436025,28.100531],[-14.398915,28.111233],[-14.341176,28.134508],[-14.270131,28.175971],[-14.240142,28.201565],[-14.224436,28.218573],[-14.213531,28.234931],[-14.207387,28.254381],[-14.201894,28.3039],[-14.193227,28.321845],[-14.171295,28.352362],[-14.146392,28.423326],[-14.140859,28.434882],[-14.127919,28.44359],[-14.098297,28.48664],[-14.075551,28.536119],[-14.036122,28.587388],[-14.024566,28.637112],[-14.010121,28.667467],[-14.005279,28.703599],[-13.999908,28.716742],[-13.989491,28.726874],[-13.972646,28.735907]]],[[[-17.755767,28.818508],[-17.757802,28.798651],[-17.750602,28.774763],[-17.741438,28.757912],[-17.721883,28.749029],[-17.721044,28.730644],[-17.7511,28.699984],[-17.765254,28.677549],[-17.757532,28.657677],[-17.745604,28.621887],[-17.75366,28.603026],[-17.759856,28.576821],[-17.78334,28.548596],[-17.803298,28.509456],[-17.821685,28.475816],[-17.830881,28.45539],[-17.837066,28.45539],[-17.842885,28.465033],[-17.865122,28.475381],[-17.872153,28.494426],[-17.879688,28.543713],[-17.891166,28.555651],[-17.89859,28.571649],[-17.919289,28.596303],[-17.924838,28.618339],[-17.963098,28.671489],[-17.967146,28.696736],[-17.971414,28.712563],[-17.976145,28.728176],[-17.992299,28.738593],[-18.002187,28.749579],[-17.996816,28.780097],[-17.970693,28.813218],[-17.93635,28.840318],[-17.911145,28.855619],[-17.890535,28.843946],[-17.865834,28.840644],[-17.841664,28.835435],[-17.801381,28.849311],[-17.781484,28.842271],[-17.765004,28.829413],[-17.755767,28.818508]]],[[[-13.482981,29.239936],[-13.465403,29.243313],[-13.446604,29.232978],[-13.417795,29.20893],[-13.427602,29.188707],[-13.431508,29.172431],[-13.438791,29.159003],[-13.45873,29.147406],[-13.462392,29.132148],[-13.459137,29.118598],[-13.45401,29.104071],[-13.451894,29.086005],[-13.453847,29.078925],[-13.46227,29.065741],[-13.465566,29.058051],[-13.466217,29.04975],[-13.464589,29.032172],[-13.465566,29.023912],[-13.482045,28.999457],[-13.510487,28.977484],[-13.54304,28.961737],[-13.589955,28.951361],[-13.599721,28.942043],[-13.607574,28.932603],[-13.619781,28.928371],[-13.635487,28.927232],[-13.658437,28.922593],[-13.674387,28.921536],[-13.709299,28.9147],[-13.736073,28.89647],[-13.757192,28.870307],[-13.774648,28.839586],[-13.780873,28.839586],[-13.791493,28.853461],[-13.812123,28.859076],[-13.85969,28.859442],[-13.867299,28.864895],[-13.873647,28.876858],[-13.876332,28.888821],[-13.873036,28.894232],[-13.861928,28.897406],[-13.853424,28.904975],[-13.842926,28.921536],[-13.839101,28.937893],[-13.835072,28.987209],[-13.832102,29.000393],[-13.798492,29.048082],[-13.780873,29.064887],[-13.766835,29.074042],[-13.750559,29.080634],[-13.731435,29.084662],[-13.708892,29.086005],[-13.690175,29.090888],[-13.656484,29.116034],[-13.63683,29.126939],[-13.618276,29.132392],[-13.602366,29.134263],[-13.551178,29.134223],[-13.537221,29.138251],[-13.526112,29.150295],[-13.513987,29.17475],[-13.503163,29.208157],[-13.495473,29.225084],[-13.482981,29.239936]]],[[[-13.486684,29.284613],[-13.477895,29.266262],[-13.492014,29.242662],[-13.517079,29.226264],[-13.541249,29.229397],[-13.541249,29.236802],[-13.525746,29.251207],[-13.517934,29.273505],[-13.508168,29.289455],[-13.486684,29.284613]]]]}}]}