{"type": "FeatureCollection", "features": [{"type": "Feature", "properties": {"featurecla": "Lake", "scalerank": 9, "name": "Lauwerszee", "name_abb": "Lauwerszee", "name_alt": null, "note": null, "delta": null, "dam_name": null, "year": -99, "admin": null, "min_zoom": 7, "min_label": 8, "label": "Lauwerszee", "wikidataid": "Q525364", "name_ar": "\u0644\u0627\u0648\u064a\u0631\u0633\u0645\u064a\u0631", "name_bn": "\u09b2\u09be\u0989\u0993\u09df\u09c7\u09b0\u09b8\u099c\u09bf", "name_de": "Lauwersmeer", "name_en": "Lauwersmeer", "name_es": "Lauwerszee", "name_fr": "Lauwersmeer", "name_el": "\u039b\u03ac\u03bf\u03c5\u03b2\u03b5\u03c1\u03c3\u03b6\u03b5\u03ca", "name_hi": "\u0932\u0949\u0935\u0930\u094d\u0938\u091c\u093c\u0940", "name_hu": "Lauwerszee", "name_id": "Lauwerszee", "name_it": "Lauwersmeer", "name_ja": "\u30e9\u30a6\u30a8\u30eb\u30b9\u6e56", "name_ko": "\ub77c\uc6b0\uc5b4\uc9c0", "name_nl": "Lauwersmeer", "name_pl": "Lauwersmeer", "name_pt": "Lauwerszee", "name_ru": "\u041b\u0430\u0443\u044d\u0440\u0441\u043c\u0435\u0440", "name_sv": "Lauwerszee", "name_tr": "Lauwerszee", "name_vi": "H\u1ed3 Lauwerszee", "name_zh": "\u52de\u6c83\u65af\u6e56", "ne_id": 1159118273, "name_fa": "\u0644\u0627\u0626\u0648\u0648\u0631\u0633\u0632\u06cc", "name_he": "\u05d0\u05d2\u05dd \u05dc\u05d0\u05d5\u05d5\u05e8\u05d6\u05d9", "name_uk": "\u041b\u0430\u0443\u0432\u0435\u0440\u0441\u043c\u0435\u0440", "name_ur": "\u0644\u0648\u0631\u0633\u0632\u06cc", "name_zht": "\u52de\u6c83\u65af\u6e56"}, "bbox": [6.146769, 53.340071, 6.263042, 53.406892], "geometry": {"type": "Polygon", "coordinates": [[[6.218888, 53.36362], [6.247147, 53.360971], [6.263042, 53.351846], [6.251268, 53.341543], [6.218593, 53.340071], [6.153245, 53.344487], [6.146769, 53.354789], [6.150301, 53.363326], [6.157071, 53.371568], [6.167668, 53.401299], [6.184742, 53.406892], [6.206819, 53.402771], [6.228896, 53.392762], [6.220654, 53.386581], [6.211823, 53.38452], [6.203286, 53.386581], [6.19475, 53.392762], [6.195633, 53.370685], [6.218888, 53.36362]]]}}, {"type": "Feature", "properties": {"featurecla": "Alkaline Lake", "scalerank": 2, "name": "IJsselmeer", "name_abb": "IJsselmeer", "name_alt": "Lake IJssel, Lake Yssel", "note": null, "delta": null, "dam_name": null, "year": -99, "admin": "admin-0 more", "min_zoom": 2, "min_label": 3.7, "label": "IJsselmeer", "wikidataid": "Q4121", "name_ar": "\u0628\u062d\u064a\u0631\u0629 \u0622\u064a\u0633\u0644", "name_bn": "\u0987\u099c\u09b8\u09c7\u09b2\u09ae\u09c0\u09b0", "name_de": "IJsselmeer", "name_en": "IJsselmeer", "name_es": "\u0132sselmeer", "name_fr": "IJsselmeer", "name_el": "\u0386\u03b9\u03c3\u03b5\u03bb\u03bc\u03b9\u03c1", "name_hi": "\u0906\u0908\u091c\u0947\u0938\u0947\u0932\u094d\u092e\u0940\u0930", "name_hu": "IJsselmeer", "name_id": "IJsselmeer", "name_it": "IJsselmeer", "name_ja": "\u30a2\u30a4\u30bb\u30eb\u6e56", "name_ko": "\uc5d0\uc774\uc124\ud638", "name_nl": "IJsselmeer", "name_pl": "IJsselmeer", "name_pt": "IJsselmeer", "name_ru": "\u042d\u0439\u0441\u0441\u0435\u043b\u043c\u0435\u0440", "name_sv": "IJsselmeer", "name_tr": "IJsselmeer", "name_vi": "H\u1ed3 IJsselmeer", "name_zh": "\u827e\u745f\u723e\u6e56", "ne_id": 1159126631, "name_fa": "\u062f\u0631\u06cc\u0627\u0686\u0647 \u0622\u06cc\u0633\u0644", "name_he": "\u05d0\u05d9\u05d9\u05e1\u05dc\u05de\u05d9\u05e8", "name_uk": "\u0415\u0439\u0441\u0441\u0435\u043b\u043c\u0435\u0440", "name_ur": "\u0627\u0633\u06cc\u0644\u0645\u06cc\u0631", "name_zht": "\u827e\u745f\u723e\u6e56"}, "bbox": [4.968135, 52.255045, 5.874482, 53.07691], "geometry": {"type": "Polygon", "coordinates": [[[5.870361, 52.539989], [5.874482, 52.521444], [5.872716, 52.501428], [5.860647, 52.478173], [5.841513, 52.457862], [5.800891, 52.422832], [5.779108, 52.408114], [5.746728, 52.393396], [5.712287, 52.382505], [5.654003, 52.371613], [5.623683, 52.356306], [5.577763, 52.322749], [5.545383, 52.27565], [5.533314, 52.267997], [5.447359, 52.255045], [5.404677, 52.2574], [5.361111, 52.270057], [5.268386, 52.311563], [5.24778, 52.31274], [5.205098, 52.309502], [5.181254, 52.311563], [5.163004, 52.316567], [5.112373, 52.337761], [5.092062, 52.342177], [5.047024, 52.344532], [5.03054, 52.34777], [4.968135, 52.371024], [4.973727, 52.375734], [4.980203, 52.3775], [4.98197, 52.378089], [4.98197, 52.385448], [4.996688, 52.383976], [5.002281, 52.38221], [5.009346, 52.378089], [5.009346, 52.385448], [5.024947, 52.378089], [5.034072, 52.388686], [5.041726, 52.403993], [5.053795, 52.412235], [5.064686, 52.414296], [5.075283, 52.420183], [5.084703, 52.429014], [5.091768, 52.439317], [5.075577, 52.444321], [5.067924, 52.452858], [5.061742, 52.461394], [5.050262, 52.467281], [5.069985, 52.472874], [5.078227, 52.473463], [5.073517, 52.483766], [5.070573, 52.487887], [5.090884, 52.500839], [5.083231, 52.525566], [5.050262, 52.570309], [5.036427, 52.599745], [5.034955, 52.625061], [5.049673, 52.641839], [5.084997, 52.645372], [5.111784, 52.63919], [5.118849, 52.636246], [5.136511, 52.625061], [5.150935, 52.626532], [5.165653, 52.630065], [5.227175, 52.65332], [5.243071, 52.664505], [5.256317, 52.688643], [5.270741, 52.696885], [5.304004, 52.706894], [5.300766, 52.716902], [5.297822, 52.730737], [5.293996, 52.743101], [5.286931, 52.748399], [5.236006, 52.762234], [5.22011, 52.762823], [5.206275, 52.761646], [5.194501, 52.758113], [5.184198, 52.751637], [5.170363, 52.746044], [5.157999, 52.75046], [5.147108, 52.758113], [5.136511, 52.762234], [5.122676, 52.775481], [5.120321, 52.839358], [5.115022, 52.861141], [5.065275, 52.922957], [5.044081, 52.933554], [5.08588, 52.943857], [5.129152, 52.960047], [5.287814, 53.044529], [5.372297, 53.07691], [5.383188, 53.055421], [5.389958, 53.046296], [5.399672, 53.035993], [5.409386, 53.032166], [5.413802, 53.019803], [5.412624, 53.006851], [5.406443, 52.995076], [5.416157, 52.98389], [5.420278, 52.9677], [5.416157, 52.95151], [5.399672, 52.940325], [5.413213, 52.924429], [5.404088, 52.916481], [5.387898, 52.911183], [5.376712, 52.899408], [5.370825, 52.898231], [5.366115, 52.894993], [5.365526, 52.884984], [5.369059, 52.878508], [5.37524, 52.875564], [5.382599, 52.872915], [5.38937, 52.868205], [5.410858, 52.857314], [5.442355, 52.85231], [5.505938, 52.850838], [5.518595, 52.848777], [5.542145, 52.839358], [5.557452, 52.837297], [5.573642, 52.838475], [5.584239, 52.841713], [5.605727, 52.850838], [5.622212, 52.85437], [5.637519, 52.854959], [5.709932, 52.842301], [5.721707, 52.837297], [5.685794, 52.832587], [5.656358, 52.819635], [5.631926, 52.799913], [5.611909, 52.775186], [5.603372, 52.75046], [5.596308, 52.70866], [5.597779, 52.66951], [5.615736, 52.652436], [5.628099, 52.646255], [5.652237, 52.618879], [5.660479, 52.61152], [5.676669, 52.608576], [5.808839, 52.612992], [5.8265, 52.610342], [5.84063, 52.604161], [5.850933, 52.593269], [5.857703, 52.576785], [5.870361, 52.539989]], [[5.858292, 52.506432], [5.85888, 52.526154], [5.839158, 52.570309], [5.68079, 52.593564], [5.653709, 52.61152], [5.635752, 52.602689], [5.577763, 52.590914], [5.560395, 52.583555], [5.516241, 52.556768], [5.506821, 52.555885], [5.486215, 52.557062], [5.478562, 52.552941], [5.454424, 52.515263], [5.441178, 52.508492], [5.403499, 52.499073], [5.358461, 52.473463], [5.283693, 52.455213], [5.24101, 52.429308], [5.178605, 52.408409], [5.150052, 52.391335], [5.132978, 52.385448], [5.142987, 52.369847], [5.145931, 52.355423], [5.152995, 52.343943], [5.173895, 52.336878], [5.219227, 52.33835], [5.236006, 52.336878], [5.304593, 52.320982], [5.336678, 52.310091], [5.396434, 52.280655], [5.423222, 52.273884], [5.489159, 52.27565], [5.524777, 52.284187], [5.545677, 52.302438], [5.551859, 52.327458], [5.543616, 52.358072], [5.571581, 52.367198], [5.585711, 52.370141], [5.602195, 52.371024], [5.616619, 52.37544], [5.637813, 52.394573], [5.649882, 52.398989], [5.675786, 52.402227], [5.723767, 52.416356], [5.752909, 52.419594], [5.781168, 52.425776], [5.807367, 52.441377], [5.829444, 52.461394], [5.84534, 52.480822], [5.858292, 52.506432]]]}}]}