{"type": "FeatureCollection", "features": [{"type": "Feature", "properties": {"name": "Nederrijn"}, "geometry": {"type": "MultiLineString", "coordinates": [[[5.9534701, 51.9500636], [5.9514613, 51.9508127], [5.9486621, 51.952009], [5.946837, 51.952763], [5.9444054, 51.9538323], [5.9421066, 51.9549725], [5.9399866, 51.9562753], [5.9385751, 51.9572616], [5.9378922, 51.957801], [5.9373007, 51.9583243], [5.9363416, 51.9593878], [5.935497, 51.9605343], [5.9351543, 51.961188], [5.9344315, 51.9627217], [5.9334579, 51.9648728], [5.932912, 51.9656764], [5.9322071, 51.9664584], [5.9317909, 51.9668595], [5.9306143, 51.9677429], [5.9293359, 51.9685208], [5.9278148, 51.9691957], [5.9262356, 51.9697164], [5.9244494, 51.970124], [5.9227706, 51.9704165], [5.92139, 51.970657], [5.9190238, 51.9711808], [5.9164351, 51.9721525], [5.9125936, 51.9744158], [5.9116851, 51.9748632], [5.910004, 51.975491], [5.9069632, 51.9764401], [5.9045886, 51.9773445], [5.9040135, 51.9776135], [5.9023713, 51.9783816], [5.9004553, 51.9793685], [5.8983752, 51.9805457], [5.8966315, 51.9814927], [5.8948481, 51.982239], [5.8927341, 51.9827684], [5.8923084, 51.982837], [5.8920817, 51.9828736], [5.8912928, 51.9830008], [5.8899157, 51.9831239], [5.8888256, 51.9831372], [5.8883443, 51.9831431], [5.8868483, 51.9830496], [5.8855556, 51.9828567], [5.8826906, 51.9822572], [5.8800321, 51.9813969], [5.8775141, 51.9802819], [5.8753787, 51.9788897], [5.8735393, 51.9775956], [5.8724048, 51.9766758], [5.8689296, 51.9734247], [5.8674013, 51.972128], [5.8646246, 51.9706117], [5.8624828, 51.969986], [5.8603144, 51.9695448], [5.8572837, 51.9694235], [5.8556904, 51.9696533], [5.8543468, 51.9698471], [5.8513795, 51.9707374], [5.8486316, 51.9715355], [5.8428635, 51.9728399], [5.8416379, 51.9730437], [5.8400943, 51.9733005], [5.837481, 51.973541], [5.8335277, 51.9736201], [5.8306695, 51.9734074], [5.828179, 51.9729165]], [[5.7893634, 51.9606669], [5.7878839, 51.960379], [5.7844604, 51.9596575], [5.7825646, 51.9592849], [5.7803145, 51.9590708], [5.7779942, 51.9591416], [5.7757198, 51.959446], [5.7732543, 51.9599051], [5.7709829, 51.9606472], [5.7699224, 51.9610088], [5.762402, 51.9634383], [5.758254, 51.965355], [5.7555386, 51.9666324], [5.752253, 51.9682518], [5.7475255, 51.9695344], [5.7466192, 51.9697803], [5.746281, 51.969872], [5.7404977, 51.9701861], [5.734162, 51.9687591], [5.7337074, 51.9686567], [5.7322897, 51.9682144], [5.7316263, 51.9680045], [5.7291084, 51.9672016], [5.7279407, 51.9666443], [5.7234855, 51.964518], [5.7204863, 51.9636795], [5.7134825, 51.9632134], [5.70633, 51.9627855], [5.6982785, 51.9616312], [5.6967623, 51.9614138], [5.6924501, 51.960524], [5.6878546, 51.960154], [5.6800421, 51.9589392], [5.6781023, 51.9581602], [5.6735438, 51.9563295], [5.6698931, 51.9540797], [5.6668708, 51.9529865], [5.6666139, 51.9529364], [5.6651269, 51.9526461], [5.661663, 51.9526782], [5.6580004, 51.9529946], [5.6524301, 51.9535097], [5.6488502, 51.9532981], [5.6472135, 51.9530291], [5.6448376, 51.9522137], [5.6426758, 51.9511694], [5.6405969, 51.9496107], [5.638351, 51.9475095], [5.6352844, 51.9454392], [5.6304384, 51.9430217], [5.6287724, 51.9425507], [5.6253862, 51.9418178], [5.6222395, 51.9413862], [5.6219773, 51.9413502], [5.6162761, 51.9414794], [5.6091454, 51.9423336], [5.6031222, 51.9442436], [5.5995075, 51.9457093], [5.591188, 51.949692], [5.5814, 51.9517397], [5.5779234, 51.9525245], [5.5705209, 51.9534497], [5.5662337, 51.9539279], [5.5631518, 51.9542717], [5.560883, 51.9546196], [5.5535816, 51.9571394], [5.550661, 51.9586421], [5.5465723, 51.9614588], [5.542506, 51.965668], [5.5387597, 51.967892], [5.5304759, 51.9696213], [5.529925, 51.9697363], [5.516516, 51.972042], [5.5087509, 51.9743242], [5.5041255, 51.9769215], [5.5014495, 51.9781472], [5.4922085, 51.9816856], [5.4875771, 51.9829706], [5.4847359, 51.9835469], [5.4822202, 51.9837507], [5.4803214, 51.9837431], [5.478273, 51.983589], [5.4759676, 51.9834088], [5.4667678, 51.9832289], [5.4644867, 51.9832395], [5.4574117, 51.9834993], [5.4548674, 51.9836561], [5.4527466, 51.9839762], [5.45022, 51.984631], [5.4460464, 51.9855923], [5.443159, 51.9858825], [5.4406571, 51.9858938], [5.4376966, 51.985615], [5.4360409, 51.9852172], [5.4334437, 51.9845414], [5.4300417, 51.9832739], [5.4289787, 51.9826334]], [[5.828179, 51.9729165], [5.8267274, 51.972705], [5.8232895, 51.971499], [5.8217624, 51.9708608], [5.8176737, 51.9689266], [5.812371, 51.966057], [5.8102692, 51.9651143], [5.8087213, 51.9644201], [5.8060897, 51.9637171], [5.8045429, 51.9631349], [5.8034359, 51.9627185], [5.7992068, 51.9621021], [5.7948202, 51.9617287], [5.7893634, 51.9606669]], [[5.8087213, 51.9644201], [5.806503, 51.9632416], [5.8034359, 51.9627185]], [[5.3943096, 51.9718162], [5.3909412, 51.9707864], [5.3883083, 51.9700037], [5.3852416, 51.9694934], [5.3792969, 51.9692415], [5.3731637, 51.9696013], [5.371096, 51.969776], [5.3682718, 51.9702761], [5.3650827, 51.970766], [5.3619214, 51.9709342], [5.3591707, 51.9708252], [5.356506, 51.970444], [5.3524727, 51.9696466]], [[5.4289787, 51.9826334], [5.4266831, 51.9812503], [5.4247419, 51.9797557], [5.4231784, 51.9785519], [5.4180674, 51.976708], [5.4125914, 51.9751788], [5.4078744, 51.9742587], [5.405582, 51.9740544], [5.3983356, 51.9728998], [5.3943096, 51.9718162]], [[5.4125914, 51.9751788], [5.4076512, 51.9748055], [5.405582, 51.9740544]], [[5.9880735, 51.912725], [5.9872, 51.9134], [5.9839965, 51.9162243], [5.9838, 51.9164], [5.9791, 51.9214], [5.9756849, 51.9236019], [5.9687, 51.9281], [5.966318, 51.930035], [5.9639031, 51.9322634], [5.9621054, 51.935787], [5.9616674, 51.9386181], [5.9615, 51.9397], [5.9591, 51.9455], [5.9574217, 51.9469496], [5.9551184, 51.9489389], [5.9534701, 51.9500636]]]}}, {"type": "Feature", "properties": {"name": "Lek"}, "geometry": {"type": "MultiLineString", "coordinates": [[[5.3397788, 51.9610685], [5.3392835, 51.9606416], [5.3365843, 51.9587589], [5.334364, 51.9576232], [5.3320375, 51.9569164], [5.3274263, 51.9557413], [5.3231584, 51.9550562], [5.3185395, 51.9548415], [5.3139487, 51.9558984], [5.3097688, 51.9575765], [5.30224, 51.9611726], [5.2938882, 51.9623569], [5.288147, 51.962563], [5.2850353, 51.9627506], [5.2738893, 51.9645261], [5.2655953, 51.9667432], [5.2611103, 51.9686327], [5.2569292, 51.9703757], [5.2531829, 51.9724223], [5.2504134, 51.9748074], [5.2485282, 51.9762454], [5.2437996, 51.9786286], [5.2416786, 51.9791315], [5.2378697, 51.9790947], [5.2349813, 51.978542], [5.2321877, 51.9773849], [5.228534, 51.97435], [5.2260123, 51.9710243], [5.222343, 51.966049], [5.2176561, 51.9628372], [5.2165473, 51.9620773], [5.2134106, 51.9606725], [5.211698, 51.960201], [5.2063955, 51.9593812], [5.1998826, 51.9599387], [5.197761, 51.960434], [5.192855, 51.9615696], [5.1851745, 51.9650734], [5.1830893, 51.9660684], [5.1770657, 51.9687113], [5.1727021, 51.969612], [5.1678476, 51.9700608], [5.1588615, 51.9708495], [5.1526562, 51.9723372], [5.150122, 51.9737349], [5.1479707, 51.9752261], [5.1444831, 51.980293], [5.14313, 51.9817078]], [[5.3524727, 51.9696466], [5.3504762, 51.9686994], [5.348452, 51.967739], [5.3459969, 51.9661149], [5.3397788, 51.9610685]], [[5.1031833, 52.0029781], [5.0962938, 52.0026047], [5.0945009, 52.0023629], [5.0917635, 52.001879], [5.086465, 52.000481], [5.0811434, 51.9986153], [5.0784703, 51.9979265], [5.0777156, 51.9977299], [5.073702, 51.9966852], [5.0666318, 51.9941759], [5.062654, 51.991127], [5.0578003, 51.9880796], [5.0516725, 51.9856485], [5.0467355, 51.9832723], [5.0425372, 51.9804054], [5.041599, 51.979137], [5.0394138, 51.9761658], [5.0380293, 51.9733789], [5.03569, 51.971035], [5.0323521, 51.9694568], [5.0301003, 51.9689633], [5.026599, 51.9686936], [5.0229816, 51.9689443], [5.0178949, 51.9704544], [5.011348, 51.97493], [5.0078555, 51.9761892], [5.0024707, 51.9775384], [4.9980744, 51.9774666], [4.9920662, 51.9760767], [4.9861877, 51.9725899], [4.9822092, 51.9695547], [4.9788323, 51.9661247], [4.9779858, 51.9650413], [4.9750904, 51.9628631], [4.9724891, 51.9613495], [4.9701565, 51.9604348], [4.9677684, 51.959895], [4.9670485, 51.9597753], [4.9659231, 51.9597099], [4.9632434, 51.9596714], [4.9615457, 51.9597892], [4.9597862, 51.9600801], [4.9570302, 51.9608647], [4.953761, 51.962254], [4.9503493, 51.9632285], [4.9438476, 51.9639822], [4.9409508, 51.9637442], [4.9372172, 51.9623559], [4.9345565, 51.9607296], [4.9330692, 51.9590126], [4.931065, 51.956699], [4.9308256, 51.9562829], [4.9291827, 51.9530768], [4.9267185, 51.9494205], [4.9256143, 51.9483457], [4.9226115, 51.9455389], [4.9205647, 51.9443545], [4.9178656, 51.9432322], [4.9170799, 51.9430453], [4.9154461, 51.9426566], [4.9104729, 51.9421632], [4.901167, 51.940697], [4.8928582, 51.9396313], [4.8869004, 51.9388205], [4.8820886, 51.9381684], [4.872377, 51.938278], [4.8662081, 51.93935], [4.8620369, 51.9402085], [4.8608444, 51.9404423], [4.8588248, 51.9408382], [4.8576258, 51.9409247], [4.8521529, 51.9413193], [4.8497356, 51.9412696], [4.844952, 51.941208], [4.8378547, 51.9405541], [4.8345949, 51.9397354], [4.830774, 51.938194], [4.828332, 51.9367054], [4.8233123, 51.9324288], [4.8212205, 51.9313895], [4.8176537, 51.9289959], [4.8137292, 51.9258441], [4.8119507, 51.9248741], [4.8083444, 51.9234239], [4.8019557, 51.9218479], [4.798747, 51.921234], [4.7910035, 51.9198214], [4.7849264, 51.9182735], [4.7755793, 51.9167816], [4.7707271, 51.9164854], [4.7659962, 51.9161061], [4.7577198, 51.9125985], [4.7466041, 51.9068306], [4.7445307, 51.9057452], [4.7392548, 51.9034942], [4.734982, 51.902142], [4.7314058, 51.9012417], [4.7256559, 51.8985949], [4.7199967, 51.8971028], [4.7158219, 51.8968936], [4.7054749, 51.897226], [4.6996824, 51.8965633], [4.6932859, 51.8952054], [4.688367, 51.8943696], [4.6808673, 51.8930953], [4.6737895, 51.8903157], [4.6690861, 51.8898813], [4.666075, 51.8896394], [4.6587567, 51.8896396], [4.651579, 51.889999], [4.6375149, 51.8909905], [4.6326545, 51.8908082], [4.6295117, 51.8901145], [4.6268966, 51.8896331], [4.623488, 51.889313], [4.6218589, 51.8894767], [4.6174669, 51.8901122]], [[5.1213924, 51.9994019], [5.1153687, 52.0014248], [5.1144937, 52.0015833], [5.109106, 52.002571], [5.1031833, 52.0029781]], [[5.14313, 51.9817078], [5.1405586, 51.9843965], [5.1381241, 51.9866648]], [[5.1282108, 51.9952226], [5.1213924, 51.9994019]], [[5.1381241, 51.9866648], [5.1339685, 51.9903473], [5.1330009, 51.9911637], [5.1320275, 51.9919886], [5.1282108, 51.9952226]], [[5.1381241, 51.9866648], [5.1337504, 51.9914794], [5.1326283, 51.9922376], [5.1282108, 51.9952226]]]}}, {"type": "Feature", "properties": {"name": "Maas"}, "geometry": {"type": "MultiLineString", "coordinates": [[[5.99196, 51.2285022], [5.997333, 51.2307359], [5.9981112, 51.2312116], [6.001224, 51.2332814], [6.0040116, 51.2358632], [6.0055901, 51.2381895], [6.0058892, 51.2386303], [6.0059862, 51.2388448], [6.0075542, 51.2434258], [6.0084773, 51.2470981], [6.0089829, 51.2491251], [6.0092942, 51.2508769], [6.0087424, 51.2529124], [6.0073013, 51.255088], [6.006809, 51.2558312], [6.0064483, 51.2564695], [6.0058848, 51.257663], [6.0053532, 51.2592619], [6.0053991, 51.2608908], [6.0059195, 51.2622394], [6.0072405, 51.2640144], [6.0084783, 51.2650626], [6.0101589, 51.2656917], [6.0112017, 51.2660388], [6.0128702, 51.2663643], [6.0144985, 51.2663274], [6.016888, 51.2659167], [6.0190891, 51.2657522], [6.0212993, 51.2658181], [6.0243715, 51.2661302], [6.0261124, 51.2666713], [6.026761, 51.2669682], [6.0281526, 51.2680196], [6.0290717, 51.2693504], [6.0294047, 51.2706362], [6.0296493, 51.2719953], [6.0302008, 51.2733423], [6.0314349, 51.2745086], [6.0316367, 51.2746648], [6.0334458, 51.2760653], [6.039843, 51.2808077], [6.040692, 51.2814221], [6.0412451, 51.2817996], [6.0481983, 51.2865451], [6.0493936, 51.2871594], [6.05087, 51.287727], [6.0538896, 51.2888696], [6.0584803, 51.2902077], [6.060636, 51.290783]], [[6.1307231, 51.5261329], [6.1295242, 51.5268267], [6.1291663, 51.5270338], [6.1219359, 51.5302313], [6.1197293, 51.531916], [6.119171, 51.5326429], [6.1172318, 51.5350181], [6.1157509, 51.5383234], [6.1152794, 51.540105], [6.1148217, 51.5417008], [6.1147023, 51.5421795], [6.1145159, 51.5429271], [6.1139215, 51.5444277], [6.1130305, 51.5453058], [6.1121793, 51.5459807], [6.1110438, 51.5466683], [6.1098563, 51.5472809], [6.1085357, 51.5476247], [6.1065019, 51.5481491], [6.1049724, 51.5482502], [6.1033465, 51.5483404], [6.0997168, 51.5481421], [6.099419, 51.5481099], [6.0993408, 51.548104], [6.0990871, 51.5480729], [6.0982937, 51.5479888], [6.0974273, 51.5479042], [6.0963438, 51.547758], [6.0957666, 51.5477008], [6.0943614, 51.5475647], [6.0922429, 51.5473513], [6.0913334, 51.5472669], [6.0902509, 51.5471925], [6.0885906, 51.5470407], [6.087694, 51.5469663], [6.0874791, 51.5469485], [6.0866854, 51.5468993], [6.0856898, 51.5468424], [6.0842762, 51.5467969], [6.0830801, 51.546831], [6.0818411, 51.5468833], [6.0809046, 51.5469248], [6.0802227, 51.546996], [6.080041, 51.5470198], [6.0791203, 51.5471511], [6.0783443, 51.5473175], [6.077584, 51.5475647], [6.0768236, 51.5478119], [6.0759063, 51.5481679], [6.0751469, 51.548478], [6.0746313, 51.5487057], [6.0740873, 51.5489606], [6.0737579, 51.5491064], [6.0736149, 51.5491791], [6.0733717, 51.5493064], [6.0729707, 51.5494885], [6.0726276, 51.5496793], [6.0717684, 51.5500709], [6.0715681, 51.5501709], [6.0711534, 51.5503981], [6.0705383, 51.5507253], [6.069966, 51.5510163], [6.0692504, 51.551371], [6.0686354, 51.5517072], [6.0679775, 51.5520616], [6.0674918, 51.552361], [6.0669345, 51.5526969], [6.0663633, 51.5530687], [6.065821, 51.5534494], [6.0652501, 51.5538393], [6.0645794, 51.5543106], [6.0640521, 51.5547271], [6.0633951, 51.5551444], [6.0629234, 51.5554258], [6.0624372, 51.5556983], [6.0619361, 51.5559439], [6.0611623, 51.5562719], [6.0605746, 51.556509], [6.0599143, 51.5567106], [6.059225, 51.5569033], [6.0583922, 51.5571418], [6.0576448, 51.5573079], [6.0572948, 51.5574044], [6.0567247, 51.5575791], [6.0565882, 51.5576023], [6.0564674, 51.5576119], [6.0561192, 51.5576246], [6.0558298, 51.5576386], [6.0551258, 51.5576634], [6.0544513, 51.5576917], [6.0538708, 51.5577189], [6.0536672, 51.5577295], [6.0531842, 51.5577463], [6.0521866, 51.5577886], [6.0513648, 51.5578022], [6.0507449, 51.5578147], [6.0501258, 51.5578812], [6.0496366, 51.5579558], [6.0490472, 51.558085], [6.0481856, 51.5583326], [6.0479275, 51.5584329], [6.04777, 51.5585059], [6.0475692, 51.5585878], [6.0470822, 51.5588153], [6.0466672, 51.5590333], [6.0463243, 51.559251], [6.0459964, 51.5595135], [6.0457975, 51.5597214], [6.0445684, 51.5607304], [6.0432447, 51.5616953], [6.0427179, 51.5621657], [6.0421622, 51.5626362], [6.0416077, 51.5631877], [6.0414069, 51.5634006], [6.0413308, 51.56345], [6.041209, 51.5635405], [6.0409682, 51.5638474], [6.0405429, 51.5643532], [6.040232, 51.5648044], [6.0399223, 51.5653274], [6.0396402, 51.5657695], [6.0394884, 51.5659878], [6.0392876, 51.5663287], [6.0390333, 51.5666987], [6.0387758, 51.5672252], [6.0385568, 51.5676632], [6.0385204, 51.5677446], [6.0384439, 51.5679157], [6.0381967, 51.5685178], [6.0380124, 51.5689246], [6.0378347, 51.5696088], [6.0377114, 51.5700679], [6.0376196, 51.5707066], [6.0375573, 51.5713901], [6.0375108, 51.5721724], [6.0375085, 51.5730174], [6.0375612, 51.5736733], [6.0375988, 51.5742843], [6.0377655, 51.5748497], [6.0379607, 51.5753789], [6.0381442, 51.576106], [6.0383543, 51.5766711], [6.0385701, 51.577628], [6.0392611, 51.5791466], [6.0392666, 51.5791628], [6.0392703, 51.5791739], [6.0394379, 51.5797932], [6.0395617, 51.5803768], [6.0396401, 51.5808168], [6.0396631, 51.5814099], [6.0395989, 51.5819586], [6.0395188, 51.5824085], [6.0392175, 51.5835338], [6.038979, 51.5840025], [6.0386966, 51.5844356], [6.0384844, 51.5847334], [6.0381449, 51.5852027], [6.037819, 51.585618], [6.0374614, 51.586025], [6.0370669, 51.5865031], [6.0367544, 51.5868464], [6.0365273, 51.5871083], [6.0351609, 51.5884283], [6.0332339, 51.5899131], [6.0314457, 51.5910942], [6.0311753, 51.5912728], [6.0294047, 51.5926039], [6.0287312, 51.5930557], [6.0277766, 51.5938173], [6.0264827, 51.5953482]], [[5.6938231, 50.8115256], [5.6943531, 50.8126857], [5.6961026, 50.8163851], [5.6973647, 50.8194989], [5.6975385, 50.8204814], [5.6975493, 50.8205454], [5.6977, 50.8214], [5.6977945, 50.8228928], [5.6979168, 50.824826], [5.6978647, 50.8253338], [5.6977615, 50.826339], [5.6976361, 50.8275605], [5.6974291, 50.8294123], [5.697321, 50.830379], [5.6975402, 50.8322988], [5.6976829, 50.8336829], [5.6991853, 50.8392644]], [[5.8407878, 51.1309479], [5.8417844, 51.1316494], [5.8428339, 51.1329427], [5.8431673, 51.1346354], [5.8433815, 51.1353734], [5.8438158, 51.1368694], [5.8443402, 51.138199], [5.8448004, 51.1393657], [5.8471109, 51.1413846], [5.8492972, 51.1421426], [5.8521476, 51.1428458], [5.8526219, 51.1430748], [5.8550187, 51.1442319], [5.8581929, 51.1463269], [5.8602481, 51.1477223], [5.8622216, 51.1492349], [5.8634298, 51.1499032], [5.8651156, 51.1504827], [5.8663953, 51.1507173], [5.8673629, 51.1506893], [5.8691387, 51.1504015], [5.8702568, 51.1499013], [5.871759, 51.149014], [5.8732105, 51.1482641], [5.8742358, 51.1478467], [5.8754164, 51.1475674], [5.8771268, 51.1473143], [5.8794751, 51.147567], [5.8820075, 51.1490834], [5.883187, 51.150063], [5.8849888, 51.1530908], [5.8849888, 51.1564047], [5.8852421, 51.158289], [5.8854811, 51.1589052], [5.886704, 51.1604981], [5.8882971, 51.1617636], [5.8892364, 51.1622018], [5.8932883, 51.1633928], [5.8950217, 51.1636661]], [[5.6938648, 50.871207], [5.6908387, 50.8723726], [5.6877529, 50.8733553], [5.6858753, 50.8740435], [5.6831426, 50.8751459], [5.6821191, 50.8756925], [5.680122, 50.8787608], [5.6795159, 50.881687], [5.6794936, 50.8833985], [5.680316, 50.8851573], [5.6821331, 50.8877187], [5.6849123, 50.8898286], [5.6908622, 50.8929882], [5.6928712, 50.8945033], [5.6953401, 50.8969335], [5.6964418, 50.8994198], [5.697034, 50.9031366], [5.6965794, 50.9071885], [5.6975443, 50.9089425], [5.6994752, 50.9100838], [5.7031293, 50.9111988], [5.7053076, 50.9116748], [5.7076158, 50.9116389], [5.7098554, 50.9111393], [5.712587, 50.909451], [5.7149123, 50.9084386], [5.7168959, 50.9081792], [5.7186812, 50.9080499], [5.7212624, 50.9087948], [5.7222815, 50.9092742], [5.7230673, 50.9097469], [5.7242081, 50.9107642], [5.7255655, 50.9122595], [5.726245, 50.9132557], [5.7265729, 50.9139493], [5.726795, 50.9145986], [5.7268289, 50.9152283], [5.7266764, 50.9163665], [5.7264128, 50.9175615], [5.7261964, 50.9189162], [5.7261533, 50.9197354], [5.7262137, 50.9204566], [5.7266332, 50.9218974], [5.7270538, 50.9229682], [5.7275191, 50.9239315], [5.7282671, 50.9249499], [5.7289394, 50.9257701], [5.7305913, 50.9274855], [5.7318099, 50.9288484], [5.7327053, 50.9296981], [5.7338222, 50.9305771], [5.7342959, 50.9309148], [5.736194, 50.9321417], [5.7407775, 50.9346775], [5.7417676, 50.9358373], [5.743431, 50.9388015], [5.7444524, 50.9407645], [5.7456319, 50.9423754], [5.7461342, 50.9449961], [5.7464277, 50.9462229], [5.7474548, 50.9473963], [5.7484255, 50.947798], [5.7500281, 50.948248], [5.7513376, 50.9487971], [5.7528097, 50.9490601], [5.7567425, 50.9498225], [5.7583365, 50.9507149], [5.7592434, 50.9526786], [5.7589537, 50.9542137], [5.7574948, 50.9561561], [5.7543192, 50.9584927], [5.7521618, 50.9598823], [5.7515222, 50.9600886], [5.7475559, 50.9610981], [5.7459969, 50.9612074], [5.7442351, 50.9609986], [5.7426774, 50.960452], [5.7413314, 50.9596565], [5.7393352, 50.9576829], [5.7371409, 50.9564954], [5.7339073, 50.9555515], [5.7293401, 50.9550468], [5.7280326, 50.9551027], [5.7245816, 50.9560725], [5.723117, 50.9568658], [5.7212912, 50.9580895], [5.7209569, 50.9591841], [5.7208283, 50.9607348], [5.720998, 50.9621675], [5.7212049, 50.9625512], [5.7212309, 50.9629245], [5.7214119, 50.9633618], [5.7221691, 50.9642997], [5.7247214, 50.9662478], [5.7264202, 50.967433], [5.7296025, 50.9698467], [5.7313317, 50.9706993], [5.7333685, 50.9722405], [5.7346858, 50.973775], [5.7351424, 50.9746284], [5.7355859, 50.9764234], [5.7361097, 50.9774812], [5.7370045, 50.9781257], [5.7384609, 50.979089], [5.7398536, 50.9795501], [5.7426572, 50.9798286], [5.7441316, 50.9800399], [5.7464216, 50.9808941], [5.7485078, 50.9819442], [5.7506897, 50.9835928], [5.7520527, 50.9852816], [5.7530363, 50.9865269], [5.7539475, 50.9879911], [5.7554445, 50.9901079], [5.7565505, 50.9912483], [5.7581164, 50.992191], [5.7597762, 50.9930468], [5.7608656, 50.9936562], [5.7640996, 50.9955031], [5.7656069, 50.9967376], [5.7664386, 50.9976732], [5.7671189, 50.9988788], [5.7674651, 50.9994924], [5.7675691, 51.0004539], [5.7675041, 51.0030398], [5.7667598, 51.0049548], [5.7664577, 51.0070013], [5.7662979, 51.0090997], [5.7665531, 51.010517], [5.7672586, 51.0123483], [5.7678631, 51.0135217], [5.7717452, 51.0172908], [5.7744639, 51.0197179], [5.7754235, 51.0205862], [5.7761628, 51.0215789], [5.7765082, 51.0224674], [5.7762084, 51.0235593], [5.7755979, 51.0249309], [5.7745315, 51.026259], [5.7735025, 51.0269992], [5.7715794, 51.0278774], [5.7684745, 51.0288798], [5.7659694, 51.0293293], [5.763922, 51.0296001], [5.7613531, 51.0301109], [5.7600613, 51.0306152], [5.758976, 51.0312848], [5.7582502, 51.0323691], [5.7584035, 51.0343406], [5.7586065, 51.0349803], [5.7590227, 51.0353766], [5.7599164, 51.0364245], [5.760117, 51.0366101], [5.7614571, 51.0378495], [5.7624124, 51.0387568], [5.7648553, 51.0410758], [5.7663439, 51.0428924], [5.7717746, 51.0511199], [5.7723032, 51.0536396], [5.7727532, 51.0560244], [5.7723145, 51.0581504], [5.7722358, 51.0600739], [5.772562, 51.0611313], [5.7728692, 51.0614645], [5.7733606, 51.0619975], [5.7745193, 51.0625037], [5.7757116, 51.0627624], [5.7775227, 51.0626949], [5.7809311, 51.0620537], [5.783867, 51.0612101], [5.786668, 51.0599614], [5.7881528, 51.059309], [5.789599, 51.058887], [5.7903801, 51.0587466], [5.7926861, 51.0585216], [5.7961394, 51.0590165], [5.7979501, 51.0595007], [5.798243, 51.059579], [5.7990324, 51.0600408], [5.7994353, 51.0602764], [5.7999528, 51.0607713], [5.800594, 51.0616713], [5.8009877, 51.0627511], [5.8009764, 51.0635048], [5.8004078, 51.0648917], [5.7996266, 51.0665532], [5.7987267, 51.0680718], [5.7982176, 51.0691866], [5.7973446, 51.0702225], [5.7969895, 51.0716304], [5.7971306, 51.0726603], [5.7978574, 51.0734077], [5.7996769, 51.0749324], [5.8033823, 51.0765066], [5.8045411, 51.0776427], [5.8048976, 51.0783852], [5.8046984, 51.0794942], [5.8036267, 51.081339], [5.8018459, 51.0831396], [5.7989277, 51.0851237], [5.7973557, 51.0866146], [5.7957056, 51.0887773], [5.795598, 51.0894974], [5.7955421, 51.089872], [5.7960128, 51.0911483], [5.7976952, 51.0922158], [5.7987652, 51.0928947], [5.8000015, 51.0937385], [5.8017662, 51.0945624], [5.8055901, 51.095703], [5.8083214, 51.0961219], [5.8118139, 51.0959202], [5.8155103, 51.094929], [5.8206432, 51.0927805], [5.8221241, 51.0923951], [5.8237004, 51.0923389], [5.825088, 51.0925273], [5.8274881, 51.0936501], [5.8296632, 51.0950318], [5.8315633, 51.0964796], [5.8327846, 51.0984965], [5.8334107, 51.1005104], [5.833449, 51.1019706], [5.8332318, 51.1034067], [5.8321586, 51.1049149], [5.8305986, 51.1059948], [5.8289521, 51.1068173], [5.827606, 51.1073732], [5.8260249, 51.1078085], [5.8242048, 51.1080592], [5.8231271, 51.1080445], [5.8203311, 51.1080065]], [[5.6838991, 50.7623224], [5.6850994, 50.7635773], [5.6863215, 50.7645756], [5.6897264, 50.767194], [5.6907242, 50.7680944], [5.693511, 50.7708312], [5.6962897, 50.7739098], [5.6973149, 50.7753295], [5.6977421, 50.7761388], [5.6982978, 50.7773707], [5.698711, 50.7795654], [5.6987996, 50.7816277], [5.6986768, 50.7829994], [5.6984754, 50.7842143], [5.6982417, 50.7851613], [5.6977991, 50.7863668], [5.6970836, 50.7881846], [5.6957848, 50.7910759], [5.6954166, 50.7919441], [5.6951085, 50.792848], [5.6948059, 50.7941079], [5.6942078, 50.7964906], [5.6935677, 50.7991379], [5.6935924, 50.799496], [5.6936303, 50.8000478], [5.6938231, 50.8115256]], [[5.9839403, 51.2108922], [5.9838384, 51.2111744], [5.9837241, 51.211491], [5.9832235, 51.2128037], [5.9807879, 51.2180803], [5.9806576, 51.2196245], [5.9808211, 51.220752], [5.9810858, 51.2214847], [5.9815161, 51.2221656], [5.9824151, 51.2233798], [5.9828054, 51.223822], [5.9832666, 51.2242234], [5.9839327, 51.2246432], [5.9846628, 51.2249982], [5.9854211, 51.2253395], [5.9861928, 51.2256327], [5.9869781, 51.226013], [5.9890735, 51.2272018], [5.99196, 51.2285022]], [[6.1059098, 51.3122986], [6.1119891, 51.31893], [6.1126072, 51.3196042], [6.1131157, 51.3201092], [6.1137807, 51.3207696], [6.1168142, 51.3242548], [6.1178106, 51.3271786], [6.1181209, 51.3288405]], [[5.9985656, 51.6354444], [5.9968833, 51.6364978], [5.9957921, 51.6370553], [5.9949088, 51.6374715], [5.992423, 51.638554], [5.987682, 51.6403481], [5.9854867, 51.641179], [5.9854499, 51.6411935], [5.984224, 51.6416655], [5.9817299, 51.6426268], [5.979976, 51.643143], [5.9780607, 51.643769], [5.9776431, 51.643879], [5.9768952, 51.6441344], [5.9755426, 51.6445548], [5.9742914, 51.6450015], [5.9726751, 51.6457962], [5.971576, 51.6463295], [5.9703582, 51.647028]], [[5.9562026, 51.704534], [5.9561891, 51.704941], [5.9561581, 51.7058547], [5.9561869, 51.7069871], [5.9559555, 51.7081478], [5.9553773, 51.7093371], [5.9543761, 51.7102678], [5.9529695, 51.7111734], [5.951244, 51.7120357], [5.9500592, 51.7124621], [5.9490832, 51.7128101], [5.946708, 51.7136204], [5.9448614, 51.7141677], [5.9444423, 51.7142974], [5.9418883, 51.7148848], [5.9388435, 51.7155733], [5.9368488, 51.715943], [5.9360569, 51.7160898], [5.9340352, 51.7164319], [5.9319552, 51.7167471], [5.9285958, 51.7170964], [5.9281541, 51.7171423], [5.9250887, 51.7173542], [5.9225249, 51.7174456], [5.9193895, 51.71756], [5.9183334, 51.7175827], [5.9160079, 51.7177275], [5.9131129, 51.7178939], [5.9102218, 51.7181675], [5.9079387, 51.7184476], [5.9046594, 51.7189563], [5.9022626, 51.7194343], [5.9000686, 51.7199383], [5.8980777, 51.7204863], [5.8957985, 51.7211434], [5.894514, 51.721675], [5.8932197, 51.7221972], [5.8917369, 51.7228957], [5.8903411, 51.7236208], [5.8888754, 51.7245709], [5.8871968, 51.7256974], [5.8862945, 51.7267752]], [[5.9275922, 51.1818185], [5.9281338, 51.1837725], [5.9301679, 51.185568], [5.9321582, 51.1867816], [5.9329722, 51.1871523], [5.9373172, 51.1889024], [5.9419751, 51.1903432], [5.9445446, 51.1908383], [5.9455859, 51.1910598], [5.9486671, 51.1909693], [5.9506048, 51.1904111], [5.9515918, 51.1899434], [5.9562553, 51.1879863], [5.9573908, 51.1874804], [5.9581273, 51.1871523], [5.9627611, 51.1862319], [5.9656497, 51.1862017], [5.9675414, 51.1864728], [5.9688198, 51.1868691], [5.9696997, 51.1872337], [5.9708372, 51.1878463], [5.9715595, 51.1882864], [5.9730037, 51.1891664], [5.9748091, 51.1912258], [5.9767038, 51.1940679], [5.977204, 51.194725], [5.9782729, 51.1958377], [5.9796647, 51.1972667], [5.9805679, 51.1982848], [5.9809299, 51.1991076], [5.9817464, 51.2016085]], [[5.2858612, 51.7391718], [5.2830969, 51.7397522], [5.281674, 51.7398632], [5.2799812, 51.7399588], [5.2785332, 51.7400204], [5.2770853, 51.740055], [5.2756375, 51.7400446], [5.2742032, 51.7400081], [5.2727421, 51.739943], [5.2712947, 51.7398157], [5.2698472, 51.7396705], [5.2685898, 51.7395309], [5.2675546, 51.7394174], [5.2669525, 51.739335], [5.2655054, 51.7390728], [5.2640587, 51.7387028], [5.2626123, 51.7381979], [5.2611663, 51.7375492], [5.2601049, 51.7370267], [5.2597206, 51.7368375], [5.258275, 51.7360899], [5.2579222, 51.7359206], [5.2568519, 51.7354073], [5.2568293, 51.7353962], [5.2551613, 51.7347303], [5.2539371, 51.7343323], [5.2524906, 51.7339442], [5.2510439, 51.7336369], [5.2495969, 51.7334554], [5.2481492, 51.7334897], [5.2467009, 51.7336947], [5.2452522, 51.7340525], [5.2445957, 51.734296], [5.2438029, 51.73459], [5.2423531, 51.7352624], [5.2418496, 51.735555], [5.2409051, 51.7360593], [5.2409028, 51.7360606], [5.2394522, 51.7369756], [5.2394095, 51.7370025], [5.2380014, 51.7378905], [5.2365509, 51.7387336], [5.2351006, 51.7394688], [5.2336506, 51.7401231], [5.2329531, 51.7404205], [5.2322007, 51.7407414], [5.2306634, 51.7413057], [5.2302862, 51.7414366], [5.2293022, 51.741771], [5.2278529, 51.7421735], [5.2264037, 51.74254], [5.2249547, 51.7428437], [5.223506, 51.7430843], [5.2220574, 51.7432621], [5.2206091, 51.7433679], [5.219161, 51.7434018], [5.2177132, 51.7433907], [5.2167875, 51.7433554]], [[5.4680718, 51.8118492], [5.4661109, 51.8113905], [5.4635033, 51.810921], [5.4625886, 51.8107563], [5.4608626, 51.8105147], [5.4597023, 51.8104165], [5.4569129, 51.8101931], [5.4539942, 51.8099808], [5.4521472, 51.8097452], [5.4493347, 51.8095944], [5.4483616, 51.8095422], [5.4455919, 51.8094896], [5.4425904, 51.8095001]], [[5.5730167, 51.8277216], [5.5715659, 51.82767], [5.5701153, 51.8276812], [5.569235, 51.8276903], [5.5614118, 51.8277484], [5.5612851, 51.8277443], [5.5611585, 51.8277394], [5.561032, 51.8277339], [5.5609056, 51.8277278], [5.5607792, 51.827721], [5.560653, 51.8277135], [5.5605268, 51.8277054], [5.5604008, 51.8276966], [5.5602749, 51.8276872], [5.5601491, 51.827677], [5.5600235, 51.8276663], [5.559898, 51.8276549], [5.5597727, 51.8276428], [5.5596475, 51.8276301], [5.5595225, 51.8276167], [5.5593967, 51.8276024], [5.5592732, 51.827588], [5.5591488, 51.8275726], [5.5590204, 51.8275561], [5.5588923, 51.8275389], [5.5587644, 51.8275209], [5.5586368, 51.8275023], [5.5585095, 51.827483], [5.558399, 51.8274645], [5.5582889, 51.8274453], [5.558179, 51.8274255], [5.5580695, 51.8274049], [5.5579603, 51.8273837], [5.5578515, 51.8273618], [5.557743, 51.8273393], [5.5576349, 51.8273161], [5.5575271, 51.8272923], [5.5574197, 51.8272678], [5.5573128, 51.8272426], [5.5572094, 51.8272175], [5.5571063, 51.8271919], [5.5570037, 51.8271656], [5.5569015, 51.8271388], [5.5567997, 51.8271113], [5.5566984, 51.8270832], [5.5565975, 51.8270546], [5.556497, 51.8270253], [5.556397, 51.8269954], [5.5562974, 51.826965], [5.5561983, 51.8269339], [5.5560998, 51.8269023], [5.5559998, 51.8268695], [5.5559004, 51.8268361], [5.5558016, 51.826802], [5.5557032, 51.8267674], [5.5556054, 51.8267322], [5.5555108, 51.8266977], [5.5554167, 51.8266625], [5.5553232, 51.8266268], [5.5552303, 51.8265905], [5.555138, 51.8265536], [5.5550462, 51.8265161], [5.5549551, 51.8264781], [5.5548646, 51.8264395], [5.5547747, 51.8264004], [5.5546855, 51.8263607], [5.5545969, 51.8263204], [5.554509, 51.8262796], [5.5544217, 51.8262383], [5.5543351, 51.8261964], [5.5542492, 51.8261539], [5.554164, 51.826111], [5.5540795, 51.8260675], [5.5539957, 51.8260235], [5.5539126, 51.825979], [5.5538302, 51.8259339], [5.5534577, 51.8257483], [5.5523378, 51.8249229], [5.5515955, 51.8242319], [5.5511293, 51.8236662], [5.5509251, 51.8233609], [5.5499997, 51.8217698], [5.5494509, 51.8208193], [5.5488528, 51.8198673], [5.5480665, 51.8189965], [5.5471068, 51.8182966], [5.5461767, 51.8177586], [5.5447822, 51.8171403], [5.5430835, 51.8165943], [5.5416902, 51.8162905], [5.5400098, 51.8161398], [5.5387457, 51.8161415], [5.5371942, 51.8162334], [5.53625, 51.8163809], [5.5353844, 51.816573], [5.5347199, 51.8167739], [5.5334844, 51.817101], [5.5306298, 51.8178865], [5.5287601, 51.8182753], [5.5263075, 51.8186177]], [[5.7406945, 51.7634601], [5.7402394, 51.7639393], [5.7378178, 51.7664018], [5.7357684, 51.7688749], [5.7353272, 51.7693478], [5.7344437, 51.7701819], [5.7331289, 51.7712592], [5.7320447, 51.7720523]], [[5.9815161, 51.2221656], [5.9820315, 51.2226803], [5.9825898, 51.2231249], [5.9830585, 51.2233753], [5.9835823, 51.2236602], [5.9840819, 51.2239688], [5.9847401, 51.2244414], [5.985195, 51.2248644], [5.9856568, 51.2252572], [5.9861928, 51.2256327]], [[5.6987879, 50.8661755], [5.6978182, 50.8679859], [5.6967707, 50.8690989], [5.6964179, 50.8694713], [5.6956708, 50.8700878], [5.6952429, 50.8703971], [5.6938648, 50.871207]], [[5.6967253, 50.8568178], [5.6967985, 50.8583012], [5.6968297, 50.8587289], [5.6972449, 50.8595654], [5.6974902, 50.8600597]], [[5.8693655, 51.7560017], [5.8666023, 51.7569702], [5.8651627, 51.7573176], [5.8633523, 51.7577545], [5.8616401, 51.7580425], [5.8591871, 51.7584563], [5.8559285, 51.7588274], [5.8528003, 51.7590695], [5.8490083, 51.7591769], [5.8477798, 51.7592117], [5.8411217, 51.7586983], [5.8403136, 51.7586429], [5.8383703, 51.7585097], [5.837445, 51.7584463], [5.833824, 51.758198], [5.8213618, 51.7575204], [5.8195892, 51.7574074], [5.8104652, 51.7567136], [5.8052733, 51.7560781], [5.801237, 51.755584], [5.7948763, 51.7543899], [5.7917863, 51.7537756], [5.7911208, 51.7536433], [5.7880985, 51.7530344], [5.7864629, 51.7528818], [5.7804866, 51.7523243], [5.7769436, 51.7521923], [5.774178, 51.7521952], [5.769585, 51.75243], [5.7684951, 51.7524857], [5.762622, 51.753154], [5.7589019, 51.7539703], [5.7536883, 51.7554872], [5.7497256, 51.7569493], [5.7470532, 51.758222], [5.746541, 51.7584659], [5.7439933, 51.7601596], [5.7435548, 51.7604511], [5.7427531, 51.7612924]], [[5.8724629, 51.7545339], [5.8708922, 51.7554859], [5.8693655, 51.7560017]], [[5.8724629, 51.7545339], [5.8705559, 51.755247], [5.8693655, 51.7560017]], [[5.6553881, 51.7997868], [5.6533572, 51.8008058], [5.6529541, 51.8020909]], [[5.6553881, 51.7997868], [5.6546513, 51.8013016], [5.6529541, 51.8020909]], [[5.9595511, 51.6916001], [5.9584905, 51.6932073], [5.9583929, 51.6949405]], [[5.9595511, 51.6916001], [5.9592072, 51.6932536], [5.9583929, 51.6949405]], [[5.9637652, 51.66489], [5.9640033, 51.6664638], [5.9641119, 51.6672618], [5.9643223, 51.6688083], [5.9644168, 51.6698179], [5.9645912, 51.6717552], [5.9646443, 51.6736516], [5.9645851, 51.6758092], [5.9644266, 51.6769875], [5.9642815, 51.6780758], [5.964144, 51.6787846], [5.9640607, 51.67936], [5.9634856, 51.6814325], [5.963231, 51.6822104], [5.9628315, 51.6834312], [5.961965, 51.6857995], [5.961209, 51.6875568], [5.9606165, 51.6889342], [5.9595511, 51.6916001]], [[6.157554, 51.3660572], [6.160966, 51.368922], [6.1614907, 51.3693304], [6.1641311, 51.3707374]], [[6.157554, 51.3660572], [6.1617807, 51.3686341], [6.1622262, 51.3690088], [6.1641311, 51.3707374]], [[6.1181209, 51.3288405], [6.1181338, 51.3290853], [6.1182036, 51.3304134], [6.1179467, 51.332324], [6.1173474, 51.3339578], [6.1167368, 51.3356221], [6.1163655, 51.3370141], [6.1165584, 51.3382153], [6.116611, 51.338601], [6.1171824, 51.3396008], [6.1182846, 51.3408113], [6.1211408, 51.3424466], [6.1238605, 51.3436836], [6.1250076, 51.3442646], [6.1259001, 51.3447267], [6.1332205, 51.3486134], [6.1365456, 51.3507244], [6.137783, 51.3514582], [6.1411187, 51.3535462], [6.1457576, 51.3556844], [6.1460584, 51.3558288], [6.1467951, 51.3561798], [6.1473633, 51.3564505], [6.1489937, 51.3572898], [6.150648, 51.3583392], [6.1521972, 51.3602903], [6.1540695, 51.3628663], [6.1549785, 51.3637496], [6.1555845, 51.3643072], [6.157554, 51.3660572]], [[5.9306528, 51.1673066], [5.9318848, 51.1666345], [5.9327724, 51.1661808], [5.9354285, 51.1645957], [5.937447, 51.1630531]], [[5.9127901, 51.1669993], [5.9139304, 51.1673831], [5.9155452, 51.1677754], [5.9170317, 51.1679694], [5.9186164, 51.167941], [5.9225408, 51.1681266], [5.928245, 51.16769], [5.9306528, 51.1673066]], [[5.9049653, 51.1652676], [5.907441, 51.1654841], [5.9100292, 51.1661004], [5.9102527, 51.1661732], [5.9127901, 51.1669993]], [[5.937447, 51.1630531], [5.9381149, 51.1625564], [5.938609, 51.162189], [5.9400617, 51.1613874], [5.941601, 51.1607864], [5.9427933, 51.1604788], [5.9440562, 51.1603823], [5.9452513, 51.1604752], [5.9470868, 51.160784], [5.9485772, 51.1611153], [5.9497694, 51.161508], [5.951049, 51.162167], [5.9521048, 51.1628212], [5.9528896, 51.163673], [5.9533574, 51.1646099], [5.9536291, 51.1655657], [5.95378, 51.1666351], [5.953614, 51.1675246], [5.9530717, 51.1684191]], [[5.8950217, 51.1636661], [5.8992394, 51.1643312], [5.9023363, 51.1648377], [5.9049653, 51.1652676]], [[6.1641311, 51.3707374], [6.1656938, 51.3718317], [6.167033, 51.3736348], [6.1670909, 51.37397], [6.1673218, 51.3753066], [6.1671691, 51.37609], [6.1669017, 51.3768146], [6.1655888, 51.3788628], [6.1618516, 51.3836756], [6.1594043, 51.3870398], [6.1572187, 51.3899683], [6.1545742, 51.3935328]], [[5.7427531, 51.7612924], [5.7406945, 51.7634601]], [[5.7320447, 51.7720523], [5.7281246, 51.773397]], [[5.9817464, 51.2016085], [5.9834397, 51.2053111], [5.9838706, 51.2068699], [5.9840377, 51.2082425], [5.9839886, 51.2095047], [5.9839403, 51.2108922]], [[5.6991853, 50.8392644], [5.6993599, 50.8399438], [5.6995489, 50.8407979], [5.6997355, 50.8418349], [5.6996128, 50.8421831], [5.69892, 50.8439466], [5.6976308, 50.8458864], [5.6975247, 50.8460428], [5.6973858, 50.8462319], [5.6969672, 50.847005], [5.6965166, 50.8478374], [5.6964665, 50.8480935], [5.6962081, 50.8494306], [5.6960568, 50.8501863], [5.6959318, 50.8518482], [5.6958747, 50.8526064], [5.696109, 50.8537666], [5.6967253, 50.8568178], [5.697431, 50.8582881], [5.6975764, 50.8585911], [5.6974902, 50.8600597], [5.6976443, 50.8607318], [5.69811, 50.8623422], [5.6987521, 50.8647368], [5.6987865, 50.8656763], [5.6987879, 50.8661755], [5.6992007, 50.8678463]], [[5.9287283, 51.1785874], [5.928586, 51.178875], [5.9279015, 51.1803123], [5.9277053, 51.1809438], [5.9275922, 51.1818185]], [[5.9530717, 51.1684191], [5.9528141, 51.1687075], [5.9517804, 51.1695403], [5.950667, 51.170193], [5.949245, 51.1707799], [5.9471246, 51.1714706], [5.9437591, 51.1722087], [5.937625, 51.173466], [5.9347267, 51.1738409], [5.9328931, 51.1742146], [5.9312632, 51.1749243], [5.930252, 51.1758231], [5.9287283, 51.1785874]], [[5.8183967, 51.1241056], [5.8196648, 51.1251809], [5.821143, 51.126427], [5.8220317, 51.1272394], [5.8236287, 51.128362], [5.825328, 51.1292039], [5.8279728, 51.1300458], [5.8310903, 51.1304949], [5.8331993, 51.1306278], [5.8346805, 51.1306472], [5.8395823, 51.1305701], [5.8407878, 51.1309479]], [[5.8203311, 51.1080065], [5.8192134, 51.1079513], [5.8148493, 51.1077359], [5.8137023, 51.1078291], [5.8127989, 51.1081212], [5.8116735, 51.1086251], [5.8100427, 51.1097028], [5.808816, 51.111057], [5.8084169, 51.1123559], [5.8082403, 51.1132323], [5.8084978, 51.1146332], [5.8101063, 51.1177268], [5.8109375, 51.1188043], [5.811791, 51.119522], [5.8150301, 51.1214412], [5.8171274, 51.1230294], [5.8183967, 51.1241056]], [[6.0264827, 51.5953482], [6.0259202, 51.5962455], [6.0257075, 51.5966822], [6.025275, 51.5975703], [6.0246593, 51.598949], [6.0242035, 51.6004077], [6.0240659, 51.6014196], [6.0239252, 51.602171], [6.0238303, 51.6036367], [6.0238261, 51.6053985], [6.0239571, 51.6075281], [6.0240711, 51.6094781], [6.0241942, 51.6106207], [6.0242688, 51.6112208], [6.0242583, 51.6125243], [6.0241364, 51.6141249], [6.023947, 51.6160586], [6.0239177, 51.6161485], [6.0238287, 51.6164216], [6.0234071, 51.6177154], [6.0228023, 51.6188603], [6.0223855, 51.6194229], [6.022023, 51.6199252], [6.0210555, 51.6209552], [6.0200443, 51.6219584], [6.0191735, 51.6226822], [6.0178127, 51.6234806], [6.0162375, 51.6244419], [6.0146053, 51.6254664], [6.0133173, 51.6262337], [6.0128146, 51.6265187], [6.0106637, 51.6276358], [6.0091046, 51.6287407], [6.0083375, 51.6293257], [6.0077753, 51.6297545], [6.0066894, 51.6306142], [6.0055294, 51.6313394], [6.0046113, 51.6318027], [6.0044253, 51.631893], [6.0031289, 51.6325223], [6.0016423, 51.6333464], [6.0003829, 51.634207], [5.9985656, 51.6354444]], [[6.1714727, 51.4573425], [6.1743611, 51.4597149], [6.1749223, 51.4602439], [6.1758587, 51.4611848], [6.1766905, 51.4620206], [6.1781186, 51.4644906], [6.1790723, 51.4670351], [6.1791391, 51.4685556], [6.1791164, 51.4692835], [6.1788607, 51.4700682], [6.1784153, 51.471435], [6.1776722, 51.4734543], [6.1766744, 51.4750408], [6.1752943, 51.4764484], [6.1748381, 51.4769866], [6.1744614, 51.4773749], [6.1739174, 51.4779355], [6.1706214, 51.4812555], [6.1703664, 51.4815124], [6.1684032, 51.4839861], [6.1680057, 51.4846724], [6.1668479, 51.4866013], [6.1666907, 51.487975], [6.1666439, 51.4883845], [6.1666319, 51.4900664], [6.1670903, 51.4920467], [6.1675575, 51.4934272], [6.1683585, 51.495881], [6.1685994, 51.4966192], [6.1694706, 51.5000719], [6.1694809, 51.5008474], [6.1694933, 51.5017821], [6.1694654, 51.502173], [6.1691511, 51.5036147], [6.1679896, 51.506362], [6.1666711, 51.5079998], [6.1650859, 51.5097237], [6.1645103, 51.5101445], [6.1617175, 51.5121272], [6.1590573, 51.5132837], [6.1563746, 51.5141331], [6.1546526, 51.5146022], [6.1525631, 51.5151715], [6.1492313, 51.5160847], [6.1440336, 51.5181266], [6.1410049, 51.5199077], [6.1396489, 51.5207285], [6.1358159, 51.5231857], [6.1307231, 51.5261329]], [[6.1583545, 51.4230354], [6.1584077, 51.4239856], [6.1581929, 51.4259177], [6.1570802, 51.4294179], [6.1569152, 51.429937], [6.1553201, 51.4332859], [6.1540224, 51.4371963], [6.1539788, 51.4378097], [6.1540629, 51.4391961], [6.1546795, 51.4413432], [6.1552141, 51.4427838], [6.1564863, 51.4449778], [6.1577245, 51.4461283], [6.1590559, 51.4473145], [6.1614607, 51.4494617], [6.1618609, 51.4498296], [6.1659404, 51.4535809], [6.1706751, 51.4568002], [6.1714727, 51.4573425]], [[6.1553762, 51.4180165], [6.1565668, 51.4190732], [6.1575315, 51.4203106], [6.1577578, 51.4207322], [6.158309, 51.422224], [6.1583545, 51.4230354]], [[6.1529336, 51.3960381], [6.152588, 51.3967092], [6.1511658, 51.3999467], [6.1501103, 51.4039261], [6.1500306, 51.4042266], [6.1491393, 51.4075597], [6.1491912, 51.409837], [6.149379, 51.4105618], [6.1495857, 51.4113595], [6.1501977, 51.4125061], [6.1504585, 51.4129998], [6.1507012, 51.4134592], [6.1526333, 51.4159732], [6.1553762, 51.4180165]], [[6.1545742, 51.3935328], [6.1534207, 51.3951521], [6.1532553, 51.3954133], [6.1531223, 51.3956715], [6.1529336, 51.3960381]], [[6.0966231, 51.3052064], [6.0981362, 51.3060883], [6.1000595, 51.3071349], [6.1020437, 51.3082093], [6.1037763, 51.3095673], [6.1059098, 51.3122986]], [[6.060636, 51.290783], [6.06391, 51.2916522], [6.0704668, 51.2933413], [6.0719033, 51.2937128], [6.0772773, 51.2950655], [6.0828964, 51.2966694], [6.0848914, 51.2974214], [6.0879218, 51.2985297], [6.089255, 51.2993857], [6.0923936, 51.3016162], [6.0947629, 51.303711], [6.0959518, 51.3047621], [6.0966231, 51.3052064]], [[5.9652745, 51.6519749], [5.9652355, 51.6520308], [5.9647981, 51.6528599], [5.9644196, 51.6537697], [5.9640857, 51.654787], [5.9639278, 51.6553876], [5.9639105, 51.6554542], [5.9638101, 51.6558401], [5.9635361, 51.657019], [5.9632635, 51.6594472], [5.9632202, 51.660589], [5.9632394, 51.6608567], [5.9633432, 51.6623053], [5.9634666, 51.6630966], [5.9635571, 51.6636765], [5.9637652, 51.66489]], [[5.9703582, 51.647028], [5.9694031, 51.6476798], [5.9676233, 51.6491009], [5.9667883, 51.6499665], [5.965888, 51.6510748], [5.9652745, 51.6519749]], [[5.2167875, 51.7433554], [5.2148181, 51.7431798], [5.2133711, 51.7429529], [5.2119244, 51.7426452], [5.2104777, 51.7423194], [5.2090348, 51.7419677], [5.2076556, 51.741621], [5.206991, 51.7414672], [5.2064993, 51.7413534], [5.2056337, 51.7411709], [5.2040584, 51.7409163], [5.2030036, 51.740769], [5.2016112, 51.7405534], [5.2003086, 51.7404344], [5.1994692, 51.7403432], [5.1986008, 51.7402879], [5.196589, 51.7401139], [5.1953294, 51.7401298], [5.1938089, 51.7401992], [5.1926788, 51.7403771], [5.1888642, 51.7412728], [5.1860616, 51.7418326], [5.1830331, 51.7422587]], [[5.3480542, 51.7537426], [5.3459546, 51.7532174], [5.3436728, 51.7526013], [5.3422249, 51.7522502], [5.3407771, 51.7518901], [5.3402619, 51.7517492], [5.3393293, 51.7514941], [5.3373468, 51.7509215], [5.3349861, 51.7503147], [5.3335384, 51.7499186], [5.3323432, 51.7496005], [5.3306432, 51.7490993], [5.3291957, 51.7486491], [5.327406, 51.7481019], [5.3234058, 51.7468575], [5.3219584, 51.7463982], [5.3210352, 51.7460652], [5.3205112, 51.7458761], [5.3194762, 51.7455041], [5.319064, 51.745336], [5.3176169, 51.7447599], [5.3161699, 51.7441298], [5.3147231, 51.7434458], [5.3132763, 51.7427528], [5.3118296, 51.7420508], [5.3107738, 51.7415647], [5.3103828, 51.7413847], [5.3089361, 51.7407276], [5.3077702, 51.7402253], [5.3064945, 51.7396399], [5.3060427, 51.7394403], [5.3046218, 51.7387975], [5.3018932, 51.7377359], [5.3002069, 51.7372439], [5.2992934, 51.7370605], [5.2959064, 51.7366673], [5.294869, 51.7367331], [5.2929953, 51.7369397], [5.2918789, 51.7371316], [5.2858612, 51.7391718]], [[5.3754631, 51.7959704], [5.3737965, 51.7944242], [5.3713999, 51.7921908], [5.3704491, 51.7913048], [5.3695798, 51.7904328], [5.369348, 51.7901619], [5.3692678, 51.7900683], [5.36904, 51.7897528], [5.3682432, 51.7888179], [5.3666498, 51.7867593], [5.3659402, 51.7857165], [5.3654188, 51.7848805], [5.3649265, 51.7841074], [5.3645609, 51.7834311], [5.3635221, 51.7815095], [5.3627694, 51.7798645], [5.3620313, 51.7780936], [5.3614383, 51.776161], [5.3612994, 51.7755696], [5.3609758, 51.7741924], [5.3606292, 51.7721969], [5.3604854, 51.7704441], [5.3604428, 51.7688532], [5.3605894, 51.7666121], [5.360675, 51.7653026], [5.3607049, 51.7637117], [5.3607634, 51.762696], [5.3607203, 51.7622196], [5.3606481, 51.7618241], [5.3603154, 51.761078], [5.3598089, 51.760179], [5.3590273, 51.759271], [5.3582312, 51.7584619], [5.3577174, 51.7579852], [5.3568994, 51.757311], [5.3558571, 51.7565647], [5.3540678, 51.7556522], [5.3526509, 51.7551232], [5.3480542, 51.7537426]], [[5.3930638, 51.811809], [5.3917147, 51.8107478], [5.389699, 51.8094355], [5.3892877, 51.809118], [5.3881039, 51.8082042], [5.387057, 51.807445], [5.3865669, 51.8070896], [5.3849575, 51.8058132], [5.3835367, 51.8045908], [5.382087, 51.8032155], [5.3804489, 51.8014088], [5.3791758, 51.7999253], [5.378724, 51.7993953], [5.3772312, 51.7977413], [5.3754631, 51.7959704]], [[5.4425904, 51.8095001], [5.4394874, 51.8096363], [5.4380093, 51.8097671], [5.4360511, 51.8099345], [5.4328325, 51.8104481], [5.4294981, 51.8112223], [5.4268452, 51.8120682], [5.4249897, 51.8128867], [5.4231924, 51.8140378], [5.4219315, 51.814937], [5.4211488, 51.8155485], [5.4204097, 51.8161958], [5.4194387, 51.8172118], [5.4187141, 51.818012], [5.4183091, 51.8184411], [5.418086, 51.8186766], [5.4177416, 51.8190327], [5.4167705, 51.8199588], [5.4160167, 51.8205342], [5.4154802, 51.8208669], [5.4149728, 51.8211367], [5.4148133, 51.8212356], [5.414444, 51.8214049], [5.413893, 51.8216387], [5.4132549, 51.8218635], [5.4126023, 51.8220704], [5.4119352, 51.8222324], [5.4109345, 51.8223944], [5.4098032, 51.8225024], [5.4089039, 51.8225476], [5.4080191, 51.8225387], [5.4070328, 51.822494], [5.406148, 51.8223952], [5.4053792, 51.8222605], [5.4046684, 51.8220719], [5.4038281, 51.8218199], [5.4031888, 51.8215957], [5.4026085, 51.8213082], [5.4020717, 51.8210026], [5.4015495, 51.8206701], [5.40065, 51.8199512], [5.3999681, 51.8191962], [5.3992717, 51.8183244], [5.3986478, 51.8175066], [5.3980965, 51.8167696], [5.3975018, 51.8159786], [5.396936, 51.8152506], [5.3962194, 51.8144862], [5.3956595, 51.8139115], [5.3930638, 51.811809]], [[5.5263075, 51.8186177], [5.5202794, 51.8188011], [5.5188517, 51.8189952], [5.5171027, 51.8193765], [5.515509, 51.8199894], [5.514278, 51.8206379], [5.5133691, 51.8213265], [5.5130188, 51.821592], [5.5116879, 51.8228428], [5.5098507, 51.8246694], [5.5084615, 51.8258663], [5.5072018, 51.8267575], [5.50571, 51.8276219], [5.5044028, 51.8282496]], [[5.5044028, 51.8282496], [5.5023627, 51.8290633], [5.5003044, 51.8297035], [5.4981482, 51.8301756], [5.4975254, 51.8302873], [5.4954516, 51.8305768], [5.4930146, 51.83066], [5.4910925, 51.830567], [5.4866146, 51.8296229], [5.4846691, 51.8289055], [5.4828971, 51.8278553], [5.4812548, 51.8263825], [5.4804262, 51.8254031], [5.4793776, 51.8234988], [5.4783594, 51.8200046], [5.4783406, 51.8199402], [5.4776556, 51.8182869], [5.4767863, 51.8169111], [5.475707, 51.8157087], [5.4743272, 51.8146041], [5.4732963, 51.8139847], [5.4710029, 51.8128359], [5.4696968, 51.8123155], [5.4680718, 51.8118492]], [[5.6269604, 51.8192277], [5.6244573, 51.8190019], [5.6202291, 51.819414], [5.6175422, 51.8201332], [5.614887, 51.8213168], [5.6136974, 51.8218842], [5.6112269, 51.8230625], [5.6074081, 51.8248671], [5.6041923, 51.826057], [5.6015872, 51.8269475], [5.5981104, 51.8279686], [5.5976792, 51.8280845], [5.5962303, 51.8284646], [5.5947811, 51.8287907], [5.5933318, 51.8290899], [5.5918823, 51.8293531], [5.5904324, 51.8295264], [5.5892115, 51.8296042], [5.5889822, 51.8296188], [5.588161, 51.829609], [5.5860804, 51.8295428], [5.5846289, 51.8293565], [5.5831772, 51.8291073], [5.5817254, 51.828849], [5.5802737, 51.8286087], [5.5788219, 51.8283505], [5.5773703, 51.8281281], [5.5768731, 51.8280643], [5.5759189, 51.8279417], [5.573875, 51.827755], [5.5730167, 51.8277216]], [[5.689273, 51.7901113], [5.6838672, 51.7916698], [5.6776184, 51.7922627], [5.6759553, 51.7923533], [5.6755027, 51.7923779], [5.6739016, 51.792465], [5.6685535, 51.7928416], [5.6649006, 51.7937483], [5.6635277, 51.7944211], [5.6621566, 51.7950931], [5.659299, 51.7967102], [5.6553881, 51.7997868], [5.6540231, 51.8010607], [5.6529541, 51.8020909], [5.6514434, 51.8041411], [5.6486784, 51.8084266], [5.6477347, 51.810439], [5.6461346, 51.8138513], [5.6437752, 51.8165178], [5.6408843, 51.8181022], [5.634448, 51.8196172], [5.6308949, 51.8195519], [5.6295079, 51.8194576], [5.6269604, 51.8192277]], [[5.719877, 51.774956], [5.7153823, 51.7748571], [5.7109952, 51.7749484], [5.706094, 51.7762984], [5.7028351, 51.777699], [5.6998858, 51.7804817], [5.698007, 51.783305], [5.6977356, 51.7837128], [5.6967971, 51.785123], [5.6936168, 51.7877676], [5.689273, 51.7901113]], [[5.7281246, 51.773397], [5.7234643, 51.7746147], [5.7225441, 51.7747022], [5.719877, 51.774956]], [[5.8862945, 51.7267752], [5.8854952, 51.7277943], [5.8852147, 51.7286134], [5.8848423, 51.7302779], [5.8844855, 51.7320592], [5.8842172, 51.7339839], [5.8840656, 51.735998], [5.8837468, 51.7376913], [5.8831407, 51.7387794], [5.8821335, 51.7406712], [5.8817548, 51.7415703], [5.880469, 51.7446961], [5.8801917, 51.7462209], [5.8800207, 51.7474036], [5.8794568, 51.7488082], [5.8788495, 51.7496405], [5.8783581, 51.7503139], [5.8780467, 51.7506519], [5.877371, 51.7514326], [5.8760779, 51.7523818], [5.8744956, 51.7533771], [5.8736362, 51.7538645], [5.8724629, 51.7545339]], [[5.9583929, 51.6949405], [5.9579448, 51.6961112], [5.9574234, 51.6972014], [5.9568179, 51.6985077], [5.9563701, 51.6997054], [5.9562334, 51.7003442], [5.9561399, 51.7009559], [5.9561507, 51.7018188], [5.9562383, 51.7030318], [5.9562317, 51.7036521], [5.9562026, 51.704534]], [[5.4569129, 51.8101931], [5.4554062, 51.811037], [5.4542586, 51.8111437]], [[5.4542586, 51.8111437], [5.4538402, 51.8109808]], [[5.4523905, 51.8110019], [5.4493347, 51.8095944]], [[5.4537859, 51.8112275], [5.4535274, 51.8112115], [5.4532354, 51.8111918]], [[5.4538, 51.8111495], [5.4535418, 51.8111309], [5.4532541, 51.8111114]], [[5.4538187, 51.8110658], [5.4535542, 51.8110477], [5.4532729, 51.8110276]], [[5.4532729, 51.8110276], [5.4523905, 51.8110019]], [[5.4532541, 51.8111114], [5.4523905, 51.8110019]], [[5.4532354, 51.8111918], [5.4523905, 51.8110019]], [[5.4542586, 51.8111437], [5.4537859, 51.8112275]], [[5.4542586, 51.8111437], [5.4538, 51.8111495]], [[5.4542586, 51.8111437], [5.4538187, 51.8110658]], [[5.4532903, 51.8109439], [5.4523905, 51.8110019]], [[5.4538402, 51.8109808], [5.4535653, 51.8109621], [5.4532903, 51.8109439]]]}}, {"type": "Feature", "properties": {"name": "Waal"}, "geometry": {"type": "MultiLineString", "coordinates": [[[5.4606144, 51.8885572], [5.4591355, 51.8884207], [5.4571675, 51.8881519], [5.4565576, 51.8880451], [5.4544357, 51.8876164], [5.4527725, 51.8871791], [5.4524794, 51.8871021], [5.4506424, 51.8865132], [5.4490642, 51.8859417], [5.4476312, 51.8853693], [5.4458882, 51.8845864], [5.4434094, 51.8833067], [5.4410463, 51.8820822], [5.4405476, 51.8818168], [5.4391949, 51.88097], [5.438175, 51.8803258], [5.4359264, 51.8788355], [5.4353422, 51.8784303], [5.4346794, 51.8779211], [5.4328561, 51.8765205], [5.4315024, 51.8753577], [5.4310445, 51.8749626], [5.430197, 51.8741911], [5.4295641, 51.8735893], [5.4291276, 51.8731355], [5.4260876, 51.8700515], [5.424898, 51.8686017], [5.4242114, 51.8677885], [5.4233262, 51.8667401], [5.4230491, 51.8663487], [5.4202249, 51.8622898], [5.4195998, 51.8611362], [5.4187446, 51.8595921], [5.4183002, 51.8587691], [5.4174836, 51.8570012], [5.4167559, 51.8547849], [5.416082, 51.8532335], [5.4152963, 51.8518281], [5.4146828, 51.8509526], [5.4139844, 51.8497544], [5.4129665, 51.8483456], [5.4123759, 51.8476614], [5.4100661, 51.8450205], [5.4089341, 51.8437785], [5.4084244, 51.8433379], [5.4080656, 51.8430298], [5.4074488, 51.8425001], [5.4065751, 51.8418278], [5.4034645, 51.8395547], [5.4026583, 51.8389854], [5.4006502, 51.8377473], [5.3988258, 51.836782], [5.396302, 51.8354116], [5.3935573, 51.8339098], [5.3931257, 51.8336604], [5.3913864, 51.832504], [5.3890485, 51.8309111], [5.3882802, 51.8303485], [5.3873079, 51.8296365], [5.3854225, 51.828161], [5.3844324, 51.8272567], [5.3817528, 51.8246584], [5.379925, 51.8226885], [5.3788765, 51.8214756], [5.3771486, 51.8192349], [5.3763008, 51.8181031], [5.3748385, 51.8162674], [5.3743584, 51.8157022], [5.3741487, 51.8154687], [5.3736108, 51.8148697], [5.3724447, 51.8136147], [5.3716466, 51.8127696], [5.3704205, 51.8116696], [5.3692208, 51.8106807], [5.3681995, 51.8097789], [5.3680761, 51.809681], [5.3670759, 51.8088685], [5.36646, 51.8083982], [5.3659226, 51.8080227], [5.3655575, 51.8077777], [5.3648137, 51.807342], [5.3636579, 51.8067513], [5.3624413, 51.806226], [5.3615424, 51.805861], [5.3611055, 51.8057038], [5.360224, 51.8054145], [5.3575351, 51.804693], [5.3570116, 51.8045844], [5.3555775, 51.8043654], [5.3548426, 51.804277], [5.3540849, 51.8041903], [5.353049, 51.8040811], [5.3527962, 51.8040587], [5.3519378, 51.8039828], [5.3512767, 51.8039577], [5.3506841, 51.8039597], [5.3488884, 51.8040077], [5.3477592, 51.8041083], [5.3459381, 51.8043956], [5.3452782, 51.8045032], [5.3443993, 51.8046656], [5.3434949, 51.8048757], [5.3428332, 51.805055], [5.34193, 51.8053436], [5.3414246, 51.8055213], [5.3404916, 51.8059247], [5.3389856, 51.8065772], [5.3377876, 51.807281], [5.3369227, 51.8077481], [5.3341717, 51.8097902], [5.3334676, 51.8103925], [5.3331242, 51.8106685], [5.3320704, 51.8116673], [5.3314977, 51.8121928], [5.3309883, 51.8127192], [5.3305091, 51.813217], [5.3299633, 51.8137932], [5.329059, 51.8145693], [5.3284081, 51.8151263], [5.3271043, 51.8161884], [5.326484, 51.8166891], [5.3260907, 51.8169937], [5.3234753, 51.8186496], [5.3222022, 51.8193049], [5.3213486, 51.8197434], [5.3197961, 51.8205497], [5.3160379, 51.8218847], [5.3155943, 51.8220404], [5.3146647, 51.8222732], [5.3135267, 51.8226549], [5.3112969, 51.8231921], [5.3099409, 51.8233617], [5.3046295, 51.8240259], [5.3037094, 51.8240316], [5.3021907, 51.824048], [5.2978659, 51.8241184], [5.2959423, 51.823962], [5.2958152, 51.8239517], [5.292478, 51.8236821], [5.2905566, 51.8232657], [5.289445, 51.8230436], [5.2876551, 51.8226472], [5.2822291, 51.8213334], [5.2809588, 51.8211054], [5.2794449, 51.8208005], [5.2788497, 51.8206961], [5.2746906, 51.8200588], [5.2682717, 51.8190197]], [[4.6420478, 51.8536613], [4.6414373, 51.8531444], [4.6409553, 51.8526473], [4.6398952, 51.8517939], [4.6394433, 51.8515013], [4.6389632, 51.8510585], [4.6374833, 51.8499921], [4.6366664, 51.8495788], [4.6363093, 51.8495171], [4.636006, 51.8495412], [4.6353108, 51.8498794], [4.6347112, 51.850019], [4.6334077, 51.8499599], [4.6331924, 51.8500276], [4.6330156, 51.8501294], [4.6327125, 51.8503732], [4.6314594, 51.8513298], [4.6301324, 51.8530229], [4.6293677, 51.8536509], [4.6292228, 51.8537092], [4.6285183, 51.853993], [4.6279686, 51.8542144], [4.6266304, 51.854252], [4.6254392, 51.8540048], [4.6245274, 51.8537689], [4.6237012, 51.8534286], [4.6229285, 51.8530336], [4.62199, 51.8523841], [4.6205127, 51.8515629], [4.6184967, 51.8508382], [4.6164484, 51.8506639], [4.6137475, 51.8504294], [4.6123182, 51.8501297], [4.6092854, 51.8492225], [4.6075233, 51.8486598], [4.6070423, 51.8485439], [4.6063284, 51.8484889], [4.6048267, 51.8483627], [4.6040362, 51.8482536], [4.602457, 51.848415], [4.601288, 51.8487259], [4.5997971, 51.8484024], [4.59839, 51.8485238], [4.5978521, 51.8486688], [4.5974111, 51.8486621], [4.595424, 51.8495065], [4.5920349, 51.8510589], [4.5893584, 51.8519392], [4.5833624, 51.8536246], [4.5797822, 51.8548484], [4.5782461, 51.8552012], [4.576593, 51.8553637], [4.5751246, 51.8553146], [4.5736124, 51.8549987], [4.5716224, 51.8541667], [4.5711218, 51.8538119], [4.5707274, 51.8532167], [4.5710228, 51.8519446], [4.5722235, 51.8487716], [4.5719409, 51.8471318], [4.5709946, 51.8458639], [4.5700325, 51.8452298], [4.5699141, 51.8451311]], [[4.6031062, 51.8500898], [4.6029963, 51.8500491], [4.6021789, 51.8494426], [4.601288, 51.8487259]], [[4.6451439, 51.8550943], [4.64493, 51.8551054], [4.6447416, 51.8550479], [4.644071, 51.8546429], [4.64359, 51.8544383]], [[4.6545375, 51.8559128], [4.6526096, 51.8553477], [4.6520232, 51.8552014], [4.6512701, 51.8550545], [4.6506598, 51.8549555], [4.6500041, 51.8548756], [4.6490746, 51.8548323], [4.6486469, 51.8548358], [4.6479388, 51.8548624], [4.6475648, 51.8548987]], [[4.5696605, 51.8448974], [4.5696506, 51.8448885]], [[4.5693945, 51.8446496], [4.5690189, 51.84433], [4.5663813, 51.8414796], [4.5631834, 51.8396273], [4.5608551, 51.8382113], [4.5593426, 51.8369117], [4.5591481, 51.8365567]], [[4.5699141, 51.8451311], [4.5696605, 51.8448974]], [[4.5696506, 51.8448885], [4.5693945, 51.8446496]], [[4.5587777, 51.8359316], [4.5586963, 51.8357901], [4.5573403, 51.8340172]], [[4.5591481, 51.8365567], [4.5587777, 51.8359316]], [[4.4644543, 51.8838399], [4.4628309, 51.8840931], [4.4622137, 51.8841093], [4.4601184, 51.8846562]], [[5.8269492, 51.8657535], [5.8256485, 51.8663817], [5.8156468, 51.8704054], [5.8087, 51.8732], [5.8032312, 51.8745045], [5.7978, 51.8758], [5.7972, 51.8759], [5.7928, 51.8765], [5.7890893, 51.8768511], [5.7822, 51.8775], [5.7750594, 51.8784078], [5.7699, 51.8792], [5.7632, 51.8807], [5.7612288, 51.8811826], [5.7559, 51.8825], [5.7499, 51.8839], [5.7479607, 51.8841583], [5.7424, 51.8849], [5.737034, 51.8854118], [5.733951, 51.8857971], [5.73, 51.8864], [5.7213, 51.8885], [5.7202721, 51.8888804], [5.714, 51.8912], [5.7070833, 51.8931794], [5.7009, 51.8945], [5.6931757, 51.8953321], [5.6907, 51.8956], [5.684, 51.8957], [5.6806, 51.8956], [5.679154, 51.8955856], [5.6734838, 51.8955213], [5.6720509, 51.8955291], [5.666, 51.8958], [5.6645671, 51.8959194], [5.66, 51.8963], [5.6541, 51.8969], [5.650716, 51.8973784], [5.6449, 51.8982], [5.6415, 51.8986], [5.6402, 51.8987], [5.6361527, 51.898964], [5.6329039, 51.8991759], [5.631, 51.8993], [5.6267, 51.8994], [5.6215991, 51.8993528], [5.6159, 51.8993], [5.6122, 51.8992], [5.6070151, 51.8991226], [5.6055, 51.8991], [5.6022487, 51.8991723], [5.5977508, 51.8992722], [5.5965, 51.8993], [5.592384, 51.8995116], [5.5907, 51.8996], [5.5887, 51.8998], [5.5854, 51.9002], [5.5782297, 51.901352], [5.5773, 51.9015], [5.5746, 51.9017], [5.5681, 51.9019], [5.5649, 51.9018], [5.5635932, 51.9016593], [5.5584, 51.9011], [5.553, 51.9005], [5.5494448, 51.8999075], [5.547, 51.8995], [5.5418, 51.8982], [5.5413616, 51.8980709], [5.5388153, 51.8972116], [5.5345071, 51.8957148], [5.5327269, 51.8951046], [5.5306989, 51.8943956], [5.5291255, 51.8939072], [5.526705, 51.8932313], [5.5244195, 51.8926206], [5.5236709, 51.8924243], [5.5235564, 51.892395], [5.5230682, 51.892285], [5.5220488, 51.8920449], [5.5213182, 51.8918757], [5.5195026, 51.8914604], [5.5168828, 51.8909572], [5.5165036, 51.8908782], [5.5159346, 51.890763], [5.5139416, 51.8904547], [5.5111674, 51.8900416], [5.5092894, 51.8898064], [5.509057, 51.8897773], [5.5076935, 51.8896097], [5.5043432, 51.889306], [5.5034437, 51.8892397], [5.5019697, 51.8891195], [5.501133, 51.8890756], [5.5009112, 51.8890739], [5.5002944, 51.8890598], [5.4996798, 51.889024], [5.4988223, 51.8889882], [5.4980643, 51.8889708], [5.4971065, 51.8889586], [5.4965939, 51.888955], [5.4956555, 51.8889575], [5.4948669, 51.8889596], [5.4937643, 51.8889763], [5.4903649, 51.8891143], [5.4886748, 51.8892333], [5.4877477, 51.8892842], [5.486713, 51.8893347], [5.4844128, 51.8894375], [5.4821188, 51.8895013], [5.4802267, 51.8895163], [5.4786542, 51.8895254], [5.4774563, 51.889549], [5.4761695, 51.8895572], [5.4740713, 51.8895389], [5.4731534, 51.8895134], [5.4721659, 51.8894786], [5.4698857, 51.8893561], [5.4675445, 51.8892045], [5.4663711, 51.889121], [5.4639232, 51.8889383], [5.4627215, 51.8888114], [5.4606144, 51.8885572]], [[6.0441728, 51.8714557], [6.0411, 51.8715], [6.0385662, 51.8719708], [6.036242, 51.8725234], [6.031875, 51.8745916], [6.0284794, 51.8762778], [6.0221103, 51.8796963], [6.0201346, 51.8803405], [6.0152051, 51.8819445], [6.0090492, 51.8821587], [6.0067612, 51.8817905], [6.0025187, 51.880981], [5.9964699, 51.8775552], [5.9951927, 51.8765511], [5.9887082, 51.8714528], [5.9873702, 51.8695988], [5.9849611, 51.8662605], [5.9823387, 51.8619452], [5.9807323, 51.8593017], [5.9758612, 51.8559294], [5.9733032, 51.8552326], [5.968153, 51.8537882], [5.9624789, 51.8543235], [5.9593343, 51.8554749], [5.9533254, 51.8583382], [5.9498353, 51.8614718], [5.9450284, 51.8657787], [5.9417044, 51.868124], [5.9364217, 51.8717516], [5.9330314, 51.8728694], [5.9288282, 51.8737492], [5.9192246, 51.8739747], [5.9137674, 51.8739687], [5.9049641, 51.872651], [5.9022567, 51.8721603], [5.8951488, 51.8702075], [5.8923862, 51.868641], [5.8858252, 51.8642264], [5.8837003, 51.8618434], [5.883538, 51.8616614], [5.8797109, 51.8573692], [5.8767488, 51.8540469], [5.8759478, 51.8534247], [5.8738748, 51.8523665]], [[5.2476831, 51.8172544], [5.2459793, 51.8169837], [5.2451634, 51.8168199], [5.2439604, 51.8165745], [5.2430293, 51.8163736], [5.2406485, 51.8158601], [5.2401206, 51.8157358], [5.2387259, 51.8154073], [5.2369084, 51.8148999], [5.2344184, 51.814202], [5.2324801, 51.8136897], [5.2312667, 51.8133641], [5.2290742, 51.8127555], [5.2281073, 51.81246], [5.2276201, 51.8123107], [5.2259837, 51.8119864], [5.2206187, 51.8109027], [5.2198015, 51.8107946], [5.2184042, 51.8105896], [5.2142261, 51.8101272], [5.2138068, 51.8100808], [5.2101388, 51.8099135], [5.2068182, 51.8099264], [5.2033951, 51.8101458], [5.2001854, 51.8105121], [5.1998988, 51.8105448], [5.1964013, 51.8112223], [5.194615, 51.8115932], [5.1934251, 51.811946], [5.1930488, 51.8120442], [5.1906671, 51.8126689], [5.1876463, 51.8135021], [5.1851933, 51.8141787], [5.1824344, 51.8149379], [5.1801842, 51.8154553], [5.1771939, 51.8160612], [5.1750017, 51.8165606], [5.1740788, 51.8167192], [5.1735276, 51.8168124], [5.1723044, 51.8168998], [5.170501, 51.8170127], [5.1697074, 51.8170134], [5.1694024, 51.8170073], [5.1691324, 51.8169949], [5.1687325, 51.816998], [5.1680475, 51.8169836], [5.1639639, 51.8168098], [5.1598295, 51.8165027], [5.1592849, 51.8164623], [5.1519861, 51.8155099], [5.1480919, 51.8149305], [5.1453665, 51.8145075], [5.1442534, 51.8143348], [5.1425143, 51.8141334], [5.1413398, 51.814095], [5.1412237, 51.8141218], [5.1408903, 51.8140941], [5.1402377, 51.8140837], [5.1393526, 51.8141717], [5.1373797, 51.8142934], [5.1331423, 51.8147877], [5.1308959, 51.8150405], [5.1287166, 51.8152364], [5.1274684, 51.8154044], [5.1267424, 51.8155646], [5.1260018, 51.8157338], [5.1235189, 51.8162405], [5.1226328, 51.8164902], [5.1201041, 51.8173654], [5.1194794, 51.8175527], [5.1180973, 51.8179536], [5.1168352, 51.8183196], [5.1150327, 51.8189986], [5.1146546, 51.8191595], [5.1131865, 51.8197044], [5.1107582, 51.8207054], [5.1085484, 51.8215451], [5.1065277, 51.8222773], [5.1061246, 51.8224097], [5.1042603, 51.8230359], [5.101368, 51.8239457], [5.0994352, 51.8245252], [5.0990445, 51.824674], [5.0971377, 51.8254004], [5.0955254, 51.825738], [5.0946785, 51.8258856], [5.092941, 51.8262195], [5.0925866, 51.8262637], [5.0905617, 51.8265181], [5.0902879, 51.8265582], [5.0894506, 51.826625], [5.088311, 51.8267157], [5.0873684, 51.8267657], [5.0866655, 51.8267688], [5.0864261, 51.8267789], [5.0861013, 51.8267728], [5.0852337, 51.8267996], [5.0842907, 51.8268241], [5.0837107, 51.8267777], [5.081517, 51.8266954], [5.0804338, 51.8265714], [5.0797379, 51.8265157], [5.0782451, 51.826323], [5.077796, 51.8262319], [5.0769985, 51.8261849], [5.0765639, 51.8261028], [5.0762019, 51.826003], [5.0749845, 51.825847], [5.0741441, 51.8257189], [5.0739414, 51.8256644], [5.073681, 51.8255559], [5.0733334, 51.825492], [5.0725658, 51.8253102], [5.0720294, 51.8252638], [5.0718272, 51.8251374], [5.0715813, 51.8250379], [5.0710166, 51.8249016], [5.0705392, 51.8247205], [5.069656, 51.8244934], [5.0679332, 51.8240213], [5.0672337, 51.8238179], [5.0659502, 51.8234317], [5.0651829, 51.8232139], [5.0642853, 51.8229867], [5.0609712, 51.8219439], [5.0587723, 51.8211467], [5.0574135, 51.8205227], [5.0567482, 51.8202602], [5.0558714, 51.8199771], [5.0510329, 51.8184193], [5.0467155, 51.8178046], [5.0411286, 51.8173877], [5.0387858, 51.8173499], [5.0329654, 51.8179437], [5.0263352, 51.8187806], [5.0258364, 51.8188545], [5.0249804, 51.818971], [5.0224245, 51.8193766], [5.0211033, 51.8195432], [5.0183153, 51.819948], [5.0142791, 51.8204386], [5.0131552, 51.8205465], [5.0109991, 51.8206888], [5.0091129, 51.8207726], [5.0049491, 51.8208939], [5.0021879, 51.820922]], [[5.2682717, 51.8190197], [5.2613844, 51.8188017], [5.2600397, 51.8187131], [5.2536604, 51.8180513], [5.2476831, 51.8172544]], [[5.2682717, 51.8190197], [5.2615446, 51.8178568], [5.260182, 51.8177548], [5.2476831, 51.8172544]], [[4.5573403, 51.8340172], [4.5571548, 51.8337638]], [[4.5559027, 51.8323631], [4.5554663, 51.8319196]], [[4.5571548, 51.8337638], [4.5566741, 51.8331418], [4.5559027, 51.8323631]], [[4.5554663, 51.8319196], [4.5547959, 51.8313057], [4.5534079, 51.8301053]], [[4.64359, 51.8544383], [4.6420478, 51.8536613]], [[4.6462922, 51.8550224], [4.6475648, 51.8548987]], [[5.8715694, 51.8515368], [5.8710093, 51.8514132], [5.863858, 51.8514842], [5.8601312, 51.8516471], [5.8567522, 51.8523371], [5.8547451, 51.8527563], [5.8521019, 51.8533065], [5.8502677, 51.8541471], [5.841308, 51.8582665], [5.8387572, 51.8597608], [5.8341433, 51.8621784], [5.8311668, 51.8637379], [5.8277455, 51.8653755], [5.8269492, 51.8657535]], [[5.8738748, 51.8523665], [5.8727671, 51.8518011], [5.8715694, 51.8515368]]]}}, {"type": "Feature", "properties": {"name": "IJssel"}, "geometry": {"type": "MultiLineString", "coordinates": [[[6.1915089, 52.1679582], [6.1925316, 52.1691602], [6.1929759, 52.1698985], [6.1934313, 52.1708302], [6.1940301, 52.172417], [6.1942588, 52.1737457], [6.1942624, 52.1747524], [6.1941407, 52.1751985], [6.1940264, 52.1754461], [6.1934896, 52.1764834], [6.1928459, 52.1772698], [6.191853, 52.1781484], [6.1914192, 52.178421], [6.191377, 52.1785112], [6.1901313, 52.1791578], [6.1889126, 52.1796875], [6.1882291, 52.1798898], [6.187457, 52.1800479], [6.1837224, 52.1806327], [6.1830397, 52.1807788], [6.1823558, 52.1809632], [6.1817021, 52.1812013], [6.1805848, 52.1816852], [6.1795996, 52.1821952], [6.1780971, 52.1832209], [6.1733576, 52.1867035], [6.1729148, 52.1870306], [6.171501, 52.1881276], [6.170836, 52.1885634], [6.1692832, 52.1892479], [6.1683772, 52.189444], [6.1676516, 52.1896092], [6.1663822, 52.1897794], [6.1650567, 52.1897914], [6.1633519, 52.1896016], [6.1622369, 52.1894022], [6.1614224, 52.1894108], [6.1604989, 52.189596], [6.1593939, 52.1899062], [6.1587545, 52.1902436], [6.1586693, 52.1902885], [6.1578194, 52.19104], [6.1572905, 52.1917446], [6.156674, 52.1926675], [6.1562364, 52.1937566], [6.1561504, 52.1960214], [6.1566166, 52.1974191], [6.1569913, 52.1981433], [6.1574462, 52.19906], [6.1581737, 52.1996844], [6.1589894, 52.2001704], [6.1608752, 52.2010506], [6.1626636, 52.2013178], [6.1635091, 52.2013575], [6.1649458, 52.2013469], [6.1674394, 52.2010547], [6.169578, 52.2010475], [6.1715108, 52.2011515], [6.1724931, 52.2012798], [6.1741388, 52.2016913], [6.1772627, 52.2029737], [6.1788804, 52.2034482], [6.181421, 52.203831], [6.1823849, 52.2040028], [6.1842331, 52.2044154], [6.1855345, 52.2049673], [6.1872361, 52.2060475], [6.1883474, 52.2068178], [6.1893577, 52.2077234], [6.1898951, 52.208348], [6.1902222, 52.2089795], [6.190663, 52.2099266], [6.190831, 52.2103752], [6.1909141, 52.2107057], [6.1909485, 52.2108426], [6.1911568, 52.2117063], [6.1910815, 52.2132078], [6.1909078, 52.2141258], [6.1906602, 52.2149994], [6.19008, 52.2162011], [6.1897409, 52.2167673], [6.1890802, 52.2174549], [6.1882353, 52.2181696], [6.1877238, 52.2185247], [6.185449, 52.2197895], [6.1835788, 52.2207295], [6.1830926, 52.2210655], [6.1824753, 52.2215845], [6.1815816, 52.2225445], [6.1805031, 52.2234085], [6.1792612, 52.2240466], [6.177933, 52.224472], [6.1751294, 52.2254495], [6.1739241, 52.2259878], [6.1735185, 52.2262242], [6.1730652, 52.2265031], [6.1723047, 52.2271554], [6.1711491, 52.2283862], [6.1697851, 52.2294937], [6.1674051, 52.2305564], [6.1663478, 52.2310285], [6.1658285, 52.2312608], [6.1637565, 52.2323692], [6.1626037, 52.2331726], [6.1614972, 52.2345095], [6.1609024, 52.2359428], [6.1607506, 52.2368176], [6.1609748, 52.2380531], [6.1617703, 52.2397769], [6.1628773, 52.2413185], [6.1637681, 52.2427932], [6.1641073, 52.2434382], [6.1642428, 52.2445257], [6.1641632, 52.2451806], [6.163912, 52.2457243], [6.1635822, 52.2462044], [6.163071, 52.246754], [6.1624114, 52.2473215], [6.1616207, 52.2477901], [6.159932, 52.2485693], [6.158417, 52.2490562], [6.1580293, 52.2491994], [6.1545204, 52.2500834], [6.1532081, 52.2506738], [6.1524688, 52.2511962], [6.1521097, 52.251439], [6.1516379, 52.251817], [6.1504179, 52.2527961], [6.1486904, 52.2540082], [6.1472437, 52.2547701], [6.1459536, 52.2554495], [6.1435461, 52.256552], [6.1406303, 52.2577138], [6.1379764, 52.2585922], [6.135129, 52.2594526], [6.132493, 52.260052], [6.1300869, 52.2607167], [6.1277445, 52.2615393], [6.1267898, 52.262023], [6.1252848, 52.2630174], [6.1244433, 52.2638206], [6.1239844, 52.2644587], [6.123465, 52.2655468], [6.123266, 52.267953], [6.1230009, 52.2692819], [6.1227799, 52.26976], [6.1226336, 52.2700895], [6.1222368, 52.2707584], [6.1216889, 52.2714667], [6.1211134, 52.272044], [6.1182635, 52.2740767], [6.115749, 52.2754892], [6.1154958, 52.2756314], [6.1140249, 52.2765911], [6.113864, 52.276731], [6.1131822, 52.2773235], [6.1123687, 52.2783234], [6.1116914, 52.2795097], [6.1112711, 52.280739], [6.1112562, 52.2819772], [6.1116364, 52.2852857], [6.1116826, 52.2861135], [6.111619, 52.2869273], [6.1113966, 52.2876054], [6.1110993, 52.2881923], [6.1107437, 52.2887554], [6.1102533, 52.2893186], [6.1096407, 52.2898493], [6.1091921, 52.2901953], [6.1087115, 52.2905445], [6.1071037, 52.2916449], [6.1066668, 52.2920064], [6.1060961, 52.2926414], [6.1053452, 52.2939401], [6.1051067, 52.2948133], [6.1049021, 52.2958583], [6.104823, 52.2962623], [6.1047002, 52.296698], [6.1044318, 52.2972918], [6.1041468, 52.2977902], [6.1034104, 52.2985644], [6.1025134, 52.2993595], [6.1021944, 52.2997112], [6.1020486, 52.2999505], [6.1016824, 52.3005515], [6.1014954, 52.3010354], [6.101214, 52.302105], [6.1011355, 52.3030435], [6.1011258, 52.303577], [6.1012448, 52.3044805], [6.1014769, 52.3053695], [6.1017315, 52.306051], [6.1020207, 52.3066699], [6.1026539, 52.3080078], [6.1028439, 52.3085591], [6.1029888, 52.3091973], [6.1030393, 52.3099384], [6.1029544, 52.3105403], [6.102854, 52.3108761], [6.1026826, 52.3113805], [6.1021983, 52.3123045], [6.1018106, 52.3127065], [6.1007497, 52.3135842], [6.0998146, 52.3142329], [6.0986642, 52.3149475], [6.0964395, 52.3161402], [6.0950325, 52.3172223], [6.0941095, 52.3180739], [6.0927211, 52.3200199], [6.0924461, 52.3209764], [6.0924123, 52.3213583], [6.0924128, 52.3217208], [6.0924411, 52.3221479], [6.0925375, 52.3225311], [6.0931049, 52.3236705], [6.0936363, 52.3246082], [6.093981, 52.325629], [6.0941366, 52.3266909], [6.0941253, 52.3277741], [6.093882, 52.3291299], [6.0938141, 52.3293849], [6.0937351, 52.3300462], [6.0936147, 52.3321114], [6.0937523, 52.3329699], [6.0940154, 52.3339193], [6.094291, 52.3345833], [6.0945034, 52.3349815], [6.0949255, 52.3356511], [6.0951565, 52.3360095], [6.0956034, 52.3364998], [6.0961311, 52.3370474], [6.0983987, 52.3385408], [6.0995888, 52.339201], [6.1006378, 52.339777], [6.1023404, 52.3408315], [6.1026983, 52.3410954], [6.1032405, 52.3415036], [6.1039288, 52.3422004], [6.1045423, 52.3431498], [6.1045721, 52.3435199], [6.1047079, 52.3440336], [6.1047233, 52.3443257], [6.1047846, 52.3449329], [6.1047981, 52.3452278], [6.1047711, 52.3458556], [6.1041465, 52.3469676], [6.103623, 52.3478246], [6.1024838, 52.3488385], [6.1012646, 52.3497971], [6.0995404, 52.3510287], [6.0981058, 52.3523578], [6.0962587, 52.3545877], [6.0958569, 52.3552326], [6.0946503, 52.3571637], [6.0942728, 52.3577193], [6.0940417, 52.3580793], [6.0934933, 52.3586731], [6.093092, 52.3590107], [6.09249, 52.3594619], [6.0918736, 52.3598404], [6.0906838, 52.3604452], [6.0892268, 52.3609581], [6.0877651, 52.3612696], [6.0858749, 52.3615028], [6.0828182, 52.3616799], [6.082054, 52.361794], [6.0810727, 52.3619715], [6.080115, 52.3623123], [6.0791939, 52.3626495], [6.0781358, 52.363556], [6.0777444, 52.3643739], [6.0775956, 52.3650091], [6.0773859, 52.3657833], [6.0775338, 52.3670785], [6.0778179, 52.3683468], [6.078152, 52.3690558], [6.0784349, 52.3694745], [6.0788586, 52.3699693], [6.0793394, 52.3704375], [6.0805877, 52.3712948], [6.0811518, 52.3715854], [6.0824135, 52.3720786], [6.0828297, 52.3722128], [6.0841192, 52.3725027], [6.0859455, 52.3727517], [6.0881037, 52.3729106], [6.0902129, 52.3730603], [6.0933112, 52.3734682], [6.0952407, 52.3738183], [6.0986905, 52.3745207], [6.1021482, 52.3753692], [6.10519, 52.3758943], [6.1064485, 52.3761116], [6.1104411, 52.3767155], [6.1133205, 52.3772183], [6.1150255, 52.3775727], [6.1174739, 52.3781199], [6.1185056, 52.3783884], [6.1197444, 52.3788646], [6.1209214, 52.3794683], [6.1221774, 52.3802189], [6.1228786, 52.3807017], [6.1234834, 52.3812129], [6.1245353, 52.3822013], [6.1248786, 52.3826153], [6.1252421, 52.3831029], [6.1257915, 52.384072], [6.1261007, 52.3850857], [6.1261553, 52.3855385], [6.1261497, 52.3864416], [6.1260035, 52.3873593], [6.1251364, 52.3909553], [6.1250821, 52.3919255], [6.1251236, 52.3923659], [6.1251689, 52.3926404], [6.1256663, 52.3937482], [6.1261414, 52.3944222], [6.1264592, 52.3949042], [6.1268384, 52.395352], [6.1277609, 52.3962107], [6.1286928, 52.397028], [6.1296724, 52.3979903], [6.1301482, 52.3987777], [6.130451, 52.399534], [6.1305161, 52.3997033], [6.1306568, 52.4000669], [6.130828, 52.4009265], [6.131068, 52.4025146], [6.1311376, 52.4033286], [6.1312966, 52.4041084], [6.1316242, 52.40507], [6.1323028, 52.4066273], [6.1332343, 52.4082797], [6.1337689, 52.4091786], [6.1342914, 52.410054], [6.1348104, 52.4111688], [6.1350926, 52.4120091], [6.1351784, 52.412763], [6.1351141, 52.4135451], [6.1349985, 52.4141175], [6.1341014, 52.4163769], [6.1330633, 52.4179585], [6.1324417, 52.4188831], [6.1321711, 52.419326], [6.1319187, 52.4197192], [6.1309589, 52.4213855], [6.1303223, 52.4226598], [6.1301349, 52.4230242], [6.1294625, 52.4243718], [6.1283722, 52.4256086], [6.1279574, 52.4260461], [6.1269282, 52.4269175], [6.1258605, 52.4277725], [6.1247464, 52.4286377], [6.1220611, 52.4306486], [6.1209138, 52.4316595], [6.1199376, 52.4325155], [6.1193141, 52.4330548], [6.1171596, 52.435035], [6.1145356, 52.4375674], [6.113818, 52.438152], [6.1126618, 52.4389613], [6.1111543, 52.4398175], [6.1096027, 52.4405608], [6.1071428, 52.4414744], [6.1051796, 52.4423027], [6.1044147, 52.4428626], [6.1036499, 52.4435144], [6.1032109, 52.4439844], [6.102637, 52.444646], [6.1022638, 52.445314], [6.1019352, 52.4460833], [6.101814, 52.4467664], [6.1018296, 52.4474654], [6.1019739, 52.4480909], [6.1021463, 52.4486796], [6.1024879, 52.4494159], [6.103134, 52.4508911], [6.10362, 52.4528254], [6.1037287, 52.4540809], [6.1037066, 52.4553111], [6.1035343, 52.4565041], [6.1030738, 52.4581734], [6.1026608, 52.4591668], [6.1021012, 52.4605916], [6.1019574, 52.4613952], [6.1018294, 52.4623516], [6.1018985, 52.4653581], [6.101819, 52.4665026], [6.1017131, 52.4669254], [6.1013782, 52.4676961], [6.1009544, 52.4683607], [6.1004369, 52.4690667], [6.0999519, 52.4696739], [6.09902, 52.470639], [6.098396, 52.471191], [6.0955465, 52.4733831], [6.0939637, 52.4744984], [6.0896245, 52.4767528], [6.0875914, 52.4775647], [6.0845122, 52.4784729], [6.080667, 52.479244], [6.0776963, 52.4799034], [6.0757153, 52.480325], [6.0739011, 52.480901], [6.0713917, 52.4820009], [6.069941, 52.4827451], [6.068332, 52.4836932], [6.0666238, 52.484822], [6.065472, 52.4857919], [6.0641592, 52.4872547], [6.0635805, 52.4879231], [6.062744, 52.4890603], [6.0620762, 52.4899732], [6.0611691, 52.4913955], [6.0610203, 52.4916985], [6.0598893, 52.4940017], [6.058608, 52.4959233], [6.0577761, 52.4969841], [6.057539, 52.4972865], [6.0566271, 52.4983608], [6.0562504, 52.4987066], [6.0550268, 52.499568], [6.0543749, 52.4999523], [6.0491435, 52.5024092], [6.0462355, 52.5037864], [6.0431924, 52.5051871], [6.0381202, 52.5070895], [6.0299319, 52.5091729], [6.0278557, 52.5096409], [6.0275764, 52.5097039], [6.0234189, 52.5113015], [6.0210599, 52.5124395], [6.0192516, 52.5133902], [6.0176977, 52.5144606], [6.0162144, 52.515684], [6.0151413, 52.5169993], [6.0146053, 52.5180892], [6.0144536, 52.5192715], [6.0144696, 52.5202335], [6.0146107, 52.5210125], [6.0150639, 52.5224415], [6.0153108, 52.52297], [6.0163112, 52.5241983], [6.0174552, 52.5251554], [6.0188336, 52.5261166], [6.0196228, 52.5267164], [6.0201145, 52.5273263], [6.0202986, 52.5279748], [6.0203386, 52.5285461], [6.0202618, 52.5292117], [6.0198796, 52.5298911], [6.0194353, 52.5303794], [6.0185281, 52.5309715], [6.0178286, 52.5313712], [6.0166546, 52.5317684], [6.0160756, 52.5319096], [6.0153118, 52.5320036], [6.0134675, 52.5321983], [6.0101159, 52.5322554], [6.0077328, 52.5321523], [6.005428, 52.5319061], [6.001998, 52.5313352], [5.9996289, 52.5306283], [5.9964185, 52.5291689], [5.9924905, 52.5266755], [5.9907617, 52.5255226], [5.988174, 52.523811], [5.9864272, 52.5230682], [5.9830798, 52.5222587], [5.9805798, 52.5217488], [5.9785908, 52.521047], [5.9768995, 52.5200824], [5.9753159, 52.5188431], [5.9738134, 52.5177391], [5.9717995, 52.5167263], [5.9695711, 52.516233], [5.9681926, 52.5161064], [5.9668123, 52.5161255], [5.9651893, 52.5163544], [5.9634315, 52.5168089], [5.9613697, 52.517979], [5.9597488, 52.5193666], [5.9588579, 52.5204007], [5.9582684, 52.5213683], [5.9578321, 52.5225117], [5.9576036, 52.523517], [5.9580485, 52.5262874], [5.958064, 52.5269582], [5.9581038, 52.5286865], [5.9575954, 52.5305703], [5.957162, 52.5314798], [5.9568134, 52.5323176], [5.9562701, 52.5331163], [5.9555986, 52.5339379], [5.9545375, 52.5347711], [5.95255, 52.5360309], [5.9502441, 52.5370164], [5.9425858, 52.5392164], [5.9359177, 52.5402091], [5.9337431, 52.5410828], [5.9322084, 52.5420013], [5.9311915, 52.5427201], [5.9303586, 52.5435152], [5.9296937, 52.544363], [5.9292046, 52.5452539], [5.9283982, 52.5473564], [5.9271809, 52.5509546], [5.9264489, 52.5525375], [5.9255984, 52.5540119], [5.9238812, 52.5559112], [5.9204877, 52.5585659]], [[5.9534701, 51.9500636], [5.9514929, 51.9522059], [5.9508331, 51.9529552], [5.9502063, 51.9540098], [5.9499633, 51.9546522], [5.9495087, 51.9563861], [5.9494348, 51.957456], [5.9496, 51.9590282], [5.9498014, 51.960007], [5.9500284, 51.960707], [5.9505064, 51.9616934], [5.9513234, 51.9630288], [5.9516099, 51.9634154], [5.9517823, 51.9636468], [5.9534202, 51.9654546], [5.9538461, 51.9657671], [5.9547146, 51.9665539], [5.9557129, 51.9672502], [5.956022, 51.9675273], [5.9587644, 51.9691948], [5.9592206, 51.9694283], [5.9594563, 51.9695489], [5.960156, 51.9699071], [5.9609204, 51.9702197], [5.9625685, 51.9707942], [5.9643067, 51.971289], [5.9664378, 51.9717819], [5.9683338, 51.9720961], [5.9717717, 51.9723577], [5.9742346, 51.9726151], [5.9747668, 51.9727214], [5.97654, 51.973071], [5.9771008, 51.973194], [5.9784539, 51.9735148], [5.9804884, 51.9738581], [5.9821257, 51.9739751], [5.9836324, 51.9740573], [5.9853577, 51.9740691], [5.9883147, 51.9742158], [5.9888652, 51.9742904], [5.9899768, 51.974441], [5.9915633, 51.9747463], [5.9928344, 51.9751083], [5.9941017, 51.9755259], [5.9951443, 51.9758694], [5.9968412, 51.9764988], [5.997796, 51.9769165], [5.9988919, 51.9774589], [5.99995, 51.9781994], [6.0006877, 51.9789236], [6.0009153, 51.9792023], [6.001265, 51.9796307], [6.0019077, 51.9804704], [6.0025312, 51.9815313], [6.0031373, 51.9826797], [6.0039294, 51.9839931], [6.0044853, 51.9852486], [6.0047895, 51.9861907], [6.0051033, 51.9877391], [6.00547, 51.9890904], [6.0060123, 51.9904089], [6.0065204, 51.991359], [6.0072022, 51.9922272], [6.0086012, 51.993559], [6.0087514, 51.993702], [6.0100013, 51.9945853], [6.0108676, 51.995102], [6.0117058, 51.9955255], [6.0119526, 51.9956446], [6.0132712, 51.9962218], [6.014486, 51.9966647], [6.015849, 51.9970124], [6.0166955, 51.9971517], [6.017818, 51.9972446], [6.0193612, 51.9972183], [6.0208296, 51.9970576], [6.0242974, 51.996185], [6.0251887, 51.9960582], [6.0259395, 51.9959514], [6.0269294, 51.995937], [6.0290137, 51.9960784], [6.030371, 51.9962957], [6.0319201, 51.9966917], [6.0330477, 51.997135], [6.033737, 51.9974728], [6.0360859, 51.9987901], [6.036922, 51.9992079], [6.0377879, 51.9995954], [6.0382118, 51.9997851], [6.0398368, 52.0003693], [6.0409795, 52.0008393], [6.0420357, 52.0013638], [6.0425505, 52.0017115], [6.0432286, 52.0022739], [6.0440263, 52.0030425], [6.0447102, 52.0040004], [6.0448449, 52.0042424], [6.0451812, 52.0053281], [6.0453022, 52.006174], [6.045311, 52.0062352], [6.0454416, 52.0066995], [6.0454801, 52.0068365], [6.0457219, 52.0074373], [6.0459154, 52.0077149], [6.0464047, 52.0083054], [6.0473066, 52.0092172], [6.0483371, 52.0099575], [6.0490419, 52.01034], [6.0536576, 52.0121926], [6.0552926, 52.0129931], [6.0575609, 52.0141029], [6.0590982, 52.0146244], [6.0607779, 52.0149204], [6.0622511, 52.0150468], [6.0639122, 52.0150732], [6.0643991, 52.0150538], [6.0661129, 52.0147318], [6.0673096, 52.0144258], [6.0681418, 52.0141516], [6.0685577, 52.0140042], [6.068728, 52.0139433], [6.0698629, 52.0134354], [6.0705799, 52.0131146], [6.072491, 52.0123484], [6.0742882, 52.0117627], [6.0752429, 52.0113257], [6.0759362, 52.0109441], [6.0765273, 52.0105451], [6.0771884, 52.0099659], [6.0780774, 52.0090529], [6.078657, 52.0079098], [6.0788288, 52.0067744], [6.0787939, 52.0064061], [6.0785344, 52.0056346], [6.0777954, 52.0039851], [6.0775076, 52.0028743], [6.0775368, 52.0023237], [6.0778829, 52.0011622], [6.0789144, 52.0000595], [6.0795954, 51.9995073], [6.0809137, 51.9984478], [6.0811717, 51.9981856], [6.0814066, 51.9979262], [6.0816299, 51.9976796], [6.082231, 51.9968961], [6.0830429, 51.9958377], [6.0837468, 51.9952223], [6.0844525, 51.9947237], [6.0856365, 51.9940785], [6.0869094, 51.9935407], [6.0877061, 51.9932753], [6.0882505, 51.9931416], [6.0898855, 51.9929198], [6.0911529, 51.9928261], [6.0935057, 51.9927954], [6.0951062, 51.9929705], [6.0981005, 51.9934196], [6.1011868, 51.9940697], [6.1023064, 51.9942967], [6.1068732, 51.9953153], [6.1084938, 51.9959742], [6.1092836, 51.9963225], [6.1095474, 51.9964287], [6.110978, 51.9975525], [6.1124743, 51.9991342], [6.1128806, 51.9997014], [6.113053, 52.0000615], [6.11344, 52.0012136], [6.1134441, 52.0014652], [6.1139584, 52.0026485], [6.1147022, 52.0036147], [6.1153235, 52.0042041], [6.116723, 52.0051841], [6.1174719, 52.005557], [6.1188053, 52.0060521], [6.1209718, 52.0067049], [6.1224099, 52.0073779], [6.1241319, 52.0084637], [6.1252682, 52.0093644], [6.1265492, 52.0110821], [6.1269546, 52.0118166], [6.1273486, 52.01274], [6.1274656, 52.0136471], [6.1274655, 52.0144701], [6.1274654, 52.0153998], [6.1276761, 52.0166928], [6.1278573, 52.0170782], [6.1287982, 52.0184745], [6.1296794, 52.019349], [6.130065, 52.019802], [6.1310836, 52.0209948], [6.1314882, 52.0216664], [6.1319125, 52.0226524], [6.1322628, 52.0244389], [6.1321553, 52.0258596], [6.1319787, 52.0266338], [6.1316007, 52.027562], [6.131082, 52.0284327], [6.1304666, 52.0294657], [6.1297091, 52.0303603], [6.1278695, 52.0319089], [6.1255881, 52.0331906], [6.1246944, 52.0335735], [6.1237358, 52.0339842], [6.1232111, 52.0341196], [6.1211369, 52.0346548], [6.1178419, 52.0355145], [6.1150991, 52.0364693], [6.1130671, 52.0379483], [6.1116615, 52.0394431], [6.110969, 52.040634], [6.1108209, 52.041571], [6.110784, 52.0418045], [6.111278, 52.0439791], [6.1121601, 52.0455934], [6.113564, 52.0472529], [6.1159144, 52.0488785], [6.1172087, 52.0497341], [6.1199828, 52.0513466], [6.1231519, 52.0526427], [6.127309, 52.0537969], [6.1318878, 52.0555429], [6.1322613, 52.0557273], [6.1338204, 52.0565577], [6.1353466, 52.0575188], [6.1386804, 52.0604496], [6.1387441, 52.0605021], [6.1402859, 52.0617722], [6.1415197, 52.0623968], [6.1419154, 52.0625758], [6.1451883, 52.0635676], [6.1468023, 52.0641865], [6.1482081, 52.0649505], [6.1497045, 52.066274], [6.1510963, 52.0676776], [6.1517712, 52.0681253], [6.154372, 52.0693909], [6.1572106, 52.0708783], [6.1601512, 52.0730569], [6.1624364, 52.0739956], [6.1625769, 52.0740381], [6.1662716, 52.0751563], [6.169322, 52.0770647], [6.1707996, 52.0791658], [6.1713104, 52.0803951], [6.1718717, 52.0817099], [6.1723819, 52.0842436], [6.1730075, 52.0865602], [6.1734832, 52.0876624], [6.1745446, 52.0893015], [6.1753482, 52.0899428], [6.175677, 52.0901626], [6.1759503, 52.0903537], [6.1769628, 52.0909677], [6.1790002, 52.0914633], [6.1811692, 52.0914629], [6.1856216, 52.0911153], [6.187795, 52.091152], [6.1925562, 52.0918054], [6.1961461, 52.0930512], [6.19879, 52.0936099], [6.2005743, 52.0938203], [6.202261, 52.0936938], [6.2038167, 52.0934104], [6.2059075, 52.0926741], [6.2070554, 52.0923633], [6.2083174, 52.0922309], [6.2101933, 52.09236], [6.2115273, 52.0927458], [6.2126131, 52.0932706], [6.213735, 52.093826], [6.2146886, 52.0945747], [6.2169931, 52.0964508], [6.2179492, 52.0978], [6.2180054, 52.0979718], [6.2184094, 52.0992067], [6.2184772, 52.1002572], [6.2184884, 52.1010041], [6.2183581, 52.1019882], [6.2181989, 52.1032356], [6.2172367, 52.1056844], [6.2148736, 52.1096841], [6.2138437, 52.1104946], [6.2124165, 52.1116055], [6.2099227, 52.1126431], [6.2079249, 52.113257], [6.2043454, 52.1137803], [6.2027704, 52.1139738], [6.200965, 52.1140824], [6.1988474, 52.1140713], [6.1941914, 52.1139193], [6.1926325, 52.1141708], [6.190945, 52.1145878], [6.1896783, 52.115028], [6.1885223, 52.1156248], [6.1874688, 52.1163919], [6.1867403, 52.1170385], [6.1865475, 52.1173347], [6.1860562, 52.1181494], [6.1859519, 52.1183932], [6.1858781, 52.1186124], [6.185608, 52.1198406], [6.1855045, 52.1205232], [6.1854814, 52.1212715], [6.1855182, 52.1219811], [6.1855934, 52.1224967], [6.1856852, 52.1228683], [6.185805, 52.1233418], [6.1859346, 52.1238886], [6.1861377, 52.1243369], [6.186292, 52.1246345], [6.1864141, 52.1248908], [6.1865361, 52.1251261], [6.1869277, 52.1256563], [6.1876197, 52.1265159], [6.1884029, 52.1274413], [6.1891485, 52.12837], [6.1896421, 52.1290945], [6.190141, 52.1299672], [6.1905218, 52.1308332], [6.190892, 52.1317487], [6.1911334, 52.1325785], [6.1911843, 52.1329223], [6.1912453, 52.1333782], [6.1912621, 52.1335038], [6.1913211, 52.1343797], [6.1912997, 52.1352884], [6.1912164, 52.1370195], [6.1910671, 52.1381236], [6.1909873, 52.1387133], [6.1906258, 52.1397138], [6.1904832, 52.1400764], [6.1900363, 52.1409177]], [[6.1874713, 52.1450715], [6.1872931, 52.1453477], [6.1864787, 52.1466103], [6.1836705, 52.1495895], [6.183005, 52.150311], [6.1818177, 52.1524659], [6.1817071, 52.1538738], [6.1823611, 52.1554044], [6.184222, 52.1589826], [6.1843378, 52.1592053], [6.1849228, 52.1613831], [6.1850341, 52.1618857], [6.1854488, 52.1630064], [6.1857945, 52.1635433], [6.1861678, 52.1639812], [6.186925, 52.1646412], [6.1877101, 52.1652202], [6.1898376, 52.1665414], [6.1905936, 52.1670701], [6.1915089, 52.1679582]], [[6.1900363, 52.1409177], [6.1895381, 52.1418462], [6.1893548, 52.1421711], [6.1886703, 52.143404], [6.1886137, 52.1435004], [6.1874713, 52.1450715]], [[6.1900363, 52.1409177], [6.1883118, 52.1425809], [6.1879074, 52.1432267], [6.1878514, 52.1433255], [6.187636, 52.1437181], [6.1874713, 52.1450715]], [[5.9174884, 52.5610083], [5.915517, 52.5627078], [5.9151413, 52.5630071], [5.9135739, 52.5641473], [5.9116515, 52.565332], [5.909557, 52.5662713], [5.9062336, 52.5673226], [5.9028301, 52.5682693], [5.8981973, 52.5691067], [5.8938909, 52.5706662], [5.890024, 52.5724735], [5.8880632, 52.5735324], [5.8825036, 52.5763493], [5.8788867, 52.5784335], [5.8767057, 52.5795625], [5.8746165, 52.5803557], [5.8724961, 52.5810985], [5.8704588, 52.581823], [5.8681446, 52.5824132], [5.8658551, 52.582969]], [[5.9204877, 52.5585659], [5.9192962, 52.5597358], [5.9174884, 52.5610083]], [[5.8658551, 52.582969], [5.8606057, 52.5825648], [5.8592369, 52.5824595], [5.856189, 52.5822886], [5.8542728, 52.5826022]], [[5.8542728, 52.5826022], [5.8512381, 52.5819937], [5.8481141, 52.5814412], [5.846478, 52.5813324], [5.8451247, 52.581374], [5.841785, 52.5817624]], [[5.8658551, 52.582969], [5.8640523, 52.5831985], [5.8621172, 52.5833301], [5.859071, 52.5832623], [5.8576107, 52.583115], [5.8542728, 52.5826022]]]}}, {"type": "Feature", "properties": {"name": "Haringvliet"}, "geometry": {"type": "MultiLineString", "coordinates": [[[4.3933664, 51.7143446], [4.3835523, 51.7159571], [4.3781452, 51.7162921], [4.3730536, 51.7168225], [4.3657541, 51.7181904], [4.3489922, 51.7240522], [4.3441258, 51.7248896], [4.3394848, 51.7249733], [4.331239, 51.7243592], [4.3254715, 51.7235219], [4.3138915, 51.7229374], [4.3133056, 51.7229078], [4.2879527, 51.7219052], [4.2842774, 51.7228104], [4.2839867, 51.722882], [4.2728531, 51.7273219], [4.2687437, 51.7295712], [4.2622929, 51.7344839], [4.2551731, 51.7423253], [4.251277, 51.7454017], [4.2466676, 51.7490412], [4.2410511, 51.7517371], [4.2368982, 51.7560061], [4.2291724, 51.7639467]], [[4.2291724, 51.7639467], [4.224659, 51.7655431], [4.2031996, 51.7747043], [4.1973593, 51.7776455], [4.1957295, 51.77899], [4.1851356, 51.7875892], [4.1717617, 51.7996049], [4.1645209, 51.8075201], [4.1634045, 51.808588], [4.1544405, 51.8140461], [4.1484644, 51.8163131], [4.1388213, 51.8175725], [4.131216, 51.8171024], [4.1293139, 51.8169848], [4.1278426, 51.8168916], [4.1204258, 51.816493], [4.0956296, 51.8151606]], [[4.4067884, 51.7117362], [4.399422, 51.7135679], [4.3933664, 51.7143446]]]}}, {"type": "Feature", "properties": {"name": "Westerschelde"}, "geometry": {"type": "MultiLineString", "coordinates": [[[4.2181537, 51.3739032], [4.2180535, 51.3740925], [4.2143399, 51.3811071], [4.2126237, 51.386335], [4.2114239, 51.3899893], [4.209383, 51.3932049], [4.2076065, 51.3949577], [4.2057029, 51.3965224]]]}}]}