{"type":"FeatureCollection","features":[{"type":"Feature","properties":{"name":"Hatay","country":"TR"},"geometry":{"type":"Polygon","coordinates":[[[36.6596,36.8272],[36.6586,36.8275],[36.6492,36.8286],[36.6399,36.8281],[36.6433,36.8036],[36.632,36.7843],[36.6157,36.7666],[36.6033,36.747],[36.5989,36.7248],[36.5981,36.7055],[36.5947,36.6858],[36.5828,36.6624],[36.5693,36.6201],[36.57,36.5757],[36.5653,36.5325],[36.5355,36.494],[36.5312,36.479],[36.5338,36.4625],[36.5527,36.4082],[36.558,36.4006],[36.565,36.3956],[36.5808,36.3899],[36.5857,36.387],[36.5906,36.3804],[36.5934,36.3735],[36.5945,36.3659],[36.5943,36.3571],[36.5878,36.3421],[36.5822,36.3331],[36.5776,36.3329],[36.5878,36.3248],[36.6207,36.322],[36.6371,36.3168],[36.6486,36.3059],[36.6488,36.3057],[36.6585,36.2905],[36.6655,36.274],[36.6691,36.2599],[36.67,36.2373],[36.6643,36.229],[36.5935,36.2181],[36.5744,36.2184],[36.4986,36.2279],[36.4802,36.2255],[36.4689,36.2224],[36.4653,36.2159],[36.464,36.2088],[36.4592,36.2031],[36.4507,36.1999],[36.4452,36.1999],[36.4393,36.2014],[36.4119,36.2045],[36.3981,36.2082],[36.3856,36.2155],[36.373,36.2276],[36.3614,36.2182],[36.3758,36.2045],[36.3745,36.1959],[36.3663,36.1892],[36.3605,36.1817],[36.3586,36.167],[36.3555,36.0224],[36.358,35.994],[36.3367,35.9882],[36.2974,36.0007],[36.2775,35.9942],[36.2774,35.994],[36.269,35.9587],[36.2531,35.9556],[36.229,35.9612],[36.1969,35.9517],[36.1749,35.9227],[36.1688,35.8521],[36.1576,35.8226],[36.1553,35.8222],[36.1385,35.8198],[36.0803,35.8542],[36.0508,35.8654],[36.0194,35.8662],[36.0039,35.8692],[35.9924,35.8773],[35.9901,35.8893],[35.9931,35.9024],[35.9928,35.9153],[35.9803,35.9269],[35.9607,35.9244],[35.9406,35.9184],[35.9208,35.9151],[35.9113,35.9177],[35.9114,35.9179],[35.9227,35.9316],[35.9661,35.9936],[35.9767,36.001],[35.9754,36.0185],[35.9484,36.0878],[35.8783,36.1821],[35.8645,36.1968],[35.8522,36.2135],[35.841,36.2445],[35.8269,36.2576],[35.8108,36.2696],[35.7986,36.2817],[35.7874,36.3043],[35.7887,36.3203],[35.8159,36.353],[35.8245,36.3611],[35.8342,36.3663],[35.845,36.369],[35.8568,36.3698],[35.8618,36.3735],[35.8735,36.3977],[35.8818,36.4047],[35.8994,36.4123],[35.9085,36.4182],[35.9133,36.4272],[35.9187,36.4482],[35.9308,36.4546],[35.9356,36.4595],[35.9424,36.4643],[35.9818,36.4757],[35.9902,36.4796],[36.0374,36.527],[36.0449,36.5377],[36.0554,36.5383],[36.1629,36.5934],[36.1787,36.5963],[36.1891,36.604],[36.2012,36.622],[36.2112,36.6424],[36.2162,36.6578],[36.2156,36.6705],[36.2116,36.6799],[36.2066,36.6887],[36.2025,36.6994],[36.2019,36.7063],[36.2025,36.7692],[36.1987,36.7846],[36.189,36.8017],[36.1299,36.8693],[36.0955,36.8971],[36.0586,36.9184],[36.0203,36.9263],[35.985,36.9156],[35.9509,36.891],[35.9325,36.873],[35.9164,36.8934],[35.917,36.9348],[35.9993,37.0105],[36.0176,37.02],[36.039,37.0167],[36.0616,37.0097],[36.1053,37.0155],[36.1462,37.0063],[36.188,37.0054],[36.2353,37.0154],[36.2806,37.0043],[36.3136,36.976],[36.3521,36.9566],[36.402,36.9556],[36.4519,36.9607],[36.5171,36.909],[36.5969,36.8802],[36.614,36.867],[36.6226,36.8467],[36.6352,36.8378],[36.6513,36.8363],[36.6595,36.8273],[36.6596,36.8272]]]}},{"type":"Feature","properties":{"name":"Çanakkale","country":"TR"},"geometry":{"type":"MultiPolygon","coordinates":[[[[26.9635,40.561],[26.9499,40.5596],[26.9116,40.5507],[26.8537,40.5231],[26.8386,40.5123],[26.8211,40.5031],[26.7595,40.4962],[26.7407,40.4875],[26.7083,40.4657],[26.6946,40.4614],[26.6834,40.4555],[26.6743,40.4257],[26.6638,40.4136],[26.6315,40.4001],[26.6248,40.3925],[26.6229,40.3757],[26.6167,40.3595],[26.6016,40.3461],[26.5467,40.3076],[26.5397,40.3037],[26.5104,40.2982],[26.4972,40.2899],[26.4761,40.2734],[26.4758,40.2696],[26.4709,40.2659],[26.4447,40.2416],[26.4265,40.2303],[26.4037,40.2194],[26.3799,40.2113],[26.3591,40.2082],[26.3456,40.1998],[26.3488,40.1813],[26.3613,40.1626],[26.3758,40.1535],[26.328,40.1187],[26.313,40.1101],[26.2731,40.0926],[26.2429,40.0708],[26.2306,40.0649],[26.1776,40.0507],[26.167,40.0499],[26.1575,40.0553],[26.16,40.0672],[26.168,40.0792],[26.1738,40.0846],[26.1902,40.0942],[26.2014,40.1153],[26.2092,40.1364],[26.2147,40.1461],[26.2598,40.1945],[26.272,40.2304],[26.2669,40.2578],[26.2479,40.2791],[26.2181,40.2969],[26.2285,40.3035],[26.2318,40.3101],[26.2274,40.3153],[26.2147,40.3174],[26.21,40.3219],[26.2191,40.3314],[26.2322,40.34],[26.2388,40.3415],[26.2502,40.3495],[26.3014,40.3647],[26.3211,40.3652],[26.3361,40.3853],[26.3858,40.4099],[26.4328,40.4398],[26.4917,40.4565],[26.5359,40.4855],[26.5645,40.4995],[26.5956,40.5104],[26.6229,40.5153],[26.6698,40.5108],[26.6838,40.5153],[26.6973,40.5264],[26.7183,40.5515],[26.7328,40.5638],[26.7562,40.5548],[26.7883,40.5629],[26.8167,40.581],[26.8289,40.602],[26.7983,40.6516],[26.7904,40.6606],[26.7805,40.6594],[26.7811,40.6644],[26.7875,40.723],[26.7864,40.7258],[26.9324,40.7149],[26.9319,40.6358],[26.9635,40.561]]],[[[26.6672,39.5508],[26.4568,39.5212],[26.4343,39.514],[26.4242,39.5052],[26.4139,39.5053],[26.37,39.4858],[26.3622,39.4813],[26.3501,39.4813],[26.2974,39.4887],[26.2866,39.4876],[26.2736,39.4824],[26.263,39.4813],[26.2539,39.4728],[26.2523,39.4708],[26.2493,39.4656],[26.2425,39.4676],[26.2318,39.4745],[26.1528,39.4592],[26.113,39.4592],[26.0742,39.4745],[26.07,39.4963],[26.095,39.5486],[26.1107,39.5979],[26.1482,39.626],[26.1567,39.6492],[26.1636,39.7042],[26.1594,39.7149],[26.1406,39.7427],[26.1364,39.7557],[26.1379,39.7646],[26.1421,39.7679],[26.1467,39.7702],[26.1499,39.7761],[26.1499,39.8],[26.155,39.8262],[26.1517,39.8351],[26.1364,39.8376],[26.1419,39.849],[26.1567,39.899],[26.156,39.9051],[26.1506,39.9247],[26.1499,39.9338],[26.1526,39.9426],[26.1616,39.9562],[26.1636,39.9645],[26.1677,39.9736],[26.1886,40.0018],[26.1978,40.0089],[26.2511,39.9949],[26.2669,40.0031],[26.3003,40.0144],[26.311,40.0195],[26.3532,40.0522],[26.3622,40.0635],[26.365,40.0718],[26.3662,40.0846],[26.3696,40.0908],[26.3704,40.0947],[26.3695,40.0992],[26.3694,40.1029],[26.3728,40.1045],[26.3838,40.1042],[26.389,40.1052],[26.3932,40.1082],[26.3996,40.1208],[26.4035,40.139],[26.403,40.1579],[26.3963,40.1728],[26.4028,40.1874],[26.408,40.1937],[26.4149,40.1949],[26.4276,40.1945],[26.4414,40.1966],[26.4675,40.206],[26.5007,40.213],[26.5194,40.2252],[26.5636,40.2702],[26.5725,40.2746],[26.5814,40.277],[26.595,40.2826],[26.6076,40.2904],[26.7146,40.3906],[26.7356,40.4036],[26.7767,40.4055],[26.863,40.3999],[26.8972,40.4062],[26.9082,40.4037],[26.9344,40.3925],[26.9915,40.3886],[27.0134,40.3925],[27.0413,40.4096],[27.0658,40.4335],[27.0964,40.4523],[27.1431,40.4539],[27.177,40.4488],[27.2153,40.4477],[27.2376,40.4519],[27.2715,40.4678],[27.287,40.4682],[27.3034,40.4584],[27.3137,40.4441],[27.3286,40.4136],[27.315,40.4062],[27.3081,40.4062],[27.3036,40.4105],[27.3032,40.411],[27.3018,40.409],[27.2944,40.4062],[27.3376,40.3703],[27.3929,40.3421],[27.4523,40.322],[27.5233,40.3088],[27.5513,40.3088],[27.562,40.3105],[27.5722,40.3157],[27.5766,40.3065],[27.5649,40.2628],[27.5169,40.2405],[27.4472,40.1847],[27.4319,40.1803],[27.4208,40.173],[27.4396,40.1427],[27.4789,40.1299],[27.4965,40.1278],[27.5009,40.1213],[27.495,40.1019],[27.4817,40.0696],[27.4772,40.0432],[27.4661,40.0199],[27.4589,40.0127],[27.4487,39.9959],[27.4662,39.9744],[27.4828,39.9635],[27.4781,39.9231],[27.4603,39.8821],[27.4388,39.8445],[27.3994,39.8216],[27.3569,39.8076],[27.3171,39.786],[27.2742,39.7727],[27.2007,39.7918],[27.1272,39.8013],[27.0995,39.7897],[27.0685,39.7927],[27.0221,39.7929],[26.9797,39.766],[26.9073,39.7433],[26.87,39.7188],[26.8274,39.7078],[26.7368,39.7166],[26.6967,39.7102],[26.6644,39.6314],[26.6672,39.5508]]],[[[26.0606,39.8376],[26.0772,39.8447],[26.083,39.8349],[26.0817,39.8],[26.075,39.7849],[26.0591,39.7861],[26.0265,39.8034],[25.9971,39.8142],[25.9837,39.8221],[25.978,39.8342],[25.986,39.8422],[26.0042,39.8452],[26.0401,39.845],[26.0462,39.8441],[26.0511,39.8441],[26.0555,39.8427],[26.0606,39.8376]]],[[[26.0122,40.1666],[26.0122,40.1461],[25.9902,40.1369],[25.9678,40.1308],[25.9004,40.1227],[25.8563,40.1079],[25.766,40.0972],[25.7453,40.0983],[25.7212,40.1048],[25.7093,40.1099],[25.7044,40.1153],[25.6633,40.1262],[25.6633,40.1324],[25.6862,40.1608],[25.719,40.1872],[25.759,40.2067],[25.8269,40.2166],[25.9133,40.2413],[25.926,40.2428],[25.9382,40.2416],[25.9447,40.237],[25.95,40.2296],[25.9579,40.2231],[25.9719,40.2211],[25.9719,40.2143],[25.9692,40.206],[25.9673,40.1933],[25.9675,40.1806],[25.9719,40.1728],[25.9631,40.1571],[25.9729,40.1532],[25.991,40.1575],[26.0059,40.1666],[26.0122,40.1666]]]]}},{"type":"Feature","properties":{"name":"Balikesir","country":"TR"},"geometry":{"type":"MultiPolygon","coordinates":[[[[27.5722,40.3157],[27.597,40.3283],[27.613,40.331],[27.6409,40.3261],[27.6651,40.3175],[27.688,40.3138],[27.7123,40.3242],[27.7326,40.3173],[27.7627,40.3154],[27.7898,40.3205],[27.8132,40.3471],[27.8674,40.3689],[27.8836,40.3863],[27.8652,40.3868],[27.8153,40.3999],[27.8005,40.393],[27.7918,40.3929],[27.7879,40.403],[27.7858,40.4129],[27.7801,40.4157],[27.7734,40.4165],[27.7674,40.4204],[27.7608,40.4284],[27.7564,40.4326],[27.7541,40.4383],[27.7532,40.4508],[27.7502,40.4576],[27.7427,40.4591],[27.7337,40.4591],[27.7258,40.4614],[27.6932,40.4863],[27.6843,40.4962],[27.6843,40.5023],[27.6963,40.5064],[27.7061,40.5119],[27.7224,40.5263],[27.7332,40.5306],[27.742,40.5263],[27.7502,40.5247],[27.76,40.5371],[27.7791,40.5183],[27.7804,40.5153],[27.7894,40.5142],[27.7922,40.517],[27.7952,40.5209],[27.8047,40.5228],[27.9699,40.503],[28.0142,40.4912],[28.0344,40.4744],[28.0168,40.4511],[27.9299,40.4169],[27.904,40.3999],[27.9085,40.3742],[27.9447,40.366],[28.0275,40.372],[28.112,40.3961],[28.2081,40.3993],[28.208,40.3992],[28.2036,40.3924],[28.1558,40.3364],[28.1259,40.3179],[28.0989,40.2972],[28.1064,40.263],[28.1294,40.2581],[28.149,40.2258],[28.1393,40.2074],[28.1253,40.1912],[28.1128,40.1533],[28.1183,40.1338],[28.1358,40.0963],[28.1731,40.0509],[28.227,40.0217],[28.246,39.9964],[28.2637,39.927],[28.2814,39.8958],[28.5459,39.7452],[28.6258,39.7376],[28.6471,39.7548],[28.6738,39.7641],[28.6891,39.7473],[28.6841,39.7271],[28.6864,39.6995],[28.7058,39.6747],[28.7116,39.6631],[28.7222,39.6567],[28.7414,39.656],[28.7556,39.6483],[28.7803,39.6188],[28.8198,39.6145],[28.866,39.6212],[28.9122,39.6199],[28.9428,39.6092],[28.9672,39.5891],[28.947,39.5599],[28.9417,39.5401],[28.9408,39.5211],[28.9339,39.5085],[28.9224,39.4996],[28.9088,39.4707],[28.896,39.3997],[28.873,39.3701],[28.8497,39.3479],[28.8416,39.3338],[28.8114,39.2906],[28.7787,39.2722],[28.7059,39.253],[28.6667,39.238],[28.6578,39.204],[28.6634,39.1923],[28.6661,39.1672],[28.6595,39.1566],[28.5721,39.1675],[28.4799,39.1306],[28.4427,39.1228],[28.4047,39.1194],[28.3613,39.1224],[28.3208,39.1163],[28.2936,39.0883],[28.2562,39.0711],[28.2128,39.064],[28.171,39.0502],[28.125,39.063],[28.0737,39.1527],[27.9914,39.2222],[27.9846,39.2364],[27.968,39.2433],[27.8933,39.2219],[27.8542,39.2364],[27.8659,39.2716],[27.8962,39.3134],[27.8712,39.3448],[27.8549,39.3443],[27.823,39.3396],[27.8072,39.3415],[27.7679,39.3566],[27.7264,39.3593],[27.6559,39.3517],[27.586,39.367],[27.5431,39.3948],[27.4966,39.4113],[27.4201,39.3803],[27.3907,39.4247],[27.3475,39.4558],[27.291,39.4645],[27.1097,39.374],[27.0781,39.3644],[27.05,39.3512],[27.0301,39.3303],[27.0133,39.3071],[26.9936,39.2908],[26.7787,39.17],[26.7712,39.1731],[26.7516,39.1846],[26.7378,39.1972],[26.739,39.2076],[26.731,39.2276],[26.7266,39.2475],[26.7188,39.2629],[26.7014,39.269],[26.6533,39.2669],[26.6291,39.2684],[26.6092,39.2752],[26.6193,39.2831],[26.6252,39.3033],[26.6326,39.3134],[26.6455,39.3176],[26.6548,39.3132],[26.6538,39.3065],[26.6359,39.3032],[26.6359,39.2969],[26.6467,39.2973],[26.656,39.2943],[26.6639,39.289],[26.6707,39.2827],[26.6648,39.2981],[26.6703,39.306],[26.6812,39.3106],[26.6912,39.3162],[26.7088,39.3369],[26.8147,39.3994],[26.8054,39.4051],[26.801,39.4062],[26.801,39.4124],[26.8026,39.4192],[26.8027,39.4251],[26.801,39.4335],[26.8374,39.4356],[26.8508,39.4398],[26.863,39.4472],[26.8521,39.4618],[26.8679,39.4715],[26.926,39.4858],[26.9299,39.4877],[26.9297,39.4914],[26.9314,39.5018],[26.9451,39.5396],[26.9439,39.561],[26.9377,39.5748],[26.9222,39.5822],[26.8934,39.5844],[26.8705,39.5769],[26.8521,39.5634],[26.8329,39.5568],[26.8079,39.5707],[26.6672,39.5508],[26.6644,39.6314],[26.6967,39.7102],[26.7368,39.7166],[26.8274,39.7078],[26.87,39.7188],[26.9073,39.7433],[26.9797,39.766],[27.0221,39.7929],[27.0685,39.7927],[27.0995,39.7897],[27.1272,39.8013],[27.2007,39.7918],[27.2742,39.7727],[27.3171,39.786],[27.3569,39.8076],[27.3994,39.8216],[27.4388,39.8445],[27.4603,39.8821],[27.4781,39.9231],[27.4828,39.9635],[27.4662,39.9744],[27.4487,39.9959],[27.4589,40.0127],[27.4661,40.0199],[27.4772,40.0432],[27.4817,40.0696],[27.495,40.1019],[27.5009,40.1213],[27.4965,40.1278],[27.4789,40.1299],[27.4396,40.1427],[27.4208,40.173],[27.4319,40.1803],[27.4472,40.1847],[27.5169,40.2405],[27.5649,40.2628],[27.5766,40.3065],[27.5722,40.3157]]],[[[27.6576,40.6531],[27.6733,40.6564],[27.7024,40.653],[27.7278,40.6426],[27.7327,40.6252],[27.7142,40.6147],[27.6764,40.6102],[27.6576,40.6054],[27.6245,40.5831],[27.6047,40.5768],[27.5825,40.5843],[27.5715,40.5847],[27.5518,40.5911],[27.536,40.602],[27.5389,40.6234],[27.5321,40.6307],[27.5264,40.6391],[27.531,40.6501],[27.5388,40.6569],[27.5459,40.6603],[27.5515,40.6577],[27.5545,40.6469],[27.5794,40.6565],[27.6052,40.6633],[27.6314,40.6635],[27.6576,40.6531]]],[[[27.6452,40.4599],[27.6531,40.4604],[27.657,40.4575],[27.6566,40.4494],[27.6457,40.4478],[27.6315,40.4538],[27.6149,40.4567],[27.5964,40.458],[27.582,40.4655],[27.5799,40.4765],[27.5908,40.4839],[27.5991,40.4965],[27.6073,40.5054],[27.6405,40.4941],[27.6421,40.4873],[27.6367,40.4783],[27.6351,40.4668],[27.6452,40.4599]]]]}},{"type":"Feature","properties":{"name":"Izmir","country":"TR"},"geometry":{"type":"Polygon","coordinates":[[[27.2618,37.8884],[27.2634,37.8935],[27.2654,37.9017],[27.2647,37.9098],[27.2604,37.919],[27.2748,37.929],[27.2663,37.9514],[27.2391,37.9879],[27.214,37.9809],[27.1775,37.9809],[27.1411,37.986],[27.1164,37.9941],[27.1112,37.9997],[27.1076,38.0067],[27.1019,38.0127],[27.0918,38.0153],[27.0838,38.0156],[27.0759,38.017],[27.0702,38.02],[27.0679,38.0251],[27.0647,38.0406],[27.0559,38.0457],[27.027,38.0494],[26.9754,38.0653],[26.9492,38.0674],[26.9177,38.0624],[26.9001,38.0568],[26.8934,38.0562],[26.8885,38.0529],[26.8856,38.0456],[26.8815,38.0384],[26.8731,38.0351],[26.8649,38.0404],[26.8421,38.0761],[26.8474,38.0888],[26.8464,38.1034],[26.8416,38.1182],[26.8352,38.1313],[26.825,38.145],[26.803,38.1624],[26.7936,38.1723],[26.7761,38.1652],[26.7715,38.1775],[26.7737,38.207],[26.7603,38.2167],[26.7446,38.2156],[26.7273,38.2103],[26.7083,38.207],[26.6458,38.2067],[26.6359,38.2036],[26.6229,38.1387],[26.6182,38.1415],[26.6177,38.1423],[26.6155,38.145],[26.6092,38.145],[26.6122,38.1308],[26.6122,38.1179],[26.6071,38.1083],[26.595,38.1039],[26.5886,38.1082],[26.5768,38.1327],[26.5676,38.145],[26.5671,38.124],[26.5569,38.1223],[26.5433,38.1305],[26.5238,38.1474],[26.5173,38.1557],[26.5155,38.1657],[26.5193,38.1797],[26.4917,38.174],[26.4666,38.1906],[26.4422,38.212],[26.4175,38.2206],[26.422,38.2048],[26.4242,38.2002],[26.4175,38.2002],[26.4121,38.2064],[26.3901,38.2238],[26.3919,38.234],[26.3945,38.2429],[26.3949,38.2517],[26.3901,38.2617],[26.3833,38.2617],[26.375,38.2348],[26.354,38.2283],[26.3286,38.2351],[26.2961,38.2566],[26.2866,38.2611],[26.2346,38.2738],[26.2331,38.2803],[26.2388,38.2958],[26.2654,38.2867],[26.2764,38.3005],[26.2859,38.3187],[26.3076,38.3231],[26.3076,38.3305],[26.2889,38.3406],[26.2861,38.359],[26.2941,38.3699],[26.3076,38.3579],[26.3093,38.3671],[26.3118,38.3712],[26.3157,38.3735],[26.3211,38.3777],[26.3252,38.3655],[26.3259,38.3549],[26.3228,38.3455],[26.3143,38.3367],[26.3193,38.3336],[26.3245,38.3317],[26.3306,38.3308],[26.3386,38.3305],[26.3464,38.3288],[26.3483,38.3248],[26.3498,38.3201],[26.3561,38.3169],[26.3706,38.3161],[26.385,38.3184],[26.3919,38.325],[26.3833,38.3367],[26.3833,38.3436],[26.3989,38.3355],[26.4053,38.3354],[26.4175,38.3367],[26.4292,38.3408],[26.4546,38.3548],[26.4622,38.3579],[26.4759,38.3669],[26.4771,38.3869],[26.468,38.4076],[26.4515,38.4187],[26.4515,38.4261],[26.4769,38.4167],[26.4891,38.4062],[26.4979,38.4073],[26.513,38.4329],[26.4989,38.4396],[26.4743,38.4573],[26.4539,38.4632],[26.4408,38.4728],[26.431,38.4739],[26.422,38.4697],[26.4142,38.4563],[26.4072,38.4534],[26.3879,38.4543],[26.3882,38.4584],[26.3972,38.4687],[26.4038,38.4875],[26.3999,38.4996],[26.3696,38.5353],[26.3758,38.5286],[26.3731,38.5407],[26.3607,38.571],[26.3591,38.577],[26.3601,38.5836],[26.3486,38.6213],[26.349,38.6355],[26.3511,38.6502],[26.3563,38.6617],[26.366,38.6663],[26.381,38.6684],[26.403,38.6773],[26.4141,38.6794],[26.4406,38.6777],[26.4656,38.6727],[26.4876,38.6643],[26.5056,38.6527],[26.5396,38.6237],[26.5558,38.6054],[26.5608,38.59],[26.584,38.5609],[26.6092,38.5353],[26.618,38.5286],[26.6248,38.5246],[26.6304,38.5192],[26.6359,38.508],[26.638,38.497],[26.6375,38.4872],[26.638,38.4777],[26.6433,38.4677],[26.6367,38.4634],[26.6331,38.4619],[26.6292,38.4609],[26.6213,38.4666],[26.6108,38.4684],[26.5993,38.4664],[26.5881,38.4609],[26.6052,38.4538],[26.605,38.4448],[26.5964,38.4332],[26.5881,38.4187],[26.6118,38.4162],[26.6221,38.4053],[26.6283,38.3901],[26.6397,38.3746],[26.6571,38.3288],[26.6731,38.3072],[26.6946,38.3132],[26.7,38.3258],[26.6936,38.3344],[26.6775,38.3436],[26.6707,38.3852],[26.676,38.4023],[26.6873,38.4197],[26.7024,38.4302],[26.7191,38.4261],[26.7191,38.4329],[26.7254,38.4329],[26.7367,38.4229],[26.7482,38.4047],[26.7669,38.3641],[26.7715,38.3661],[26.783,38.3694],[26.7874,38.3715],[26.7951,38.3586],[26.8098,38.3601],[26.8276,38.3673],[26.8455,38.3715],[26.9246,38.3777],[26.9738,38.3962],[26.9898,38.3989],[26.9945,38.4008],[27.0075,38.4097],[27.0134,38.4125],[27.0236,38.4121],[27.033,38.409],[27.0425,38.4076],[27.0544,38.4125],[27.0558,38.4085],[27.0612,38.4125],[27.0886,38.4022],[27.1118,38.414],[27.1354,38.4337],[27.1642,38.4466],[27.1642,38.4534],[27.1545,38.4594],[27.1502,38.4587],[27.1431,38.4534],[27.1362,38.4609],[27.117,38.4539],[27.0833,38.4567],[27.0747,38.4534],[27.0491,38.4632],[27.0223,38.4625],[26.9596,38.442],[26.9386,38.4342],[26.9354,38.4349],[26.9451,38.4466],[26.9279,38.456],[26.8976,38.4947],[26.884,38.5012],[26.8592,38.5075],[26.8493,38.5124],[26.8269,38.5262],[26.8147,38.5428],[26.8293,38.5313],[26.847,38.5207],[26.8742,38.5075],[26.8898,38.508],[26.8898,38.5149],[26.8778,38.5264],[26.8651,38.5355],[26.8512,38.5429],[26.8352,38.549],[26.8394,38.5608],[26.8446,38.5854],[26.8489,38.5974],[26.8342,38.6082],[26.825,38.6048],[26.8137,38.5976],[26.7936,38.5974],[26.7981,38.6077],[26.801,38.6117],[26.7793,38.6177],[26.7669,38.619],[26.7532,38.6179],[26.7551,38.6225],[26.7576,38.6338],[26.7595,38.6384],[26.7464,38.6387],[26.737,38.6425],[26.7191,38.6527],[26.7261,38.659],[26.7337,38.6636],[26.7424,38.6662],[26.7532,38.6663],[26.7332,38.6896],[26.7258,38.7027],[26.7191,38.7209],[26.7376,38.7308],[26.7889,38.7394],[26.8182,38.7554],[26.8237,38.7537],[26.8275,38.7502],[26.8289,38.7483],[26.8306,38.7473],[26.8418,38.7458],[26.8516,38.7457],[26.8745,38.7375],[26.8885,38.734],[26.9035,38.7346],[26.8972,38.7483],[26.9071,38.7536],[26.9153,38.76],[26.923,38.7622],[26.9314,38.7551],[26.9344,38.7629],[26.9351,38.7705],[26.9338,38.779],[26.9314,38.7893],[26.9246,38.7817],[26.9045,38.8098],[26.8972,38.8166],[26.9377,38.8302],[26.9439,38.8087],[26.9608,38.8061],[26.9714,38.8192],[26.9588,38.8445],[26.9754,38.8486],[26.9909,38.855],[27.0039,38.8629],[27.0134,38.8712],[27.0335,38.8605],[27.055,38.8711],[27.0627,38.8869],[27.0413,38.8917],[27.0579,38.9185],[27.0578,38.9298],[27.0413,38.9401],[27.0241,38.9282],[27.0129,38.9221],[27.0012,38.9199],[26.9826,38.9196],[26.9776,38.9228],[26.9675,38.9369],[26.9624,38.9401],[26.95,38.937],[26.9417,38.9319],[26.9343,38.9309],[26.9246,38.9401],[26.9134,38.932],[26.8792,38.9162],[26.8662,38.9134],[26.8556,38.9175],[26.8401,38.9359],[26.8252,38.9401],[26.8065,38.9501],[26.7972,38.9731],[26.7992,38.9984],[26.8147,39.0151],[26.8147,39.022],[26.8096,39.0216],[26.7936,39.022],[26.8064,39.0339],[26.8291,39.0473],[26.854,39.0584],[26.8731,39.0629],[26.8831,39.0716],[26.8753,39.0909],[26.8519,39.1213],[26.8237,39.1491],[26.8098,39.1575],[26.7787,39.17],[26.9936,39.2908],[27.0133,39.3071],[27.0301,39.3303],[27.05,39.3512],[27.0781,39.3644],[27.1097,39.374],[27.291,39.4645],[27.3475,39.4558],[27.3907,39.4247],[27.4201,39.3803],[27.4588,39.3037],[27.4918,39.1836],[27.5081,39.1478],[27.5453,39.0939],[27.5377,39.0413],[27.5101,39.0168],[27.4452,38.9744],[27.3821,38.9545],[27.3271,38.9249],[27.3153,38.8884],[27.3094,38.8497],[27.291,38.8166],[27.2608,38.792],[27.2332,38.7558],[27.2284,38.7348],[27.2559,38.7131],[27.2715,38.7078],[27.2947,38.6846],[27.3213,38.6157],[27.3803,38.5759],[27.4506,38.5705],[27.5628,38.5727],[27.5833,38.5699],[27.6135,38.5468],[27.6303,38.4915],[27.6999,38.453],[27.7778,38.4247],[27.7858,38.4102],[27.7977,38.3785],[27.8061,38.3634],[27.8483,38.3329],[27.8989,38.3421],[27.9224,38.3752],[27.9389,38.4068],[27.9864,38.4051],[28.0344,38.3883],[28.0654,38.3873],[28.0954,38.3946],[28.1357,38.3592],[28.1629,38.3088],[28.261,38.3216],[28.2994,38.3311],[28.3251,38.3274],[28.345,38.3088],[28.38,38.3008],[28.4032,38.2993],[28.4478,38.2899],[28.4758,38.2621],[28.5174,38.1593],[28.5623,38.1062],[28.4046,38.0612],[28.3642,38.0559],[28.3246,38.0468],[28.2902,38.0315],[28.2541,38.0201],[28.0611,38.0183],[27.8293,37.9691],[27.5832,37.9844],[27.5323,37.9778],[27.41,37.9143],[27.3293,37.8895],[27.2636,37.8881],[27.2618,37.8884]]]}},{"type":"Feature","properties":{"name":"Aydin","country":"TR"},"geometry":{"type":"Polygon","coordinates":[[[27.4035,37.4126],[27.3866,37.4121],[27.3703,37.4051],[27.3612,37.3922],[27.3565,37.3791],[27.3462,37.3706],[27.3218,37.3709],[27.3218,37.3635],[27.3364,37.3557],[27.3303,37.3516],[27.2715,37.3486],[27.2577,37.3445],[27.2461,37.3362],[27.2388,37.3439],[27.2317,37.3481],[27.2249,37.3482],[27.2188,37.3437],[27.2171,37.351],[27.2156,37.3542],[27.2119,37.3573],[27.2041,37.3529],[27.2013,37.3523],[27.1986,37.3542],[27.1908,37.3573],[27.2007,37.3665],[27.2075,37.3764],[27.2095,37.3869],[27.2051,37.3983],[27.2204,37.404],[27.2262,37.4051],[27.2262,37.4119],[27.2175,37.4313],[27.2225,37.4768],[27.2051,37.4727],[27.1994,37.4786],[27.1926,37.4787],[27.1853,37.4741],[27.1777,37.4665],[27.1819,37.4833],[27.1878,37.4983],[27.1904,37.5127],[27.1846,37.528],[27.1882,37.5345],[27.1843,37.5388],[27.1804,37.5446],[27.1846,37.5559],[27.2004,37.5476],[27.2093,37.5633],[27.2122,37.5856],[27.2085,37.5969],[27.1939,37.601],[27.1362,37.631],[27.0488,37.6501],[27.0115,37.6657],[27.0208,37.6863],[27.0383,37.6901],[27.1055,37.6863],[27.1272,37.6885],[27.2131,37.7134],[27.2264,37.7209],[27.2495,37.7443],[27.2566,37.7595],[27.2605,37.782],[27.2616,37.8035],[27.2604,37.816],[27.2527,37.8253],[27.2433,37.8338],[27.2372,37.8454],[27.2391,37.8644],[27.2425,37.8681],[27.2555,37.8771],[27.2604,37.8842],[27.2618,37.8884],[27.2636,37.8881],[27.3293,37.8895],[27.41,37.9143],[27.5323,37.9778],[27.5832,37.9844],[27.8293,37.9691],[28.0611,38.0183],[28.2541,38.0201],[28.2902,38.0315],[28.3246,38.0468],[28.3642,38.0559],[28.4046,38.0612],[28.5623,38.1062],[28.698,38.1038],[28.709,38.081],[28.7222,38.0591],[28.7777,38.0288],[28.7905,37.9994],[28.7884,37.9652],[28.8043,37.9051],[28.7949,37.8839],[28.7734,37.8711],[28.7706,37.8452],[28.7924,37.8219],[28.8079,37.7963],[28.8292,37.7705],[28.8929,37.7603],[28.9031,37.7377],[28.8996,37.7097],[28.869,37.6925],[28.8302,37.6911],[28.7833,37.6385],[28.7303,37.5984],[28.6531,37.6063],[28.5832,37.5897],[28.5628,37.553],[28.5754,37.5146],[28.5853,37.5115],[28.5956,37.5061],[28.6035,37.4923],[28.6089,37.4775],[28.4782,37.4917],[28.4048,37.523],[28.3426,37.5654],[28.2699,37.5774],[28.2161,37.5473],[28.1807,37.4924],[28.1414,37.4668],[28.0198,37.4598],[27.9497,37.4624],[27.9073,37.4799],[27.8613,37.4798],[27.8161,37.4708],[27.7704,37.4766],[27.7,37.5149],[27.6196,37.5244],[27.5812,37.5357],[27.5458,37.5545],[27.5125,37.5531],[27.4811,37.5392],[27.4689,37.5219],[27.4154,37.4289],[27.4035,37.4126]]]}},{"type":"Feature","properties":{"name":"Mugla","country":"TR"},"geometry":{"type":"Polygon","coordinates":[[[29.2612,36.2936],[29.2567,36.297],[29.2478,36.3117],[29.2346,36.3243],[29.175,36.3398],[29.1585,36.3568],[29.1447,36.3493],[29.1408,36.3625],[29.1418,36.3654],[29.1447,36.3698],[29.1447,36.3772],[29.1169,36.3772],[29.1243,36.3835],[29.1128,36.3894],[29.1062,36.3909],[29.0964,36.3909],[29.1014,36.4002],[29.1091,36.4065],[29.1189,36.4101],[29.1304,36.4114],[29.1299,36.416],[29.1292,36.4169],[29.1277,36.4168],[29.1243,36.4182],[29.1301,36.4365],[29.1242,36.4536],[29.1113,36.4668],[29.0964,36.4735],[29.0964,36.4796],[29.1095,36.4885],[29.1156,36.4914],[29.1243,36.4933],[29.1243,36.5008],[29.1203,36.5356],[29.1149,36.5527],[29.1038,36.5479],[29.0964,36.5479],[29.0843,36.5602],[29.0364,36.5453],[29.0144,36.5479],[29.0327,36.5518],[29.0369,36.5615],[29.0314,36.5748],[29.0205,36.5895],[29.0261,36.5963],[29.035,36.6147],[29.0418,36.6243],[29.0558,36.6142],[29.0682,36.6239],[29.0809,36.6386],[29.0964,36.6441],[29.0964,36.6379],[29.0906,36.6271],[29.0988,36.6236],[29.1106,36.6264],[29.1169,36.6342],[29.1145,36.6431],[29.1092,36.652],[29.1024,36.6596],[29.0964,36.6652],[29.0342,36.701],[28.9563,36.7275],[28.9461,36.737],[28.939,36.7513],[28.9227,36.7414],[28.9041,36.723],[28.8909,36.7124],[28.8909,36.7062],[28.8977,36.7062],[28.8977,36.6994],[28.8789,36.6981],[28.8709,36.6962],[28.8635,36.6926],[28.86,36.6842],[28.8626,36.6751],[28.8625,36.6679],[28.8499,36.6652],[28.855,36.6566],[28.8579,36.6538],[28.8635,36.6509],[28.8568,36.6441],[28.8669,36.6349],[28.8704,36.6305],[28.8766,36.6305],[28.8823,36.6406],[28.888,36.6484],[28.8901,36.6576],[28.884,36.6715],[28.9017,36.6583],[28.8954,36.6414],[28.8784,36.6259],[28.8635,36.6168],[28.8696,36.6066],[28.8587,36.6013],[28.8416,36.6002],[28.8289,36.6025],[28.8186,36.6117],[28.8186,36.6208],[28.8272,36.6278],[28.8425,36.6305],[28.8425,36.6379],[28.8255,36.6447],[28.8152,36.6518],[28.805,36.6553],[28.7879,36.6509],[28.7827,36.6774],[28.7463,36.6977],[28.7017,36.7051],[28.6717,36.6926],[28.6649,36.6926],[28.6599,36.711],[28.6492,36.7183],[28.6359,36.7145],[28.6234,36.6994],[28.6162,36.706],[28.6035,36.7335],[28.6126,36.7471],[28.6167,36.767],[28.6141,36.7853],[28.6035,36.795],[28.603,36.7996],[28.6045,36.8008],[28.6072,36.8008],[28.6104,36.8017],[28.6084,36.8048],[28.6063,36.8069],[28.6062,36.8101],[28.6104,36.8161],[28.6035,36.8161],[28.5989,36.8069],[28.5974,36.8026],[28.5967,36.795],[28.5911,36.799],[28.591,36.8002],[28.5886,36.808],[28.5759,36.8195],[28.5462,36.8234],[28.5244,36.8133],[28.5278,36.7888],[28.5178,36.7956],[28.508,36.7977],[28.4979,36.7985],[28.4868,36.8017],[28.5005,36.8086],[28.5005,36.8161],[28.478,36.816],[28.4639,36.8188],[28.4561,36.8285],[28.4526,36.8496],[28.4595,36.8491],[28.4641,36.8499],[28.4663,36.8533],[28.4652,36.8594],[28.4626,36.862],[28.4601,36.8638],[28.4588,36.8669],[28.4567,36.8775],[28.452,36.8836],[28.4474,36.883],[28.4452,36.8738],[28.4362,36.8647],[28.4162,36.8597],[28.3872,36.857],[28.3767,36.8544],[28.3775,36.8484],[28.3838,36.8414],[28.3906,36.8359],[28.3967,36.8354],[28.4051,36.8376],[28.4147,36.8371],[28.4248,36.8291],[28.4142,36.8146],[28.4065,36.7998],[28.396,36.7895],[28.377,36.7888],[28.325,36.8101],[28.315,36.8161],[28.3088,36.8161],[28.3128,36.8004],[28.315,36.795],[28.2886,36.7937],[28.2782,36.7965],[28.2739,36.8052],[28.2783,36.8142],[28.2889,36.8184],[28.315,36.8223],[28.315,36.8291],[28.3027,36.8357],[28.2886,36.8459],[28.2731,36.852],[28.2572,36.8462],[28.2432,36.8298],[28.2367,36.8132],[28.2395,36.7988],[28.2534,36.7888],[28.2489,36.7668],[28.2886,36.7426],[28.2951,36.7199],[28.2831,36.7266],[28.2673,36.7309],[28.2531,36.7279],[28.2466,36.7124],[28.24,36.7155],[28.2336,36.7199],[28.2332,36.715],[28.2319,36.7119],[28.2295,36.7093],[28.2254,36.7062],[28.2303,36.7047],[28.2316,36.7046],[28.2336,36.6994],[28.1819,36.6846],[28.1623,36.6727],[28.1443,36.6509],[28.1307,36.629],[28.1115,36.6042],[28.0881,36.5891],[28.0617,36.5963],[28.0579,36.59],[28.055,36.5866],[28.0506,36.5847],[28.0418,36.5827],[28.044,36.5795],[28.0462,36.5725],[28.048,36.569],[28.0359,36.5648],[28.0259,36.5637],[28.0183,36.567],[28.0138,36.5759],[28.0037,36.5619],[27.9909,36.5598],[27.9777,36.5657],[27.9661,36.5759],[27.968,36.5789],[27.9709,36.5864],[27.9729,36.5895],[27.9676,36.5926],[27.9646,36.5956],[27.9592,36.6025],[28.0344,36.6025],[28.054,36.6096],[28.0654,36.6195],[28.0754,36.6313],[28.0896,36.6441],[28.0759,36.6578],[28.0567,36.643],[28.048,36.6379],[28.048,36.6441],[28.0578,36.6528],[28.0612,36.6647],[28.058,36.6767],[28.048,36.6851],[28.0379,36.6906],[28.0353,36.6876],[28.0344,36.6752],[28.0296,36.6704],[28.0189,36.6713],[28.0073,36.6752],[28.0002,36.6789],[27.9915,36.6758],[27.9802,36.6758],[27.9702,36.6798],[27.9661,36.6888],[27.9712,36.6925],[28.007,36.6994],[28.0002,36.7062],[28.0213,36.7051],[28.0275,36.7062],[28.0322,36.7092],[28.0383,36.7141],[28.0425,36.7185],[28.0418,36.7199],[28.0798,36.7221],[28.0896,36.7267],[28.0859,36.7106],[28.1006,36.7096],[28.1164,36.7188],[28.1169,36.7335],[28.1074,36.7392],[28.0877,36.7409],[28.0822,36.7471],[28.0842,36.7537],[28.0916,36.7593],[28.1033,36.7676],[28.11,36.7751],[28.1135,36.7682],[28.1175,36.7639],[28.1305,36.754],[28.1253,36.7713],[28.1237,36.7919],[28.1184,36.8006],[28.1067,36.803],[28.095,36.8014],[28.0863,36.7967],[28.0691,36.7751],[28.0472,36.7633],[28.0393,36.7645],[28.0344,36.7751],[28.0197,36.7631],[27.9807,36.7538],[27.9661,36.7471],[27.9592,36.7471],[27.9541,36.7596],[27.9447,36.7563],[27.9323,36.7466],[27.9177,36.7404],[27.9124,36.7541],[27.9054,36.7529],[27.8977,36.7453],[27.8903,36.7404],[27.8831,36.7438],[27.8768,36.7508],[27.8704,36.7526],[27.863,36.7404],[27.8562,36.7404],[27.8438,36.7489],[27.8262,36.7575],[27.8065,36.7608],[27.7879,36.754],[27.7879,36.7608],[27.7761,36.7559],[27.7645,36.7565],[27.7517,36.7592],[27.7361,36.7608],[27.7194,36.7563],[27.6985,36.7342],[27.6843,36.7267],[27.6843,36.7199],[27.6869,36.7111],[27.6731,36.6796],[27.6712,36.6578],[27.638,36.6713],[27.6199,36.6765],[27.603,36.6789],[27.5851,36.6771],[27.5703,36.6738],[27.5597,36.6746],[27.5545,36.6851],[27.4863,36.6652],[27.4819,36.6584],[27.4777,36.6535],[27.4727,36.6509],[27.468,36.653],[27.4557,36.6629],[27.4484,36.6652],[27.4256,36.6686],[27.4158,36.669],[27.4043,36.6652],[27.402,36.6775],[27.3941,36.6841],[27.383,36.6848],[27.3703,36.6789],[27.3706,36.6832],[27.3692,36.6845],[27.3664,36.6845],[27.3628,36.6851],[27.3687,36.6914],[27.3687,36.6974],[27.364,36.7026],[27.3558,36.7062],[27.3558,36.7124],[27.3683,36.7082],[27.3848,36.705],[27.4016,36.7047],[27.4143,36.7093],[27.4231,36.7197],[27.4273,36.7357],[27.4385,36.7471],[27.4496,36.754],[27.4588,36.7557],[27.4832,36.754],[27.5567,36.7627],[27.5925,36.7608],[27.6115,36.7653],[27.617,36.7762],[27.6178,36.7896],[27.6234,36.8017],[27.6454,36.8065],[27.6912,36.7843],[27.7054,36.7888],[27.7212,36.7817],[27.7352,36.7824],[27.7482,36.7844],[27.76,36.7813],[27.7857,36.8011],[27.7991,36.8066],[27.8865,36.8088],[27.8971,36.8123],[27.9037,36.8058],[27.9197,36.7997],[27.94,36.7956],[27.9592,36.795],[27.9942,36.7984],[28.0105,36.7943],[28.0275,36.7813],[28.0308,36.7917],[28.0369,36.7973],[28.0554,36.8086],[28.0491,36.8206],[28.0396,36.8266],[28.0257,36.8288],[28.007,36.8291],[28.0138,36.8359],[28.0233,36.8332],[28.0246,36.8391],[28.0187,36.8486],[28.007,36.857],[28.0116,36.8577],[28.0145,36.8591],[28.0173,36.8611],[28.0213,36.8632],[28.0287,36.8602],[28.0363,36.8626],[28.0449,36.8673],[28.0554,36.8707],[28.0554,36.8769],[28.0355,36.8934],[28.0275,36.9025],[28.0213,36.9116],[28.0344,36.9042],[28.0418,36.9116],[28.0359,36.9146],[28.0332,36.9177],[28.0311,36.9213],[28.0275,36.9259],[28.0359,36.9254],[28.0532,36.9265],[28.0617,36.9259],[28.0617,36.9321],[28.0418,36.9321],[28.0418,36.9389],[28.0654,36.9393],[28.075,36.9374],[28.0822,36.9321],[28.0886,36.9367],[28.0935,36.9379],[28.0982,36.9362],[28.1033,36.9321],[28.11,36.9321],[28.1201,36.9377],[28.1419,36.9287],[28.1517,36.9321],[28.1572,36.9321],[28.1592,36.9246],[28.1653,36.9116],[28.1681,36.9168],[28.1685,36.9189],[28.1672,36.9208],[28.1653,36.9259],[28.1685,36.9302],[28.1681,36.9334],[28.1642,36.9362],[28.1572,36.9389],[28.1572,36.9458],[28.1665,36.9469],[28.1745,36.946],[28.1807,36.9433],[28.1852,36.9389],[28.2051,36.9663],[28.2124,36.9731],[28.2124,36.9805],[28.1989,36.9805],[28.2069,36.9902],[28.2124,37.0004],[28.2285,36.9905],[28.2446,36.9882],[28.2531,36.9937],[28.2466,37.0079],[28.3001,37.025],[28.3296,37.0305],[28.3294,37.0368],[28.3228,37.0438],[28.315,37.0488],[28.3047,37.0508],[28.1743,37.0351],[28.1262,37.0359],[28.1073,37.0321],[28.11,37.0215],[28.11,37.0141],[28.0929,37.0214],[27.9866,37.0351],[27.9756,37.0323],[27.9631,37.0236],[27.9518,37.0215],[27.9409,37.0222],[27.9114,37.0277],[27.8862,37.0262],[27.8047,37.0046],[27.7941,37.0079],[27.7879,37.0079],[27.7864,37.0036],[27.7804,36.9936],[27.773,36.9958],[27.7629,36.9973],[27.7512,36.9969],[27.7395,36.9936],[27.7197,37.0052],[27.6877,37.0054],[27.6558,36.9965],[27.6365,36.9805],[27.618,36.9892],[27.5903,36.9983],[27.5671,36.9966],[27.562,36.9731],[27.5387,36.9867],[27.5283,36.9913],[27.5142,36.9936],[27.4837,36.9908],[27.4727,36.9936],[27.4627,37.0011],[27.4448,37.0225],[27.4385,37.0277],[27.4235,37.0272],[27.4081,37.0168],[27.4024,37.0239],[27.4043,37.0277],[27.3968,37.0277],[27.3948,37.0183],[27.3833,36.9936],[27.3794,36.999],[27.3789,37.0007],[27.3806,37.0024],[27.3833,37.0079],[27.3818,37.009],[27.3799,37.0092],[27.3779,37.0102],[27.3765,37.0141],[27.3809,37.018],[27.3817,37.0189],[27.3799,37.0209],[27.3765,37.0277],[27.3674,37.0228],[27.341,37.0185],[27.3286,37.0141],[27.3286,37.0079],[27.3327,36.9971],[27.3265,36.986],[27.3146,36.9771],[27.3006,36.9731],[27.3054,36.9633],[27.3081,36.9594],[27.299,36.9615],[27.294,36.9616],[27.287,36.9594],[27.2809,36.9669],[27.2632,36.9634],[27.2527,36.9783],[27.2474,37.0002],[27.2461,37.0178],[27.2412,37.0344],[27.2324,37.0473],[27.2288,37.0618],[27.2391,37.083],[27.2477,37.0834],[27.2642,37.089],[27.2819,37.0983],[27.2944,37.1103],[27.2874,37.1154],[27.2791,37.1176],[27.27,37.116],[27.2604,37.1103],[27.2566,37.1137],[27.2549,37.1165],[27.2529,37.124],[27.2604,37.1177],[27.2717,37.1289],[27.303,37.1196],[27.3218,37.124],[27.3213,37.1311],[27.3235,37.1389],[27.3247,37.1479],[27.3218,37.1587],[27.3325,37.1562],[27.3396,37.1505],[27.343,37.1418],[27.3423,37.1301],[27.349,37.1301],[27.3543,37.1409],[27.3616,37.1486],[27.3693,37.1507],[27.3765,37.1444],[27.3794,37.1467],[27.3805,37.1481],[27.3811,37.1495],[27.3833,37.1518],[27.383,37.1347],[27.3866,37.1301],[27.3938,37.1308],[27.4043,37.1301],[27.4124,37.1257],[27.4182,37.1212],[27.4255,37.1196],[27.4385,37.124],[27.4362,37.1212],[27.4349,37.1203],[27.4334,37.1197],[27.431,37.1177],[27.4456,37.097],[27.4598,37.0895],[27.4751,37.0925],[27.5013,37.1075],[27.5222,37.115],[27.531,37.1208],[27.5415,37.126],[27.5651,37.1256],[27.5755,37.1301],[27.5755,37.1376],[27.5623,37.1358],[27.5591,37.1343],[27.5545,37.1301],[27.5472,37.1618],[27.5396,37.1783],[27.5278,37.1854],[27.5278,37.1928],[27.5747,37.2012],[27.5877,37.1988],[27.5755,37.1785],[27.5867,37.1815],[27.5947,37.1859],[27.6099,37.1997],[27.5942,37.2043],[27.5886,37.2111],[27.5894,37.2307],[27.5916,37.2351],[27.6043,37.2423],[27.6099,37.2475],[27.6128,37.2546],[27.614,37.2675],[27.616,37.2747],[27.6038,37.2815],[27.603,37.2822],[27.5944,37.2838],[27.5921,37.2811],[27.5916,37.277],[27.5894,37.2747],[27.5648,37.2755],[27.5532,37.2729],[27.5483,37.2648],[27.5432,37.2498],[27.5305,37.2363],[27.5147,37.2293],[27.5,37.2338],[27.5178,37.246],[27.5199,37.2591],[27.5088,37.2681],[27.4863,37.2679],[27.4832,37.2641],[27.4736,37.2564],[27.4636,37.252],[27.4588,37.258],[27.4614,37.2675],[27.4679,37.277],[27.4863,37.2952],[27.4851,37.303],[27.49,37.3138],[27.4914,37.3273],[27.4802,37.3437],[27.4727,37.3437],[27.4685,37.3156],[27.4461,37.3056],[27.4183,37.3095],[27.3968,37.3231],[27.3887,37.3453],[27.3967,37.3656],[27.4152,37.3817],[27.4385,37.3908],[27.4265,37.406],[27.4072,37.4127],[27.4035,37.4126],[27.4154,37.4289],[27.4689,37.5219],[27.4811,37.5392],[27.5125,37.5531],[27.5458,37.5545],[27.5812,37.5357],[27.6196,37.5244],[27.7,37.5149],[27.7704,37.4766],[27.8161,37.4708],[27.8613,37.4798],[27.9073,37.4799],[27.9497,37.4624],[28.0198,37.4598],[28.1414,37.4668],[28.1807,37.4924],[28.2161,37.5473],[28.2699,37.5774],[28.3426,37.5654],[28.4048,37.523],[28.4782,37.4917],[28.6089,37.4775],[28.6208,37.4605],[28.6168,37.4397],[28.6174,37.4112],[28.6273,37.3825],[28.6532,37.3747],[28.688,37.3747],[28.7353,37.3599],[28.765,37.3185],[28.7779,37.2721],[28.8115,37.2335],[28.8861,37.2249],[28.8982,37.2146],[28.9165,37.1878],[28.9283,37.1766],[29.0019,37.1497],[29.0618,37.1029],[29.0754,37.0655],[29.0839,37.0264],[29.0868,36.9934],[29.0902,36.9779],[29.1151,36.9581],[29.1699,36.9549],[29.2704,36.9116],[29.3044,36.9258],[29.3251,36.9474],[29.3357,36.973],[29.3426,37.038],[29.3904,37.0686],[29.4134,37.0176],[29.3967,36.9597],[29.435,36.9474],[29.4834,36.9959],[29.604,37.0086],[29.6889,36.9143],[29.5802,36.7161],[29.5938,36.6543],[29.5755,36.599],[29.5269,36.5702],[29.4811,36.5371],[29.472,36.5093],[29.4773,36.4824],[29.4549,36.4733],[29.4244,36.4835],[29.362,36.4631],[29.3289,36.4084],[29.3225,36.3907],[29.3133,36.3763],[29.3129,36.3643],[29.3137,36.3515],[29.3071,36.325],[29.2892,36.3047],[29.2612,36.2936]]]}},{"type":"Feature","properties":{"name":"Antalya","country":"TR"},"geometry":{"type":"Polygon","coordinates":[[[32.5718,36.094],[32.5679,36.0961],[32.5314,36.0988],[32.5134,36.103],[32.4373,36.1387],[32.427,36.1476],[32.4196,36.1595],[32.402,36.1655],[32.3815,36.1702],[32.3655,36.178],[32.3187,36.2286],[32.3103,36.2295],[32.3059,36.2346],[32.2873,36.2448],[32.283,36.2506],[32.279,36.279],[32.2761,36.2878],[32.2527,36.3153],[32.1921,36.3584],[32.1799,36.3872],[32.1784,36.3953],[32.1743,36.4024],[32.1629,36.4148],[32.1516,36.4303],[32.1484,36.4337],[32.135,36.4382],[32.1321,36.4387],[32.1145,36.4697],[32.1021,36.4862],[32.0872,36.4933],[32.0261,36.5434],[32.0188,36.5465],[32.01,36.5478],[31.9987,36.5479],[31.9878,36.55],[31.9802,36.5544],[31.9741,36.559],[31.9683,36.5616],[31.9281,36.5602],[31.908,36.5626],[31.8994,36.5725],[31.888,36.5811],[31.8625,36.5887],[31.8346,36.5924],[31.8167,36.5895],[31.8074,36.5968],[31.7691,36.61],[31.7494,36.6323],[31.7366,36.6423],[31.7243,36.641],[31.7035,36.6436],[31.6276,36.6708],[31.6107,36.682],[31.5962,36.6957],[31.4076,36.7634],[31.3786,36.7676],[31.3763,36.7919],[31.3408,36.8086],[30.9397,36.857],[30.7759,36.8496],[30.7481,36.8557],[30.7269,36.8659],[30.6865,36.8912],[30.6286,36.8596],[30.6017,36.8381],[30.5877,36.8071],[30.5745,36.7895],[30.5698,36.7813],[30.5698,36.7506],[30.5646,36.718],[30.5658,36.7002],[30.5767,36.6851],[30.5767,36.6789],[30.5689,36.6706],[30.5627,36.6625],[30.5584,36.6523],[30.5562,36.6379],[30.5579,36.6196],[30.5638,36.6093],[30.5711,36.6011],[30.5767,36.5895],[30.5835,36.5963],[30.5811,36.5752],[30.5672,36.5399],[30.5698,36.528],[30.536,36.5052],[30.5208,36.4897],[30.5088,36.4543],[30.487,36.4269],[30.488,36.4182],[30.4746,36.4016],[30.4763,36.3842],[30.4872,36.3703],[30.5016,36.3636],[30.4942,36.3493],[30.5199,36.3419],[30.5056,36.3274],[30.4788,36.3086],[30.4668,36.2878],[30.4736,36.2878],[30.4782,36.2923],[30.4789,36.2919],[30.4806,36.2895],[30.488,36.2878],[30.4778,36.2795],[30.4639,36.2711],[30.4517,36.2618],[30.4408,36.2393],[30.4274,36.2264],[30.3986,36.206],[30.4004,36.2481],[30.396,36.2655],[30.3843,36.2742],[30.3605,36.2686],[30.2546,36.3083],[30.2337,36.3089],[30.1585,36.2987],[30.1493,36.2899],[30.1455,36.2751],[30.1447,36.2543],[30.1384,36.2543],[30.1372,36.2606],[30.131,36.2742],[30.1248,36.2551],[30.1248,36.2469],[30.1106,36.2543],[30.1111,36.2472],[30.1106,36.2401],[30.073,36.2469],[30.0656,36.2499],[30.0579,36.2556],[30.0482,36.2588],[30.0348,36.2543],[30.0559,36.2543],[30.0559,36.2469],[29.9885,36.2178],[29.9734,36.2196],[29.9613,36.2139],[29.95,36.2144],[29.9383,36.2177],[29.9255,36.2196],[29.9165,36.2191],[29.9116,36.217],[29.8982,36.206],[29.8814,36.1984],[29.844,36.1914],[29.8301,36.1855],[29.8333,36.1845],[29.8361,36.1843],[29.8376,36.1828],[29.8369,36.178],[29.8273,36.178],[29.8026,36.1718],[29.8026,36.165],[29.8231,36.165],[29.8096,36.154],[29.7953,36.1452],[29.7796,36.1394],[29.7617,36.137],[29.7617,36.1445],[29.7673,36.1478],[29.7702,36.1508],[29.7722,36.1542],[29.7754,36.1581],[29.7624,36.1566],[29.7593,36.155],[29.7549,36.1507],[29.7434,36.161],[29.7315,36.1643],[29.7192,36.1627],[29.707,36.1581],[29.7039,36.1544],[29.7031,36.15],[29.7,36.1461],[29.6893,36.1445],[29.6887,36.1413],[29.6724,36.1234],[29.6682,36.1438],[29.634,36.157],[29.6239,36.178],[29.6374,36.1724],[29.6432,36.1779],[29.6421,36.187],[29.6345,36.1916],[29.5835,36.1855],[29.5835,36.1916],[29.5925,36.1958],[29.6023,36.1987],[29.613,36.1999],[29.6239,36.1991],[29.6022,36.207],[29.5215,36.206],[29.4945,36.211],[29.4321,36.2401],[29.4204,36.2306],[29.4152,36.2397],[29.4116,36.2674],[29.4058,36.2602],[29.4019,36.2618],[29.3981,36.2662],[29.3919,36.2674],[29.3816,36.2639],[29.3776,36.2616],[29.3753,36.2589],[29.37,36.2543],[29.3649,36.2483],[29.3613,36.2415],[29.3571,36.2357],[29.3496,36.2326],[29.3408,36.2374],[29.3347,36.2477],[29.3294,36.2541],[29.3223,36.2469],[29.2612,36.2936],[29.2892,36.3047],[29.3071,36.325],[29.3137,36.3515],[29.3129,36.3643],[29.3133,36.3763],[29.3225,36.3907],[29.3289,36.4084],[29.362,36.4631],[29.4244,36.4835],[29.4549,36.4733],[29.4773,36.4824],[29.472,36.5093],[29.4811,36.5371],[29.5269,36.5702],[29.5755,36.599],[29.5938,36.6543],[29.5802,36.7161],[29.6889,36.9143],[29.7184,36.9187],[29.7445,36.9308],[29.7688,36.9575],[29.7965,36.9788],[29.8359,37.0371],[29.8512,37.1125],[29.906,37.1722],[30.0856,37.2466],[30.1469,37.2552],[30.2949,37.3049],[30.3558,37.2984],[30.4174,37.2385],[30.4409,37.2308],[30.58,37.2353],[30.6706,37.2276],[30.7481,37.2284],[30.7855,37.2352],[30.8463,37.2887],[30.8646,37.3316],[30.935,37.3803],[31.0235,37.3514],[31.1265,37.3801],[31.1807,37.3867],[31.2274,37.4139],[31.2777,37.4278],[31.3319,37.4222],[31.3528,37.3998],[31.3764,37.3799],[31.4155,37.3549],[31.459,37.3413],[31.5587,37.3407],[31.8153,37.2985],[31.8987,37.2552],[31.963,37.2076],[32.0331,37.1686],[32.0832,37.1266],[32.1279,37.0762],[32.1555,37.0546],[32.1859,37.0372],[32.2531,36.9869],[32.2916,36.9739],[32.3235,36.9582],[32.3272,36.9276],[32.3016,36.9116],[32.2903,36.8814],[32.3053,36.8542],[32.3487,36.8412],[32.3948,36.8379],[32.4264,36.8321],[32.4475,36.8083],[32.4632,36.7416],[32.4562,36.6734],[32.4906,36.6016],[32.5316,36.5338],[32.5587,36.5062],[32.5923,36.4874],[32.632,36.4703],[32.6517,36.438],[32.6426,36.3794],[32.6472,36.2693],[32.6313,36.2213],[32.6148,36.1964],[32.602,36.1693],[32.5978,36.1441],[32.5903,36.1199],[32.5751,36.1011],[32.5718,36.094]]]}},{"type":"Feature","properties":{"name":"Mersin","country":"TR"},"geometry":{"type":"Polygon","coordinates":[[[34.9333,36.7275],[34.9299,36.7274],[34.9139,36.7247],[34.9004,36.7199],[34.9026,36.7245],[34.9079,36.7404],[34.8936,36.746],[34.8526,36.7813],[34.7708,36.8161],[34.765,36.8086],[34.7358,36.8217],[34.6929,36.8139],[34.6267,36.7888],[34.5965,36.7851],[34.5851,36.7813],[34.5547,36.7676],[34.5488,36.7634],[34.5391,36.7446],[34.5339,36.7404],[34.5032,36.7267],[34.4152,36.6629],[34.3075,36.6086],[34.2762,36.587],[34.1904,36.4985],[34.1817,36.4834],[34.1777,36.4734],[34.1682,36.4669],[34.1475,36.4592],[34.112,36.4296],[34.0773,36.4139],[34.0749,36.3873],[34.0799,36.3555],[34.0779,36.3288],[34.0578,36.3159],[34.0272,36.3108],[33.9998,36.3029],[33.9893,36.2817],[33.9948,36.2833],[33.9983,36.286],[33.9959,36.2795],[33.9771,36.2594],[33.9688,36.2469],[33.9652,36.2324],[33.9644,36.2205],[33.959,36.2136],[33.9414,36.2134],[33.9414,36.2196],[33.9509,36.2377],[33.946,36.2652],[33.9309,36.2905],[33.9104,36.3015],[33.8953,36.3056],[33.8831,36.3125],[33.8711,36.3149],[33.8555,36.3049],[33.8377,36.2804],[33.8279,36.2717],[33.811,36.2674],[33.8187,36.2658],[33.8218,36.264],[33.8247,36.2599],[33.8137,36.2517],[33.7991,36.2307],[33.7869,36.2264],[33.777,36.225],[33.7428,36.2134],[33.7356,36.2087],[33.7053,36.1817],[33.7004,36.1711],[33.6939,36.1441],[33.6882,36.137],[33.6853,36.1432],[33.6603,36.1749],[33.6566,36.1887],[33.6472,36.1926],[33.6341,36.1903],[33.6199,36.1855],[33.5965,36.1688],[33.5741,36.1448],[33.5523,36.1275],[33.5305,36.1308],[33.5442,36.137],[33.5442,36.1445],[33.521,36.1466],[33.4783,36.156],[33.4583,36.1581],[33.4367,36.1547],[33.4011,36.1398],[33.3865,36.137],[33.3478,36.1479],[33.3268,36.1501],[33.3084,36.1322],[33.2865,36.13],[33.242,36.1308],[33.2124,36.1241],[33.2009,36.1234],[33.1887,36.1258],[33.1672,36.135],[33.1569,36.137],[33.134,36.1318],[33.1214,36.1191],[33.1122,36.1034],[33.0986,36.0893],[33.0877,36.0828],[33.0838,36.0827],[33.0804,36.0859],[33.0711,36.0893],[33.0584,36.0906],[33.0269,36.0893],[32.9605,36.1027],[32.9409,36.1035],[32.8767,36.0751],[32.8652,36.0718],[32.8567,36.061],[32.8037,36.0272],[32.7606,36.0295],[32.6707,36.0467],[32.6323,36.062],[32.5718,36.094],[32.5751,36.1011],[32.5903,36.1199],[32.5978,36.1441],[32.602,36.1693],[32.6148,36.1964],[32.6313,36.2213],[32.6472,36.2693],[32.6426,36.3794],[32.6517,36.438],[32.7173,36.445],[32.7824,36.4316],[32.8425,36.4328],[32.8994,36.4533],[32.9582,36.4644],[33.0194,36.4625],[33.0524,36.4666],[33.0762,36.4855],[33.0881,36.5216],[33.1022,36.5535],[33.1164,36.5585],[33.1318,36.5613],[33.1664,36.546],[33.2048,36.5344],[33.231,36.5607],[33.2068,36.5909],[33.1612,36.6185],[33.1084,36.6296],[33.0869,36.6439],[33.0684,36.6632],[33.0435,36.6727],[33.0284,36.699],[33.0193,36.7283],[33.0028,36.7514],[32.982,36.7716],[32.9795,36.8038],[33.0172,36.8097],[33.0336,36.8141],[33.0786,36.8369],[33.1079,36.8464],[33.1212,36.8404],[33.1237,36.8334],[33.1312,36.8211],[33.1673,36.8134],[33.1888,36.8426],[33.2007,36.8871],[33.2327,36.918],[33.27,36.928],[33.3036,36.9469],[33.3359,36.9705],[33.3719,36.988],[33.4132,36.9972],[33.54,37.0066],[33.6194,37.0318],[33.7021,37.0372],[33.7366,37.0287],[33.7612,37.0314],[33.7975,37.0471],[33.8706,37.0577],[33.9668,37.1162],[34.0027,37.1288],[34.0786,37.133],[34.149,37.155],[34.1832,37.1879],[34.2105,37.2013],[34.2979,37.2254],[34.3539,37.248],[34.3986,37.2822],[34.4288,37.2947],[34.4819,37.3089],[34.5001,37.3199],[34.5122,37.352],[34.5875,37.3533],[34.6209,37.3625],[34.6519,37.3783],[34.7215,37.4014],[34.7916,37.3877],[34.8244,37.3284],[34.8619,37.2727],[34.9098,37.2432],[34.9129,37.141],[34.935,37.0837],[34.9821,37.0555],[35.0432,37.0577],[35.0817,37.026],[35.0522,36.9635],[35.0525,36.907],[35.0672,36.8507],[35.0711,36.8228],[35.0667,36.7957],[35.029,36.7683],[34.9868,36.7591],[34.934,36.7293],[34.9333,36.7275]]]}},{"type":"Feature","properties":{"name":"Adana","country":"TR"},"geometry":{"type":"Polygon","coordinates":[[[35.9325,36.873],[35.8938,36.8349],[35.8801,36.8259],[35.8636,36.8223],[35.8539,36.8158],[35.8206,36.7851],[35.8054,36.7751],[35.7671,36.7677],[35.6841,36.7646],[35.6477,36.754],[35.6362,36.7446],[35.6245,36.726],[35.6135,36.7199],[35.6174,36.7268],[35.6182,36.7316],[35.615,36.7357],[35.6067,36.7404],[35.5969,36.7249],[35.5823,36.7128],[35.573,36.7007],[35.5794,36.6851],[35.5945,36.7017],[35.6169,36.6962],[35.6198,36.7124],[35.6255,36.7109],[35.6292,36.7082],[35.6317,36.7043],[35.634,36.6994],[35.6387,36.7063],[35.6405,36.7134],[35.6392,36.7204],[35.634,36.7267],[35.6481,36.7332],[35.6538,36.7274],[35.6574,36.7175],[35.6648,36.7124],[35.6758,36.7153],[35.6856,36.7208],[35.6961,36.7239],[35.7092,36.7199],[35.6502,36.6978],[35.6226,36.6807],[35.6067,36.6578],[35.6087,36.6469],[35.6221,36.6542],[35.6668,36.6961],[35.68,36.7031],[35.6956,36.7062],[35.658,36.6752],[35.6522,36.6667],[35.6437,36.6489],[35.6375,36.641],[35.6331,36.6309],[35.633,36.6181],[35.6314,36.6072],[35.6235,36.6025],[35.6139,36.6005],[35.5988,36.5915],[35.5894,36.5895],[35.5571,36.5875],[35.5447,36.5895],[35.5134,36.613],[35.5037,36.6168],[35.49,36.6139],[35.4812,36.6072],[35.4787,36.5985],[35.4885,36.5971],[35.4968,36.5944],[35.531,36.5827],[35.4888,36.592],[35.4455,36.5963],[35.4372,36.5942],[35.4133,36.5837],[35.4081,36.5793],[35.4045,36.5719],[35.3954,36.5676],[35.374,36.5616],[35.348,36.5444],[35.346,36.5411],[35.3358,36.5456],[35.3202,36.5647],[35.3088,36.569],[35.2947,36.5725],[35.0418,36.6952],[35.0142,36.7031],[34.9823,36.7208],[34.9624,36.7267],[34.9465,36.728],[34.9333,36.7275],[34.934,36.7293],[34.9868,36.7591],[35.029,36.7683],[35.0667,36.7957],[35.0711,36.8228],[35.0672,36.8507],[35.0525,36.907],[35.0522,36.9635],[35.0817,37.026],[35.0432,37.0577],[34.9821,37.0555],[34.935,37.0837],[34.9129,37.141],[34.9098,37.2432],[34.8619,37.2727],[34.8244,37.3284],[34.7916,37.3877],[34.7898,37.4351],[34.7946,37.4572],[34.8198,37.4886],[34.8356,37.4985],[34.8499,37.5106],[34.8652,37.553],[34.8581,37.5798],[34.8326,37.6299],[34.8278,37.6802],[34.8597,37.7166],[34.9106,37.7136],[34.9619,37.7007],[35.0597,37.7135],[35.1906,37.8181],[35.3632,37.8073],[35.4536,37.7888],[35.5772,37.7505],[35.6296,37.7702],[35.6077,37.9538],[35.979,38.155],[36.0331,38.2133],[36.0756,38.2819],[36.1033,38.3122],[36.1459,38.3951],[36.19,38.4235],[36.2669,38.4578],[36.348,38.4747],[36.4001,38.4566],[36.4373,38.4097],[36.4626,38.358],[36.5055,38.3229],[36.4493,38.2809],[36.4181,38.2188],[36.3684,38.0421],[36.3386,37.9777],[36.3257,37.9119],[36.3241,37.8813],[36.3308,37.8343],[36.3623,37.7726],[36.3597,37.7318],[36.3262,37.7064],[36.3071,37.6975],[36.2799,37.6691],[36.203,37.6695],[36.11,37.6643],[36.0635,37.6024],[36.0067,37.4991],[35.9396,37.37],[35.9396,37.2925],[35.9697,37.2197],[35.9907,37.2206],[36.0559,37.2105],[36.0846,37.1918],[36.0927,37.1785],[36.1048,37.1221],[36.0894,37.0704],[36.0616,37.0097],[36.039,37.0167],[36.0176,37.02],[35.9993,37.0105],[35.917,36.9348],[35.9164,36.8934],[35.9325,36.873]]]}},{"type":"Feature","properties":{"name":"Isparta","country":"TR"},"geometry":{"type":"Polygon","coordinates":[[[31.2544,38.423],[31.2833,38.3501],[31.3614,38.3],[31.4219,38.2381],[31.4914,38.1926],[31.5253,38.1809],[31.5483,38.1548],[31.6207,38.1047],[31.6136,38.072],[31.5496,38.0397],[31.4795,38.0187],[31.4471,38.0028],[31.4252,37.9376],[31.4482,37.8592],[31.4507,37.7807],[31.4093,37.7291],[31.4051,37.6815],[31.3727,37.6492],[31.3292,37.6389],[31.3293,37.6039],[31.3538,37.5738],[31.3677,37.5376],[31.3585,37.4776],[31.3319,37.4222],[31.2777,37.4278],[31.2274,37.4139],[31.1807,37.3867],[31.1265,37.3801],[31.0235,37.3514],[30.935,37.3803],[30.9205,37.409],[30.9002,37.4321],[30.8701,37.4354],[30.8546,37.4334],[30.8359,37.4513],[30.8268,37.4689],[30.7664,37.5421],[30.7393,37.59],[30.7065,37.6706],[30.6463,37.7],[30.5833,37.6994],[30.5129,37.7093],[30.47,37.7354],[30.4308,37.7685],[30.3864,37.8182],[30.3366,37.8461],[30.29,37.808],[30.2627,37.7929],[30.2336,37.7813],[30.1235,37.7168],[30.0862,37.7032],[30.0486,37.7141],[30.0291,37.7433],[30.0153,37.7765],[30.0934,37.7792],[30.1653,37.8104],[30.1977,37.8584],[30.2111,37.9619],[30.2322,37.9932],[30.3,38.0244],[30.3903,38.0946],[30.429,38.1122],[30.4812,38.1495],[30.5302,38.193],[30.5665,38.2056],[30.6055,38.2137],[30.6623,38.25],[30.6831,38.2539],[30.7051,38.2545],[30.7811,38.2777],[30.8447,38.3249],[30.9056,38.3805],[31.0304,38.4598],[31.0797,38.5019],[31.0996,38.5152],[31.1238,38.5124],[31.1442,38.5033],[31.1622,38.4908],[31.207,38.4396],[31.2295,38.429],[31.2544,38.423]]]}},{"type":"Feature","properties":{"name":"Manisa","country":"TR"},"geometry":{"type":"Polygon","coordinates":[[[28.6595,39.1566],[28.709,39.1132],[28.7304,39.1008],[28.881,39.0753],[28.9099,39.0596],[28.9743,38.9816],[28.9842,38.9654],[28.9909,38.948],[28.982,38.8867],[29.0153,38.84],[29.0363,38.7933],[29.0323,38.7301],[28.9955,38.701],[28.9179,38.6537],[28.9064,38.6339],[28.8767,38.6084],[28.8484,38.6001],[28.8519,38.5647],[28.8804,38.5571],[28.9029,38.5354],[28.9067,38.5133],[28.9081,38.4893],[28.9155,38.4407],[28.9082,38.3932],[28.8949,38.3632],[28.8751,38.338],[28.8481,38.3178],[28.8385,38.3034],[28.8638,38.288],[28.8938,38.2874],[28.931,38.2551],[28.8381,38.2388],[28.7936,38.1705],[28.7984,38.1436],[28.7844,38.1199],[28.743,38.1043],[28.698,38.1038],[28.5623,38.1062],[28.5174,38.1593],[28.4758,38.2621],[28.4478,38.2899],[28.4032,38.2993],[28.38,38.3008],[28.345,38.3088],[28.3251,38.3274],[28.2994,38.3311],[28.261,38.3216],[28.1629,38.3088],[28.1357,38.3592],[28.0954,38.3946],[28.0654,38.3873],[28.0344,38.3883],[27.9864,38.4051],[27.9389,38.4068],[27.9224,38.3752],[27.8989,38.3421],[27.8483,38.3329],[27.8061,38.3634],[27.7977,38.3785],[27.7858,38.4102],[27.7778,38.4247],[27.6999,38.453],[27.6303,38.4915],[27.6135,38.5468],[27.5833,38.5699],[27.5628,38.5727],[27.4506,38.5705],[27.3803,38.5759],[27.3213,38.6157],[27.2947,38.6846],[27.2715,38.7078],[27.2559,38.7131],[27.2284,38.7348],[27.2332,38.7558],[27.2608,38.792],[27.291,38.8166],[27.3094,38.8497],[27.3153,38.8884],[27.3271,38.9249],[27.3821,38.9545],[27.4452,38.9744],[27.5101,39.0168],[27.5377,39.0413],[27.5453,39.0939],[27.5081,39.1478],[27.4918,39.1836],[27.4588,39.3037],[27.4201,39.3803],[27.4966,39.4113],[27.5431,39.3948],[27.586,39.367],[27.6559,39.3517],[27.7264,39.3593],[27.7679,39.3566],[27.8072,39.3415],[27.823,39.3396],[27.8549,39.3443],[27.8712,39.3448],[27.8962,39.3134],[27.8659,39.2716],[27.8542,39.2364],[27.8933,39.2219],[27.968,39.2433],[27.9846,39.2364],[27.9914,39.2222],[28.0737,39.1527],[28.125,39.063],[28.171,39.0502],[28.2128,39.064],[28.2562,39.0711],[28.2936,39.0883],[28.3208,39.1163],[28.3613,39.1224],[28.4047,39.1194],[28.4427,39.1228],[28.4799,39.1306],[28.5721,39.1675],[28.6595,39.1566]]]}},{"type":"Feature","properties":{"name":"Denizli","country":"TR"},"geometry":{"type":"Polygon","coordinates":[[[28.698,38.1038],[28.743,38.1043],[28.7844,38.1199],[28.7984,38.1436],[28.7936,38.1705],[28.8381,38.2388],[28.931,38.2551],[28.9905,38.2452],[29.0449,38.2193],[29.1011,38.2192],[29.1515,38.2464],[29.1876,38.2412],[29.2191,38.2133],[29.2522,38.2122],[29.285,38.2208],[29.2987,38.2269],[29.3119,38.2313],[29.3361,38.218],[29.3483,38.2198],[29.3614,38.2394],[29.3619,38.2517],[29.4123,38.2827],[29.4833,38.2768],[29.5592,38.2783],[29.5958,38.2871],[29.6277,38.3096],[29.6199,38.3683],[29.6286,38.4288],[29.7533,38.4502],[29.8915,38.4248],[29.9985,38.2833],[30.0255,38.2582],[30.0409,38.1915],[30.0132,38.1666],[29.7438,38.0074],[29.7124,37.9945],[29.6799,37.9843],[29.6648,37.9558],[29.6641,37.8537],[29.6885,37.8461],[29.7337,37.8464],[29.7476,37.8423],[29.7745,37.8313],[29.7889,37.828],[29.8008,37.8212],[29.8455,37.7593],[29.7737,37.7124],[29.7335,37.6929],[29.718,37.6881],[29.6889,37.6744],[29.6759,37.6527],[29.666,37.6303],[29.5381,37.5763],[29.5376,37.55],[29.5475,37.5226],[29.5458,37.4827],[29.5575,37.4449],[29.5657,37.4449],[29.5699,37.4456],[29.5775,37.441],[29.5842,37.433],[29.5877,37.4192],[29.5845,37.41],[29.5402,37.3397],[29.442,37.2225],[29.4147,37.1747],[29.3989,37.1224],[29.3904,37.0686],[29.3426,37.038],[29.3357,36.973],[29.3251,36.9474],[29.3044,36.9258],[29.2704,36.9116],[29.1699,36.9549],[29.1151,36.9581],[29.0902,36.9779],[29.0868,36.9934],[29.0839,37.0264],[29.0754,37.0655],[29.0618,37.1029],[29.0019,37.1497],[28.9283,37.1766],[28.9165,37.1878],[28.8982,37.2146],[28.8861,37.2249],[28.8115,37.2335],[28.7779,37.2721],[28.765,37.3185],[28.7353,37.3599],[28.688,37.3747],[28.6532,37.3747],[28.6273,37.3825],[28.6174,37.4112],[28.6168,37.4397],[28.6208,37.4605],[28.6089,37.4775],[28.6035,37.4923],[28.5956,37.5061],[28.5853,37.5115],[28.5754,37.5146],[28.5628,37.553],[28.5832,37.5897],[28.6531,37.6063],[28.7303,37.5984],[28.7833,37.6385],[28.8302,37.6911],[28.869,37.6925],[28.8996,37.7097],[28.9031,37.7377],[28.8929,37.7603],[28.8292,37.7705],[28.8079,37.7963],[28.7924,37.8219],[28.7706,37.8452],[28.7734,37.8711],[28.7949,37.8839],[28.8043,37.9051],[28.7884,37.9652],[28.7905,37.9994],[28.7777,38.0288],[28.7222,38.0591],[28.709,38.081],[28.698,38.1038]]]}},{"type":"Feature","properties":{"name":"Burdur","country":"TR"},"geometry":{"type":"Polygon","coordinates":[[[29.5657,37.4449],[29.5575,37.4449],[29.5458,37.4827],[29.5475,37.5226],[29.5376,37.55],[29.5381,37.5763],[29.666,37.6303],[29.6759,37.6527],[29.6889,37.6744],[29.718,37.6881],[29.7335,37.6929],[29.7737,37.7124],[29.8455,37.7593],[29.9264,37.7819],[30.0153,37.7765],[30.0291,37.7433],[30.0486,37.7141],[30.0862,37.7032],[30.1235,37.7168],[30.2336,37.7813],[30.2627,37.7929],[30.29,37.808],[30.3366,37.8461],[30.3864,37.8182],[30.4308,37.7685],[30.47,37.7354],[30.5129,37.7093],[30.5833,37.6994],[30.6463,37.7],[30.7065,37.6706],[30.7393,37.59],[30.7664,37.5421],[30.8268,37.4689],[30.8359,37.4513],[30.8546,37.4334],[30.8701,37.4354],[30.9002,37.4321],[30.9205,37.409],[30.935,37.3803],[30.8646,37.3316],[30.8463,37.2887],[30.7855,37.2352],[30.7481,37.2284],[30.6706,37.2276],[30.58,37.2353],[30.4409,37.2308],[30.4174,37.2385],[30.3558,37.2984],[30.2949,37.3049],[30.1469,37.2552],[30.0856,37.2466],[29.906,37.1722],[29.8512,37.1125],[29.8359,37.0371],[29.7965,36.9788],[29.7688,36.9575],[29.7445,36.9308],[29.7184,36.9187],[29.6889,36.9143],[29.604,37.0086],[29.4834,36.9959],[29.435,36.9474],[29.3967,36.9597],[29.4134,37.0176],[29.3904,37.0686],[29.3989,37.1224],[29.4147,37.1747],[29.442,37.2225],[29.5402,37.3397],[29.5845,37.41],[29.5877,37.4192],[29.5842,37.433],[29.5775,37.441],[29.5699,37.4456],[29.5657,37.4449]]]}},{"type":"Feature","properties":{"name":"Usak","country":"TR"},"geometry":{"type":"Polygon","coordinates":[[[29.6881,38.8851],[29.8118,38.862],[29.8413,38.8525],[29.8888,38.8103],[29.8881,38.7069],[29.8832,38.6654],[29.8681,38.6277],[29.8071,38.5812],[29.7931,38.5417],[29.7739,38.5007],[29.7508,38.4777],[29.7533,38.4502],[29.6286,38.4288],[29.6199,38.3683],[29.6277,38.3096],[29.5958,38.2871],[29.5592,38.2783],[29.4833,38.2768],[29.4123,38.2827],[29.3619,38.2517],[29.3614,38.2394],[29.3483,38.2198],[29.3361,38.218],[29.3119,38.2313],[29.2987,38.2269],[29.285,38.2208],[29.2522,38.2122],[29.2191,38.2133],[29.1876,38.2412],[29.1515,38.2464],[29.1011,38.2192],[29.0449,38.2193],[28.9905,38.2452],[28.931,38.2551],[28.8938,38.2874],[28.8638,38.288],[28.8385,38.3034],[28.8481,38.3178],[28.8751,38.338],[28.8949,38.3632],[28.9082,38.3932],[28.9155,38.4407],[28.9081,38.4893],[28.9067,38.5133],[28.9029,38.5354],[28.8804,38.5571],[28.8519,38.5647],[28.8484,38.6001],[28.8767,38.6084],[28.9064,38.6339],[28.9179,38.6537],[28.9955,38.701],[29.0323,38.7301],[29.0868,38.7672],[29.1455,38.7667],[29.2067,38.7368],[29.2735,38.7291],[29.3457,38.7316],[29.4712,38.7596],[29.5293,38.763],[29.5543,38.8092],[29.5714,38.8652],[29.5966,38.8777],[29.6244,38.8838],[29.6881,38.8851]]]}},{"type":"Feature","properties":{"name":"Osmaniye","country":"TR"},"geometry":{"type":"Polygon","coordinates":[[[36.2799,37.6691],[36.2795,37.591],[36.2568,37.5613],[36.2286,37.5368],[36.2202,37.5064],[36.2328,37.4783],[36.2469,37.4676],[36.2575,37.4553],[36.262,37.389],[36.3036,37.3491],[36.3124,37.3498],[36.3188,37.3597],[36.3293,37.364],[36.3417,37.3666],[36.3541,37.3709],[36.3707,37.3563],[36.4039,37.3611],[36.4411,37.3723],[36.4702,37.3771],[36.5506,37.3897],[36.5888,37.3818],[36.6238,37.3627],[36.6781,37.3225],[36.7212,37.2712],[36.6761,37.2296],[36.6374,37.1827],[36.5827,37.0966],[36.513,37.0254],[36.4762,36.9973],[36.4519,36.9607],[36.402,36.9556],[36.3521,36.9566],[36.3136,36.976],[36.2806,37.0043],[36.2353,37.0154],[36.188,37.0054],[36.1462,37.0063],[36.1053,37.0155],[36.0616,37.0097],[36.0894,37.0704],[36.1048,37.1221],[36.0927,37.1785],[36.0846,37.1918],[36.0559,37.2105],[35.9907,37.2206],[35.9697,37.2197],[35.9396,37.2925],[35.9396,37.37],[36.0067,37.4991],[36.0635,37.6024],[36.11,37.6643],[36.203,37.6695],[36.2799,37.6691]]]}}]}